{
"type": "FeatureCollection",
"name": "bazaars",
"crs": { "type": "name", "properties": { "name": "urn:ogc:def:crs:OGC:1.3:CRS84" } },
"features": [
{ "type": "Feature", "properties": { "osm_element": "relation", "osm_id": 1648675, "name": null, "name_ru": "Куйлюк Вещевой", "amenity": "marketplace", "operator": "<NA>", "district_name": "Bektemir district", "district_assignment": "within" }, "geometry": { "type": "Point", "coordinates": [ 69.3332121, 41.2374162 ] } },
{ "type": "Feature", "properties": { "osm_element": "relation", "osm_id": 1648676, "name": "Qo'yliq qurilish bozori", "name_ru": "Строительный Рынок Куйлюк", "amenity": "marketplace", "operator": "<NA>", "district_name": "Bektemir district", "district_assignment": "within" }, "geometry": { "type": "Point", "coordinates": [ 69.335001, 41.2381547 ] } },
{ "type": "Feature", "properties": { "osm_element": "relation", "osm_id": 1843765, "name": "Aviosozlar Bozori (Kadisheva)", "name_ru": "Рынок Авиосозлар (Кадышева)", "amenity": "marketplace", "operator": "<NA>", "district_name": "Yashnabad district", "district_assignment": "within" }, "geometry": { "type": "Point", "coordinates": [ 69.3488811, 41.285443 ] } },
{ "type": "Feature", "properties": { "osm_element": "relation", "osm_id": 2222436, "name": "Mirobod bozori", "name_ru": "Мирабадский Рынок \"Госпитальный \"", "amenity": "marketplace", "operator": "<NA>", "district_name": "Mirabad district", "district_assignment": "within" }, "geometry": { "type": "Point", "coordinates": [ 69.2749611, 41.29098 ] } },
{ "type": "Feature", "properties": { "osm_element": "relation", "osm_id": 15913500, "name": "Сторительный рынок Домбрабад", "name_ru": "Сторительный рынок Домбрабад", "amenity": "marketplace", "operator": "<NA>", "district_name": "Chilanzar district", "district_assignment": "within" }, "geometry": { "type": "Point", "coordinates": [ 69.2005664, 41.2537062 ] } },
{ "type": "Feature", "properties": { "osm_element": "way", "osm_id": 31961842, "name": "Oloy Bozori", "name_ru": "Алайский базар", "amenity": "marketplace", "operator": "<NA>", "district_name": "Yunusabad district", "district_assignment": "within" }, "geometry": { "type": "Point", "coordinates": [ 69.2850667, 41.3187556 ] } },
{ "type": "Feature", "properties": { "osm_element": "way", "osm_id": 32686609, "name": "Fleshka texno-bozori (Malika)", "name_ru": "Техно-Центр \"Флэшка\" (Малика)", "amenity": "marketplace", "operator": "<NA>", "district_name": "Shaykhantakhur district", "district_assignment": "within" }, "geometry": { "type": "Point", "coordinates": [ 69.2714567, 41.338118 ] } },
{ "type": "Feature", "properties": { "osm_element": "way", "osm_id": 44358390, "name": "Katartal bazar (Optoviy)", "name_ru": "\"Катартал\" Оптовый рынок", "amenity": "marketplace", "operator": "<NA>", "district_name": "Chilanzar district", "district_assignment": "within" }, "geometry": { "type": "Point", "coordinates": [ 69.2118143, 41.2933781 ] } },
{ "type": "Feature", "properties": { "osm_element": "way", "osm_id": 45582990, "name": "Shirin Bozori", "name_ru": "рынок Ширин", "amenity": "marketplace", "operator": "<NA>", "district_name": "Mirzo Ulugbek district", "district_assignment": "within" }, "geometry": { "type": "Point", "coordinates": [ 69.3845917, 41.3545899 ] } },
{ "type": "Feature", "properties": { "osm_element": "way", "osm_id": 83270085, "name": "Qo'yliq oziq-ovqat bozori", "name_ru": "Куйлюкский базар", "amenity": "marketplace", "operator": "<NA>", "district_name": "Bektemir district", "district_assignment": "within" }, "geometry": { "type": "Point", "coordinates": [ 69.3270771, 41.2351583 ] } },
{ "type": "Feature", "properties": { "osm_element": "way", "osm_id": 88657578, "name": "Yangi Qo'yliq", "name_ru": "Янги Куйлик", "amenity": "marketplace", "operator": "<NA>", "district_name": "Sergeli district", "district_assignment": "within" }, "geometry": { "type": "Point", "coordinates": [ 69.3013821, 41.2491344 ] } },
{ "type": "Feature", "properties": { "osm_element": "way", "osm_id": 95610385, "name": "DEN", "name_ru": null, "amenity": "marketplace", "operator": "<NA>", "district_name": "Sergeli district", "district_assignment": "within" }, "geometry": { "type": "Point", "coordinates": [ 69.3011479, 41.2498669 ] } },
{ "type": "Feature", "properties": { "osm_element": "way", "osm_id": 98809126, "name": "Янгиабад (барахолка)", "name_ru": "Янгиабад (барахолка)", "amenity": "marketplace", "operator": "<NA>", "district_name": "Yashnabad district", "district_assignment": "within" }, "geometry": { "type": "Point", "coordinates": [ 69.3525466, 41.2583559 ] } },
{ "type": "Feature", "properties": { "osm_element": "way", "osm_id": 99660886, "name": "Торговый Центр - Сергели", "name_ru": "Корзинка Уз Спутник", "amenity": "marketplace", "operator": "<NA>", "district_name": "Yangikhayot district", "district_assignment": "within" }, "geometry": { "type": "Point", "coordinates": [ 69.2109392, 41.1994762 ] } },
{ "type": "Feature", "properties": { "osm_element": "way", "osm_id": 100595773, "name": "базарчик", "name_ru": null, "amenity": "marketplace", "operator": "<NA>", "district_name": "Bektemir district", "district_assignment": "within" }, "geometry": { "type": "Point", "coordinates": [ 69.3727085, 41.2494577 ] } },
{ "type": "Feature", "properties": { "osm_element": "way", "osm_id": 101154097, "name": "Yunusobod dehqon bozori", "name_ru": "Дехканский рынок \"Юнусабад\"", "amenity": "marketplace", "operator": "<NA>", "district_name": "Yunusabad district", "district_assignment": "within" }, "geometry": { "type": "Point", "coordinates": [ 69.2909219, 41.3646442 ] } },
{ "type": "Feature", "properties": { "osm_element": "way", "osm_id": 101302622, "name": "Ахмад-Дониш - вещевой", "name_ru": "Ахмад-Дониш - вещевой", "amenity": "marketplace", "operator": "<NA>", "district_name": "Yunusabad district", "district_assignment": "within" }, "geometry": { "type": "Point", "coordinates": [ 69.2947439, 41.3695721 ] } },
{ "type": "Feature", "properties": { "osm_element": "way", "osm_id": 102381389, "name": "Базарчик", "name_ru": "Базарчик", "amenity": "marketplace", "operator": "<NA>", "district_name": "Chilanzar district", "district_assignment": "within" }, "geometry": { "type": "Point", "coordinates": [ 69.2217033, 41.2825037 ] } },
{ "type": "Feature", "properties": { "osm_element": "way", "osm_id": 102535441, "name": "Базарчик", "name_ru": null, "amenity": "marketplace", "operator": "<NA>", "district_name": "Almazar district", "district_assignment": "within" }, "geometry": { "type": "Point", "coordinates": [ 69.1846202, 41.3639522 ] } },
{ "type": "Feature", "properties": { "osm_element": "way", "osm_id": 103000192, "name": "Рынок Ибн-Сино", "name_ru": "рынок Ибн Сино", "amenity": "marketplace", "operator": "<NA>", "district_name": "Shaykhantakhur district", "district_assignment": "within" }, "geometry": { "type": "Point", "coordinates": [ 69.1736503, 41.335389 ] } },
{ "type": "Feature", "properties": { "osm_element": "way", "osm_id": 103403664, "name": "оптовый рынок Сергели", "name_ru": "оптовый рынок Сергели", "amenity": "marketplace", "operator": "<NA>", "district_name": "Sergeli district", "district_assignment": "within" }, "geometry": { "type": "Point", "coordinates": [ 69.2729491, 41.2125796 ] } },
{ "type": "Feature", "properties": { "osm_element": "way", "osm_id": 107528507, "name": "Строительный рынок Чукурсай", "name_ru": "Строительный рынок Чукурсай", "amenity": "marketplace", "operator": "<NA>", "district_name": "Almazar district", "district_assignment": "within" }, "geometry": { "type": "Point", "coordinates": [ 69.2463743, 41.3551436 ] } },
{ "type": "Feature", "properties": { "osm_element": "way", "osm_id": 109353614, "name": "TansiqBoyevBozor", "name_ru": "Тансыкбаева базар", "amenity": "marketplace", "operator": "<NA>", "district_name": "Almazar district", "district_assignment": "within" }, "geometry": { "type": "Point", "coordinates": [ 69.2039233, 41.367753 ] } },
{ "type": "Feature", "properties": { "osm_element": "way", "osm_id": 129650800, "name": "Аския базар", "name_ru": "Аския базар", "amenity": "marketplace", "operator": "<NA>", "district_name": "Yakkasaray district", "district_assignment": "within" }, "geometry": { "type": "Point", "coordinates": [ 69.2505775, 41.2844989 ] } },
{ "type": "Feature", "properties": { "osm_element": "way", "osm_id": 136438787, "name": "\"Урикзар продуктовый рынок", "name_ru": "\"Урикзар\" продуктовый рынок", "amenity": "marketplace", "operator": "<NA>", "district_name": "Uchtepa district", "district_assignment": "within" }, "geometry": { "type": "Point", "coordinates": [ 69.1511993, 41.2854221 ] } },
{ "type": "Feature", "properties": { "osm_element": "way", "osm_id": 136438788, "name": "\"Урикзар\" вещевой рынок", "name_ru": "\"Урикзар\" вещевой рынок", "amenity": "marketplace", "operator": "<NA>", "district_name": "Uchtepa district", "district_assignment": "within" }, "geometry": { "type": "Point", "coordinates": [ 69.1519486, 41.2864931 ] } },
{ "type": "Feature", "properties": { "osm_element": "way", "osm_id": 136439078, "name": "\"Урикзар строительный рынок", "name_ru": "\"Урикзар\" строительный рынок", "amenity": "marketplace", "operator": "<NA>", "district_name": "Uchtepa district", "district_assignment": "within" }, "geometry": { "type": "Point", "coordinates": [ 69.1511799, 41.2879207 ] } },
{ "type": "Feature", "properties": { "osm_element": "way", "osm_id": 138215754, "name": "Bekto'pi", "name_ru": "Бектопи строительный рынок", "amenity": "marketplace", "operator": "<NA>", "district_name": "Chilanzar district", "district_assignment": "within" }, "geometry": { "type": "Point", "coordinates": [ 69.1628707, 41.2528772 ] } },
{ "type": "Feature", "properties": { "osm_element": "way", "osm_id": 140372756, "name": "Птичий рынок", "name_ru": null, "amenity": "marketplace", "operator": "<NA>", "district_name": "Almazar district", "district_assignment": "within" }, "geometry": { "type": "Point", "coordinates": [ 69.2153945, 41.3621706 ] } },
{ "type": "Feature", "properties": { "osm_element": "way", "osm_id": 149396403, "name": null, "name_ru": null, "amenity": "marketplace", "operator": "<NA>", "district_name": "Almazar district", "district_assignment": "within" }, "geometry": { "type": "Point", "coordinates": [ 69.212632, 41.3518708 ] } },
{ "type": "Feature", "properties": { "osm_element": "way", "osm_id": 152429627, "name": "Навруз рынок", "name_ru": "Навруз рынок", "amenity": "marketplace", "operator": "<NA>", "district_name": "Mirzo Ulugbek district", "district_assignment": "within" }, "geometry": { "type": "Point", "coordinates": [ 69.3557646, 41.3369119 ] } },
{ "type": "Feature", "properties": { "osm_element": "way", "osm_id": 152626948, "name": "Тахтабазар", "name_ru": "Деревянный рынок", "amenity": "marketplace", "operator": "<NA>", "district_name": "Uchtepa district", "district_assignment": "within" }, "geometry": { "type": "Point", "coordinates": [ 69.1495664, 41.2796741 ] } },
{ "type": "Feature", "properties": { "osm_element": "way", "osm_id": 152626954, "name": "Стройматериалы", "name_ru": "Стройматериалы", "amenity": "marketplace", "operator": "<NA>", "district_name": "Uchtepa district", "district_assignment": "within" }, "geometry": { "type": "Point", "coordinates": [ 69.1485415, 41.2765569 ] } },
{ "type": "Feature", "properties": { "osm_element": "way", "osm_id": 152626955, "name": "Стройматериалы", "name_ru": "Стройматериалы", "amenity": "marketplace", "operator": "<NA>", "district_name": "Uchtepa district", "district_assignment": "within" }, "geometry": { "type": "Point", "coordinates": [ 69.1533548, 41.2813815 ] } },
{ "type": "Feature", "properties": { "osm_element": "way", "osm_id": 167161663, "name": "Рынок Сергели", "name_ru": "Рынок Сергели", "amenity": "marketplace", "operator": "<NA>", "district_name": "Sergeli district", "district_assignment": "within" }, "geometry": { "type": "Point", "coordinates": [ 69.2180652, 41.2274513 ] } },
{ "type": "Feature", "properties": { "osm_element": "way", "osm_id": 174498975, "name": "Chorsu bozor", "name_ru": "Чорсу базар", "amenity": "marketplace", "operator": "<NA>", "district_name": "Shaykhantakhur district", "district_assignment": "within" }, "geometry": { "type": "Point", "coordinates": [ 69.2365264, 41.3261719 ] } },
{ "type": "Feature", "properties": { "osm_element": "way", "osm_id": 174589276, "name": "Чўпан базар", "name_ru": null, "amenity": "marketplace", "operator": "<NA>", "district_name": "Shaykhantakhur district", "district_assignment": "within" }, "geometry": { "type": "Point", "coordinates": [ 69.2346284, 41.3243119 ] } },
{ "type": "Feature", "properties": { "osm_element": "way", "osm_id": 181389465, "name": "Chilonzor buyum savdo kompleksi", "name_ru": "Чиланзарский вещевой рынок (Ипподром)", "amenity": "marketplace", "operator": "<NA>", "district_name": "Chilanzar district", "district_assignment": "within" }, "geometry": { "type": "Point", "coordinates": [ 69.1699259, 41.2450435 ] } },
{ "type": "Feature", "properties": { "osm_element": "way", "osm_id": 182052821, "name": "Beshyogʻoch", "name_ru": "Бешагач", "amenity": "marketplace", "operator": "<NA>", "district_name": "Chilanzar district", "district_assignment": "within" }, "geometry": { "type": "Point", "coordinates": [ 69.248773, 41.303913 ] } },
{ "type": "Feature", "properties": { "osm_element": "way", "osm_id": 184130191, "name": "Рынок кованных издлий", "name_ru": null, "amenity": "marketplace", "operator": "<NA>", "district_name": "Uchtepa district", "district_assignment": "within" }, "geometry": { "type": "Point", "coordinates": [ 69.1509046, 41.3109373 ] } },
{ "type": "Feature", "properties": { "osm_element": "way", "osm_id": 190307525, "name": "Ширин базар", "name_ru": null, "amenity": "marketplace", "operator": "<NA>", "district_name": "Mirzo Ulugbek district", "district_assignment": "within" }, "geometry": { "type": "Point", "coordinates": [ 69.3446997, 41.3470169 ] } },
{ "type": "Feature", "properties": { "osm_element": "way", "osm_id": 283311502, "name": "Базарчик Рохат 6:00-20:00", "name_ru": "Базарчик Рохат", "amenity": "marketplace", "operator": "<NA>", "district_name": "Yashnabad district", "district_assignment": "within" }, "geometry": { "type": "Point", "coordinates": [ 69.3642214, 41.2648749 ] } },
{ "type": "Feature", "properties": { "osm_element": "way", "osm_id": 305602140, "name": "Чиланзар базар", "name_ru": "Чиланзар базар", "amenity": "marketplace", "operator": "<NA>", "district_name": "Chilanzar district", "district_assignment": "within" }, "geometry": { "type": "Point", "coordinates": [ 69.2031359, 41.2771894 ] } },
{ "type": "Feature", "properties": { "osm_element": "way", "osm_id": 331473265, "name": "Yangiobod bozori", "name_ru": "Янгиобад дыхканский базар", "amenity": "marketplace", "operator": "<NA>", "district_name": "Yashnabad district", "district_assignment": "within" }, "geometry": { "type": "Point", "coordinates": [ 69.3587616, 41.2913421 ] } },
{ "type": "Feature", "properties": { "osm_element": "way", "osm_id": 388183215, "name": null, "name_ru": null, "amenity": "marketplace", "operator": "<NA>", "district_name": "Mirzo Ulugbek district", "district_assignment": "within" }, "geometry": { "type": "Point", "coordinates": [ 69.3860295, 41.3530741 ] } },
{ "type": "Feature", "properties": { "osm_element": "way", "osm_id": 389845977, "name": "Bo'z dehqon bozori", "name_ru": "Буз Базар", "amenity": "marketplace", "operator": "<NA>", "district_name": "Mirzo Ulugbek district", "district_assignment": "within" }, "geometry": { "type": "Point", "coordinates": [ 69.3258269, 41.3287045 ] } },
{ "type": "Feature", "properties": { "osm_element": "way", "osm_id": 398451724, "name": null, "name_ru": null, "amenity": "marketplace", "operator": "<NA>", "district_name": "Bektemir district", "district_assignment": "within" }, "geometry": { "type": "Point", "coordinates": [ 69.3434015, 41.2442145 ] } },
{ "type": "Feature", "properties": { "osm_element": "way", "osm_id": 399589579, "name": "Базарчик", "name_ru": null, "amenity": "marketplace", "operator": "<NA>", "district_name": "Mirzo Ulugbek district", "district_assignment": "within" }, "geometry": { "type": "Point", "coordinates": [ 69.368402, 41.3346456 ] } },
{ "type": "Feature", "properties": { "osm_element": "way", "osm_id": 408274147, "name": "Строительный рынок Джами", "name_ru": "Строительный рынок Джами", "amenity": "marketplace", "operator": "<NA>", "district_name": "Almazar district", "district_assignment": "within" }, "geometry": { "type": "Point", "coordinates": [ 69.2532154, 41.3557595 ] } },
{ "type": "Feature", "properties": { "osm_element": "way", "osm_id": 418924943, "name": "Базарчик Чигатай", "name_ru": "Базарчик Чигатай", "amenity": "marketplace", "operator": "<NA>", "district_name": "Almazar district", "district_assignment": "within" }, "geometry": { "type": "Point", "coordinates": [ 69.22219, 41.338541 ] } },
{ "type": "Feature", "properties": { "osm_element": "way", "osm_id": 489202651, "name": "Базарчик", "name_ru": "Базарчик", "amenity": "marketplace", "operator": "<NA>", "district_name": "Chilanzar district", "district_assignment": "within" }, "geometry": { "type": "Point", "coordinates": [ 69.2067792, 41.2637635 ] } },
{ "type": "Feature", "properties": { "osm_element": "way", "osm_id": 539582695, "name": "Parkent Bozori", "name_ru": "Паркентский рынок", "amenity": "marketplace", "operator": "<NA>", "district_name": "Yashnabad district", "district_assignment": "within" }, "geometry": { "type": "Point", "coordinates": [ 69.3228532, 41.3145789 ] } },
{ "type": "Feature", "properties": { "osm_element": "way", "osm_id": 566898549, "name": "Navro'z bozori", "name_ru": "Навруз базар", "amenity": "marketplace", "operator": "<NA>", "district_name": "Mirzo Ulugbek district", "district_assignment": "within" }, "geometry": { "type": "Point", "coordinates": [ 69.3867384, 41.3544928 ] } },
{ "type": "Feature", "properties": { "osm_element": "way", "osm_id": 566924038, "name": "Avayhon shaxobchasi", "name_ru": "Авайхан", "amenity": "marketplace", "operator": "<NA>", "district_name": "Mirzo Ulugbek district", "district_assignment": "within" }, "geometry": { "type": "Point", "coordinates": [ 69.3542929, 41.3204178 ] } },
{ "type": "Feature", "properties": { "osm_element": "way", "osm_id": 586630997, "name": null, "name_ru": "Базарчик", "amenity": "marketplace", "operator": "<NA>", "district_name": "Yangikhayot district", "district_assignment": "within" }, "geometry": { "type": "Point", "coordinates": [ 69.2167851, 41.2042282 ] } },
{ "type": "Feature", "properties": { "osm_element": "way", "osm_id": 627771697, "name": "Строительный рынок", "name_ru": null, "amenity": "marketplace", "operator": "<NA>", "district_name": "Yunusabad district", "district_assignment": "within" }, "geometry": { "type": "Point", "coordinates": [ 69.2893205, 41.3665864 ] } },
{ "type": "Feature", "properties": { "osm_element": "way", "osm_id": 675094047, "name": "Sulton Grup", "name_ru": null, "amenity": "marketplace", "operator": "<NA>", "district_name": "Yunusabad district", "district_assignment": "within" }, "geometry": { "type": "Point", "coordinates": [ 69.2675892, 41.3463498 ] } },
{ "type": "Feature", "properties": { "osm_element": "way", "osm_id": 688559699, "name": "Назарбек. Металлический рынок", "name_ru": null, "amenity": "marketplace", "operator": "<NA>", "district_name": "Uchtepa district", "district_assignment": "within" }, "geometry": { "type": "Point", "coordinates": [ 69.1503809, 41.3110951 ] } },
{ "type": "Feature", "properties": { "osm_element": "way", "osm_id": 788013897, "name": "Базарчик", "name_ru": null, "amenity": "marketplace", "operator": "<NA>", "district_name": "Chilanzar district", "district_assignment": "within" }, "geometry": { "type": "Point", "coordinates": [ 69.2053329, 41.2855219 ] } },
{ "type": "Feature", "properties": { "osm_element": "way", "osm_id": 825133525, "name": "Food City bozori", "name_ru": "рынок Food City", "amenity": "marketplace", "operator": "<NA>", "district_name": "Bektemir district", "district_assignment": "within" }, "geometry": { "type": "Point", "coordinates": [ 69.3213828, 41.2049158 ] } },
{ "type": "Feature", "properties": { "osm_element": "way", "osm_id": 836476763, "name": null, "name_ru": null, "amenity": "marketplace", "operator": "<NA>", "district_name": "Yashnabad district", "district_assignment": "within" }, "geometry": { "type": "Point", "coordinates": [ 69.3501165, 41.2842827 ] } },
{ "type": "Feature", "properties": { "osm_element": "way", "osm_id": 837786134, "name": "Ярмарка", "name_ru": null, "amenity": "marketplace", "operator": "<NA>", "district_name": "Yashnabad district", "district_assignment": "within" }, "geometry": { "type": "Point", "coordinates": [ 69.3476359, 41.2858606 ] } },
{ "type": "Feature", "properties": { "osm_element": "way", "osm_id": 976138206, "name": "Farg'ona bozori (guruch)", "name_ru": "Ферганский базар (Рисовый)", "amenity": "marketplace", "operator": "<NA>", "district_name": "Mirabad district", "district_assignment": "within" }, "geometry": { "type": "Point", "coordinates": [ 69.3095675, 41.2734529 ] } },
{ "type": "Feature", "properties": { "osm_element": "way", "osm_id": 1005054504, "name": "Рынок металла", "name_ru": null, "amenity": "marketplace", "operator": "<NA>", "district_name": "Uchtepa district", "district_assignment": "within" }, "geometry": { "type": "Point", "coordinates": [ 69.1517884, 41.3117871 ] } },
{ "type": "Feature", "properties": { "osm_element": "way", "osm_id": 1015035722, "name": "Юнусабадский оптовый рынок на реконструкции", "name_ru": "Юнусабадский оптовый рынок на реконструкции", "amenity": "marketplace", "operator": "<NA>", "district_name": "Yunusabad district", "district_assignment": "within" }, "geometry": { "type": "Point", "coordinates": [ 69.3338625, 41.3556282 ] } },
{ "type": "Feature", "properties": { "osm_element": "way", "osm_id": 1168145817, "name": "Базарчик", "name_ru": "Базарчик", "amenity": "marketplace", "operator": "<NA>", "district_name": "Chilanzar district", "district_assignment": "within" }, "geometry": { "type": "Point", "coordinates": [ 69.1833682, 41.2726174 ] } },
{ "type": "Feature", "properties": { "osm_element": "node", "osm_id": 1539376490, "name": "Базарчик", "name_ru": null, "amenity": "marketplace", "operator": "<NA>", "district_name": "Almazar district", "district_assignment": "within" }, "geometry": { "type": "Point", "coordinates": [ 69.2369018, 41.3565902 ] } },
{ "type": "Feature", "properties": { "osm_element": "node", "osm_id": 1765152786, "name": "Фархадский базар", "name_ru": null, "amenity": "marketplace", "operator": "<NA>", "district_name": "Uchtepa district", "district_assignment": "within" }, "geometry": { "type": "Point", "coordinates": [ 69.18895, 41.2852743 ] } },
{ "type": "Feature", "properties": { "osm_element": "node", "osm_id": 2130403460, "name": "Строительный рынок Джами", "name_ru": "Строительный рынок Джами", "amenity": "marketplace", "operator": "<NA>", "district_name": "Almazar district", "district_assignment": "within" }, "geometry": { "type": "Point", "coordinates": [ 69.2494271, 41.3556558 ] } },
{ "type": "Feature", "properties": { "osm_element": "node", "osm_id": 2653869331, "name": "Базарчик", "name_ru": null, "amenity": "marketplace", "operator": "<NA>", "district_name": "Sergeli district", "district_assignment": "within" }, "geometry": { "type": "Point", "coordinates": [ 69.2813341, 41.2689205 ] } },
{ "type": "Feature", "properties": { "osm_element": "node", "osm_id": 4107340501, "name": "Базар", "name_ru": "Базарчик", "amenity": "marketplace", "operator": "<NA>", "district_name": "Yashnabad district", "district_assignment": "within" }, "geometry": { "type": "Point", "coordinates": [ 69.3428018, 41.2545363 ] } },
{ "type": "Feature", "properties": { "osm_element": "node", "osm_id": 4230147454, "name": "Водник рынок", "name_ru": "Водник рынок", "amenity": "marketplace", "operator": "<NA>", "district_name": "Bektemir district", "district_assignment": "within" }, "geometry": { "type": "Point", "coordinates": [ 69.3754729, 41.2548221 ] } },
{ "type": "Feature", "properties": { "osm_element": "node", "osm_id": 4639171490, "name": "Qoʻyliq dehqon bozori", "name_ru": "Куйлюкский продуктовый Рынок", "amenity": "marketplace", "operator": "<NA>", "district_name": "Bektemir district", "district_assignment": "within" }, "geometry": { "type": "Point", "coordinates": [ 69.3295523, 41.2364757 ] } },
{ "type": "Feature", "properties": { "osm_element": "node", "osm_id": 9273048198, "name": "Оптовый металл", "name_ru": null, "amenity": "marketplace", "operator": "<NA>", "district_name": "Uchtepa district", "district_assignment": "within" }, "geometry": { "type": "Point", "coordinates": [ 69.1492798, 41.3111196 ] } },
{ "type": "Feature", "properties": { "osm_element": "node", "osm_id": 9273048216, "name": "Урикзор", "name_ru": "Урикзар", "amenity": "marketplace", "operator": "<NA>", "district_name": "Uchtepa district", "district_assignment": "within" }, "geometry": { "type": "Point", "coordinates": [ 69.1517543, 41.2866578 ] } },
{ "type": "Feature", "properties": { "osm_element": "node", "osm_id": 10690960895, "name": "Цветочный базар", "name_ru": "Цветочный базар", "amenity": "marketplace", "operator": "<NA>", "district_name": "Yakkasaray district", "district_assignment": "within" }, "geometry": { "type": "Point", "coordinates": [ 69.256337, 41.2897755 ] } },
{ "type": "Feature", "properties": { "osm_element": "node", "osm_id": 11841953777, "name": "Market", "name_ru": null, "amenity": "marketplace", "operator": "<NA>", "district_name": "Chilanzar district", "district_assignment": "within" }, "geometry": { "type": "Point", "coordinates": [ 69.199898, 41.288635 ] } },
{ "type": "Feature", "properties": { "osm_element": "node", "osm_id": 11909241288, "name": "Uzum", "name_ru": null, "amenity": "marketplace", "operator": "<NA>", "district_name": "Uchtepa district", "district_assignment": "within" }, "geometry": { "type": "Point", "coordinates": [ 69.1717817, 41.2859451 ] } },
{ "type": "Feature", "properties": { "osm_element": "node", "osm_id": 12237894801, "name": "Grain sector", "name_ru": null, "amenity": "marketplace", "operator": "<NA>", "district_name": "Shaykhantakhur district", "district_assignment": "within" }, "geometry": { "type": "Point", "coordinates": [ 69.2371603, 41.3279571 ] } },
{ "type": "Feature", "properties": { "osm_element": "node", "osm_id": 13449319742, "name": null, "name_ru": null, "amenity": "marketplace", "operator": "<NA>", "district_name": "Yunusabad district", "district_assignment": "within" }, "geometry": { "type": "Point", "coordinates": [ 69.3404135, 41.3575463 ] } },
{ "type": "Feature", "properties": { "osm_element": "node", "osm_id": 13765534101, "name": "Mirabad Bazaar", "name_ru": null, "amenity": "marketplace", "operator": "<NA>", "district_name": "Mirabad district", "district_assignment": "within" }, "geometry": { "type": "Point", "coordinates": [ 69.2746675, 41.2910816 ] } },
{ "type": "Feature", "properties": { "osm_element": "node", "osm_id": 13765592101, "name": "Ippodrom Bazaar", "name_ru": null, "amenity": "marketplace", "operator": "<NA>", "district_name": "Chilanzar district", "district_assignment": "within" }, "geometry": { "type": "Point", "coordinates": [ 69.1709845, 41.2452264 ] } },
{ "type": "Feature", "properties": { "osm_element": "node", "osm_id": 14060567954, "name": "Uzum", "name_ru": null, "amenity": "marketplace", "operator": "<NA>", "district_name": "Yashnabad district", "district_assignment": "within" }, "geometry": { "type": "Point", "coordinates": [ 69.366844, 41.2971981 ] } }
]
}
