{
"type": "FeatureCollection",
"name": "metro_entrances",
"crs": { "type": "name", "properties": { "name": "urn:ogc:def:crs:OGC:1.3:CRS84" } },
"features": [
{ "type": "Feature", "properties": { "osm_element": "node", "osm_id": 661184747, "name": "Oybek", "name_en": "Aybek", "name_ru": "Айбек", "railway": "subway_entrance", "district_name": "Mirabad district", "district_assignment": "within" }, "geometry": { "type": "Point", "coordinates": [ 69.2738022, 41.2987269 ] } },
{ "type": "Feature", "properties": { "osm_element": "node", "osm_id": 661184754, "name": "Oybek", "name_en": "Aybek", "name_ru": "Айбек", "railway": "subway_entrance", "district_name": "Mirabad district", "district_assignment": "within" }, "geometry": { "type": "Point", "coordinates": [ 69.2730967, 41.2983332 ] } },
{ "type": "Feature", "properties": { "osm_element": "node", "osm_id": 661184760, "name": "Oybek", "name_en": "Aybek", "name_ru": "Айбек", "railway": "subway_entrance", "district_name": "Mirabad district", "district_assignment": "within" }, "geometry": { "type": "Point", "coordinates": [ 69.2724423, 41.2989423 ] } },
{ "type": "Feature", "properties": { "osm_element": "node", "osm_id": 661184791, "name": "Mingoʻrik", "name_en": "Ming Urik", "name_ru": "Минг Урик", "railway": "subway_entrance", "district_name": "Mirabad district", "district_assignment": "within" }, "geometry": { "type": "Point", "coordinates": [ 69.2731627, 41.299294 ] } },
{ "type": "Feature", "properties": { "osm_element": "node", "osm_id": 854338139, "name": "Chilonzor", "name_en": "Chilanzar", "name_ru": "Чиланзар", "railway": "subway_entrance", "district_name": "Chilanzar district", "district_assignment": "within" }, "geometry": { "type": "Point", "coordinates": [ 69.203823, 41.2739717 ] } },
{ "type": "Feature", "properties": { "osm_element": "node", "osm_id": 854338140, "name": "Chilonzor", "name_en": "Chilanzar", "name_ru": "Чиланзар", "railway": "subway_entrance", "district_name": "Chilanzar district", "district_assignment": "within" }, "geometry": { "type": "Point", "coordinates": [ 69.2035896, 41.2736667 ] } },
{ "type": "Feature", "properties": { "osm_element": "node", "osm_id": 854338141, "name": "Chilonzor", "name_en": "Chilanzar", "name_ru": "Чиланзар", "railway": "subway_entrance", "district_name": "Chilanzar district", "district_assignment": "within" }, "geometry": { "type": "Point", "coordinates": [ 69.2047152, 41.2735974 ] } },
{ "type": "Feature", "properties": { "osm_element": "node", "osm_id": 854338142, "name": "Chilonzor", "name_en": "Chilanzar", "name_ru": "Чиланзар", "railway": "subway_entrance", "district_name": "Chilanzar district", "district_assignment": "within" }, "geometry": { "type": "Point", "coordinates": [ 69.2044562, 41.273255 ] } },
{ "type": "Feature", "properties": { "osm_element": "node", "osm_id": 854338143, "name": "Chilonzor", "name_en": "Chilanzar", "name_ru": "Чиланзар", "railway": "subway_entrance", "district_name": "Chilanzar district", "district_assignment": "within" }, "geometry": { "type": "Point", "coordinates": [ 69.2048738, 41.2753646 ] } },
{ "type": "Feature", "properties": { "osm_element": "node", "osm_id": 854338144, "name": "Chilonzor", "name_en": "Chilanzar", "name_ru": "Чиланзар", "railway": "subway_entrance", "district_name": "Chilanzar district", "district_assignment": "within" }, "geometry": { "type": "Point", "coordinates": [ 69.2055215, 41.2746344 ] } },
{ "type": "Feature", "properties": { "osm_element": "node", "osm_id": 854338145, "name": "Chilonzor", "name_en": "Chilanzar", "name_ru": "Чиланзар", "railway": "subway_entrance", "district_name": "Chilanzar district", "district_assignment": "within" }, "geometry": { "type": "Point", "coordinates": [ 69.2057423, 41.2749294 ] } },
{ "type": "Feature", "properties": { "osm_element": "node", "osm_id": 1142950027, "name": "Xalqlar Do'stligi", "name_en": "Xalqlar Dustligi", "name_ru": "Дружба Народов", "railway": "subway_entrance", "district_name": "Shaykhantakhur district", "district_assignment": "within" }, "geometry": { "type": "Point", "coordinates": [ 69.2436738, 41.3124824 ] } },
{ "type": "Feature", "properties": { "osm_element": "node", "osm_id": 1142950516, "name": "Xalqlar Do'stligi", "name_en": "Xalqlar Dustligi", "name_ru": "Дружба Народов", "railway": "subway_entrance", "district_name": "Chilanzar district", "district_assignment": "within" }, "geometry": { "type": "Point", "coordinates": [ 69.2433198, 41.3114588 ] } },
{ "type": "Feature", "properties": { "osm_element": "node", "osm_id": 1226725679, "name": "Шахристан", "name_en": "Shahristan", "name_ru": "Шахристан", "railway": "subway_entrance", "district_name": "Yunusabad district", "district_assignment": "within" }, "geometry": { "type": "Point", "coordinates": [ 69.2880024, 41.3540213 ] } },
{ "type": "Feature", "properties": { "osm_element": "node", "osm_id": 1390572520, "name": "Chorsu", "name_en": null, "name_ru": "Чорсу", "railway": "subway_entrance", "district_name": "Shaykhantakhur district", "district_assignment": "within" }, "geometry": { "type": "Point", "coordinates": [ 69.2356423, 41.3253381 ] } },
{ "type": "Feature", "properties": { "osm_element": "node", "osm_id": 1390572522, "name": null, "name_en": null, "name_ru": null, "railway": "subway_entrance", "district_name": "Shaykhantakhur district", "district_assignment": "within" }, "geometry": { "type": "Point", "coordinates": [ 69.2186584, 41.3323783 ] } },
{ "type": "Feature", "properties": { "osm_element": "node", "osm_id": 1577932476, "name": "Chorsu", "name_en": null, "name_ru": "Чорсу", "railway": "subway_entrance", "district_name": "Shaykhantakhur district", "district_assignment": "within" }, "geometry": { "type": "Point", "coordinates": [ 69.2379263, 41.3262661 ] } },
{ "type": "Feature", "properties": { "osm_element": "node", "osm_id": 1577932575, "name": "Xalqlar Do'stligi", "name_en": "Xalqlar Dustligi", "name_ru": "Дружба Народов", "railway": "subway_entrance", "district_name": "Chilanzar district", "district_assignment": "within" }, "geometry": { "type": "Point", "coordinates": [ 69.2419172, 41.311419 ] } },
{ "type": "Feature", "properties": { "osm_element": "node", "osm_id": 1579080936, "name": "Oybek", "name_en": "Aybek", "name_ru": "Айбек", "railway": "subway_entrance", "district_name": "Mirabad district", "district_assignment": "within" }, "geometry": { "type": "Point", "coordinates": [ 69.2741293, 41.2972885 ] } },
{ "type": "Feature", "properties": { "osm_element": "node", "osm_id": 1579080938, "name": "Mingoʻrik", "name_en": "Ming Urik", "name_ru": "Минг Урик", "railway": "subway_entrance", "district_name": "Mirabad district", "district_assignment": "within" }, "geometry": { "type": "Point", "coordinates": [ 69.275102, 41.3003487 ] } },
{ "type": "Feature", "properties": { "osm_element": "node", "osm_id": 1579080940, "name": "Mingoʻrik", "name_en": "Ming Urik", "name_ru": "Минг Урик", "railway": "subway_entrance", "district_name": "Mirabad district", "district_assignment": "within" }, "geometry": { "type": "Point", "coordinates": [ 69.2753707, 41.3000611 ] } },
{ "type": "Feature", "properties": { "osm_element": "node", "osm_id": 1582352949, "name": "Toshkent", "name_en": "Tashkent", "name_ru": "Ташкент", "railway": "subway_entrance", "district_name": "Mirabad district", "district_assignment": "within" }, "geometry": { "type": "Point", "coordinates": [ 69.2884343, 41.2940752 ] } },
{ "type": "Feature", "properties": { "osm_element": "node", "osm_id": 1633822602, "name": "Шахристан", "name_en": "Shahristan", "name_ru": "Шахристан", "railway": "subway_entrance", "district_name": "Yunusabad district", "district_assignment": "within" }, "geometry": { "type": "Point", "coordinates": [ 69.2884948, 41.3539495 ] } },
{ "type": "Feature", "properties": { "osm_element": "node", "osm_id": 1636108186, "name": "Novza", "name_en": null, "name_ru": "Новза", "railway": "subway_entrance", "district_name": "Chilanzar district", "district_assignment": "within" }, "geometry": { "type": "Point", "coordinates": [ 69.2233209, 41.2913702 ] } },
{ "type": "Feature", "properties": { "osm_element": "node", "osm_id": 1636108190, "name": "Novza", "name_en": null, "name_ru": "Новза", "railway": "subway_entrance", "district_name": "Chilanzar district", "district_assignment": "within" }, "geometry": { "type": "Point", "coordinates": [ 69.2230005, 41.2910778 ] } },
{ "type": "Feature", "properties": { "osm_element": "node", "osm_id": 1636108195, "name": "Novza", "name_en": null, "name_ru": "Новза", "railway": "subway_entrance", "district_name": "Chilanzar district", "district_assignment": "within" }, "geometry": { "type": "Point", "coordinates": [ 69.2225279, 41.291858 ] } },
{ "type": "Feature", "properties": { "osm_element": "node", "osm_id": 1636108199, "name": "Novza", "name_en": null, "name_ru": "Новза", "railway": "subway_entrance", "district_name": "Chilanzar district", "district_assignment": "within" }, "geometry": { "type": "Point", "coordinates": [ 69.2222301, 41.2915872 ] } },
{ "type": "Feature", "properties": { "osm_element": "node", "osm_id": 1636108219, "name": "Novza", "name_en": null, "name_ru": "Новза", "railway": "subway_entrance", "district_name": "Chilanzar district", "district_assignment": "within" }, "geometry": { "type": "Point", "coordinates": [ 69.2242938, 41.2922247 ] } },
{ "type": "Feature", "properties": { "osm_element": "node", "osm_id": 1636108221, "name": "Novza", "name_en": null, "name_ru": "Новза", "railway": "subway_entrance", "district_name": "Chilanzar district", "district_assignment": "within" }, "geometry": { "type": "Point", "coordinates": [ 69.2246278, 41.2925208 ] } },
{ "type": "Feature", "properties": { "osm_element": "node", "osm_id": 1636108222, "name": "Novza", "name_en": null, "name_ru": "Новза", "railway": "subway_entrance", "district_name": "Chilanzar district", "district_assignment": "within" }, "geometry": { "type": "Point", "coordinates": [ 69.2235131, 41.2927462 ] } },
{ "type": "Feature", "properties": { "osm_element": "node", "osm_id": 1636108224, "name": "Novza", "name_en": null, "name_ru": "Новза", "railway": "subway_entrance", "district_name": "Chilanzar district", "district_assignment": "within" }, "geometry": { "type": "Point", "coordinates": [ 69.2238291, 41.2930303 ] } },
{ "type": "Feature", "properties": { "osm_element": "node", "osm_id": 1636120003, "name": "Milliy bogʻ", "name_en": null, "name_ru": "Миллий Бог", "railway": "subway_entrance", "district_name": "Shaykhantakhur district", "district_assignment": "within" }, "geometry": { "type": "Point", "coordinates": [ 69.2348837, 41.3042972 ] } },
{ "type": "Feature", "properties": { "osm_element": "node", "osm_id": 1636120005, "name": "Milliy bogʻ", "name_en": null, "name_ru": "Миллий Бог", "railway": "subway_entrance", "district_name": "Shaykhantakhur district", "district_assignment": "within" }, "geometry": { "type": "Point", "coordinates": [ 69.2351367, 41.3046303 ] } },
{ "type": "Feature", "properties": { "osm_element": "node", "osm_id": 1636120007, "name": "Milliy bogʻ", "name_en": null, "name_ru": "Миллий Бог", "railway": "subway_entrance", "district_name": "Chilanzar district", "district_assignment": "within" }, "geometry": { "type": "Point", "coordinates": [ 69.2360685, 41.3042328 ] } },
{ "type": "Feature", "properties": { "osm_element": "node", "osm_id": 1636120010, "name": "Milliy bogʻ", "name_en": null, "name_ru": "Миллий Бог", "railway": "subway_entrance", "district_name": "Chilanzar district", "district_assignment": "within" }, "geometry": { "type": "Point", "coordinates": [ 69.2358092, 41.3039012 ] } },
{ "type": "Feature", "properties": { "osm_element": "node", "osm_id": 1636135220, "name": "Mirzo Ulugʻbek", "name_en": "Mirzo Ulugbek", "name_ru": "Мирзо Улугбек", "railway": "subway_entrance", "district_name": "Chilanzar district", "district_assignment": "within" }, "geometry": { "type": "Point", "coordinates": [ 69.2111391, 41.2816016 ] } },
{ "type": "Feature", "properties": { "osm_element": "node", "osm_id": 1636135224, "name": "Mirzo Ulugʻbek", "name_en": "Mirzo Ulugbek", "name_ru": "Мирзо Улугбек", "railway": "subway_entrance", "district_name": "Chilanzar district", "district_assignment": "within" }, "geometry": { "type": "Point", "coordinates": [ 69.2114572, 41.2818854 ] } },
{ "type": "Feature", "properties": { "osm_element": "node", "osm_id": 1636135227, "name": "Mirzo Ulugʻbek", "name_en": null, "name_ru": "Мирзо Улугбек", "railway": "subway_entrance", "district_name": "Chilanzar district", "district_assignment": "within" }, "geometry": { "type": "Point", "coordinates": [ 69.2118953, 41.2810825 ] } },
{ "type": "Feature", "properties": { "osm_element": "node", "osm_id": 1636135232, "name": "Mirzo Ulugʻbek", "name_en": "Mirzo Ulugbek", "name_ru": "Мирзо Улугбек", "railway": "subway_entrance", "district_name": "Chilanzar district", "district_assignment": "within" }, "geometry": { "type": "Point", "coordinates": [ 69.2124644, 41.2828161 ] } },
{ "type": "Feature", "properties": { "osm_element": "node", "osm_id": 1636135244, "name": "Mirzo Ulugʻbek", "name_en": "Mirzo Ulugbek", "name_ru": "Мирзо Улугбек", "railway": "subway_entrance", "district_name": "Chilanzar district", "district_assignment": "within" }, "geometry": { "type": "Point", "coordinates": [ 69.2127854, 41.2831041 ] } },
{ "type": "Feature", "properties": { "osm_element": "node", "osm_id": 1636135247, "name": "Mirzo Ulugʻbek", "name_en": "Mirzo Ulugbek", "name_ru": "Мирзо Улугбек", "railway": "subway_entrance", "district_name": "Chilanzar district", "district_assignment": "within" }, "geometry": { "type": "Point", "coordinates": [ 69.2132484, 41.2822957 ] } },
{ "type": "Feature", "properties": { "osm_element": "node", "osm_id": 1765081835, "name": null, "name_en": null, "name_ru": null, "railway": "subway_entrance", "district_name": "Yashnabad district", "district_assignment": "within" }, "geometry": { "type": "Point", "coordinates": [ 69.3235642, 41.2935605 ] } },
{ "type": "Feature", "properties": { "osm_element": "node", "osm_id": 1765081836, "name": "Do'stlik", "name_en": "Dustlik", "name_ru": "Дустлик", "railway": "subway_entrance", "district_name": "Yashnabad district", "district_assignment": "within" }, "geometry": { "type": "Point", "coordinates": [ 69.3215327, 41.2938156 ] } },
{ "type": "Feature", "properties": { "osm_element": "node", "osm_id": 1765132137, "name": "Mashinasozlar", "name_en": null, "name_ru": "Машинасозлар", "railway": "subway_entrance", "district_name": "Yashnabad district", "district_assignment": "within" }, "geometry": { "type": "Point", "coordinates": [ 69.3045546, 41.2994757 ] } },
{ "type": "Feature", "properties": { "osm_element": "node", "osm_id": 1765136913, "name": "Toshkent", "name_en": "Tashkent", "name_ru": "Ташкент", "railway": "subway_entrance", "district_name": "Mirabad district", "district_assignment": "within" }, "geometry": { "type": "Point", "coordinates": [ 69.2854572, 41.2920996 ] } },
{ "type": "Feature", "properties": { "osm_element": "node", "osm_id": 1765136920, "name": "Toshkent", "name_en": "Tashkent", "name_ru": "Ташкент", "railway": "subway_entrance", "district_name": "Mirabad district", "district_assignment": "within" }, "geometry": { "type": "Point", "coordinates": [ 69.2860877, 41.2915817 ] } },
{ "type": "Feature", "properties": { "osm_element": "node", "osm_id": 1765136924, "name": "Toshkent", "name_en": "Tashkent", "name_ru": "Ташкент", "railway": "subway_entrance", "district_name": "Mirabad district", "district_assignment": "within" }, "geometry": { "type": "Point", "coordinates": [ 69.2863957, 41.2927569 ] } },
{ "type": "Feature", "properties": { "osm_element": "node", "osm_id": 1770328506, "name": null, "name_en": null, "name_ru": null, "railway": "subway_entrance", "district_name": "Shaykhantakhur district", "district_assignment": "within" }, "geometry": { "type": "Point", "coordinates": [ 69.2198394, 41.3316917 ] } },
{ "type": "Feature", "properties": { "osm_element": "node", "osm_id": 1770328516, "name": null, "name_en": null, "name_ru": null, "railway": "subway_entrance", "district_name": "Almazar district", "district_assignment": "within" }, "geometry": { "type": "Point", "coordinates": [ 69.2201918, 41.331959 ] } },
{ "type": "Feature", "properties": { "osm_element": "node", "osm_id": 1770328542, "name": null, "name_en": null, "name_ru": null, "railway": "subway_entrance", "district_name": "Almazar district", "district_assignment": "within" }, "geometry": { "type": "Point", "coordinates": [ 69.2188579, 41.3327463 ] } },
{ "type": "Feature", "properties": { "osm_element": "node", "osm_id": 1770328548, "name": null, "name_en": null, "name_ru": null, "railway": "subway_entrance", "district_name": "Shaykhantakhur district", "district_assignment": "within" }, "geometry": { "type": "Point", "coordinates": [ 69.2177947, 41.3328794 ] } },
{ "type": "Feature", "properties": { "osm_element": "node", "osm_id": 1772565616, "name": "Mustaqilik maydoni", "name_en": null, "name_ru": "Мустакиллик", "railway": "subway_entrance", "district_name": "Yunusabad district", "district_assignment": "within" }, "geometry": { "type": "Point", "coordinates": [ 69.2718798, 41.3143793 ] } },
{ "type": "Feature", "properties": { "osm_element": "node", "osm_id": 1772565618, "name": "Mustaqilik maydoni", "name_en": "Independence Square", "name_ru": "Мустакиллик", "railway": "subway_entrance", "district_name": "Yunusabad district", "district_assignment": "within" }, "geometry": { "type": "Point", "coordinates": [ 69.2705979, 41.3153635 ] } },
{ "type": "Feature", "properties": { "osm_element": "node", "osm_id": 1772565621, "name": "Mustaqilik maydoni", "name_en": "Independence Square", "name_ru": "Мустакиллик", "railway": "subway_entrance", "district_name": "Yunusabad district", "district_assignment": "within" }, "geometry": { "type": "Point", "coordinates": [ 69.2698604, 41.3155918 ] } },
{ "type": "Feature", "properties": { "osm_element": "node", "osm_id": 1772575476, "name": "Абдулла Кодирий", "name_en": null, "name_ru": "Абдулла Кадыри", "railway": "subway_entrance", "district_name": "Yunusabad district", "district_assignment": "within" }, "geometry": { "type": "Point", "coordinates": [ 69.2812252, 41.3191003 ] } },
{ "type": "Feature", "properties": { "osm_element": "node", "osm_id": 1772575483, "name": "Абдулла Кадыри", "name_en": null, "name_ru": "Абдулла Кадыри", "railway": "subway_entrance", "district_name": "Yunusabad district", "district_assignment": "within" }, "geometry": { "type": "Point", "coordinates": [ 69.2820487, 41.3193584 ] } },
{ "type": "Feature", "properties": { "osm_element": "node", "osm_id": 1772575484, "name": "Абдулла Кадыри", "name_en": null, "name_ru": "Абдулла Кадыри", "railway": "subway_entrance", "district_name": "Yunusabad district", "district_assignment": "within" }, "geometry": { "type": "Point", "coordinates": [ 69.2812865, 41.319409 ] } },
{ "type": "Feature", "properties": { "osm_element": "node", "osm_id": 1772575485, "name": "Абдулла Кадыри", "name_en": null, "name_ru": "Абдулла Кадыри", "railway": "subway_entrance", "district_name": "Yunusabad district", "district_assignment": "within" }, "geometry": { "type": "Point", "coordinates": [ 69.2826734, 41.3210283 ] } },
{ "type": "Feature", "properties": { "osm_element": "node", "osm_id": 1772575491, "name": "Абдулла Кадыри", "name_en": null, "name_ru": "Абдулла Кадыри", "railway": "subway_entrance", "district_name": "Yunusabad district", "district_assignment": "within" }, "geometry": { "type": "Point", "coordinates": [ 69.2813772, 41.3211997 ] } },
{ "type": "Feature", "properties": { "osm_element": "node", "osm_id": 1772575497, "name": "Абдулла Кадыри", "name_en": null, "name_ru": "Абдулла Кадыри", "railway": "subway_entrance", "district_name": "Yunusabad district", "district_assignment": "within" }, "geometry": { "type": "Point", "coordinates": [ 69.2817529, 41.3217983 ] } },
{ "type": "Feature", "properties": { "osm_element": "node", "osm_id": 1772595539, "name": null, "name_en": null, "name_ru": null, "railway": "subway_entrance", "district_name": "Yunusabad district", "district_assignment": "within" }, "geometry": { "type": "Point", "coordinates": [ 69.2833703, 41.3262333 ] } },
{ "type": "Feature", "properties": { "osm_element": "node", "osm_id": 1772595543, "name": null, "name_en": null, "name_ru": null, "railway": "subway_entrance", "district_name": "Yunusabad district", "district_assignment": "within" }, "geometry": { "type": "Point", "coordinates": [ 69.2835133, 41.3274475 ] } },
{ "type": "Feature", "properties": { "osm_element": "node", "osm_id": 1775768063, "name": "Kosmonavtlar", "name_en": "Cosmonauts", "name_ru": "Космонавтов", "railway": "subway_entrance", "district_name": "Yakkasaray district", "district_assignment": "within" }, "geometry": { "type": "Point", "coordinates": [ 69.2660876, 41.3050204 ] } },
{ "type": "Feature", "properties": { "osm_element": "node", "osm_id": 1775768065, "name": "Kosmonavtlar", "name_en": "Cosmonauts", "name_ru": "Космонавтов", "railway": "subway_entrance", "district_name": "Yakkasaray district", "district_assignment": "within" }, "geometry": { "type": "Point", "coordinates": [ 69.2640499, 41.305159 ] } },
{ "type": "Feature", "properties": { "osm_element": "node", "osm_id": 1775804031, "name": "Bodomzor", "name_en": "Badamzar", "name_ru": "Бадамзар", "railway": "subway_entrance", "district_name": "Yunusabad district", "district_assignment": "within" }, "geometry": { "type": "Point", "coordinates": [ 69.2845821, 41.3360039 ] } },
{ "type": "Feature", "properties": { "osm_element": "node", "osm_id": 1775804037, "name": "Bodomzor", "name_en": "Badamzar", "name_ru": "Бадамзар", "railway": "subway_entrance", "district_name": "Yunusabad district", "district_assignment": "within" }, "geometry": { "type": "Point", "coordinates": [ 69.2842108, 41.3366208 ] } },
{ "type": "Feature", "properties": { "osm_element": "node", "osm_id": 1775804041, "name": "Bodomzor", "name_en": "Badamzar", "name_ru": "Бадамзар", "railway": "subway_entrance", "district_name": "Yunusabad district", "district_assignment": "within" }, "geometry": { "type": "Point", "coordinates": [ 69.2848531, 41.3378947 ] } },
{ "type": "Feature", "properties": { "osm_element": "node", "osm_id": 1775848272, "name": "Hamid Olimjon", "name_en": "Hamid Alimjan", "name_ru": "Хамид Алимджан", "railway": "subway_entrance", "district_name": "Mirzo Ulugbek district", "district_assignment": "within" }, "geometry": { "type": "Point", "coordinates": [ 69.2948799, 41.3175882 ] } },
{ "type": "Feature", "properties": { "osm_element": "node", "osm_id": 1775848274, "name": "Hamid Olimjon", "name_en": "Hamid Alimjan", "name_ru": "Хамид Алимджан", "railway": "subway_entrance", "district_name": "Mirzo Ulugbek district", "district_assignment": "within" }, "geometry": { "type": "Point", "coordinates": [ 69.2943235, 41.3177979 ] } },
{ "type": "Feature", "properties": { "osm_element": "node", "osm_id": 1775848278, "name": "Hamid Olimjon", "name_en": "Hamid Alimjan", "name_ru": "Хамид Алимджан", "railway": "subway_entrance", "district_name": "Mirzo Ulugbek district", "district_assignment": "within" }, "geometry": { "type": "Point", "coordinates": [ 69.2948113, 41.3180016 ] } },
{ "type": "Feature", "properties": { "osm_element": "node", "osm_id": 1775848281, "name": "Hamid Olimjon", "name_en": "Hamid Alimjan", "name_ru": "Хамид Алимджан", "railway": "subway_entrance", "district_name": "Mirzo Ulugbek district", "district_assignment": "within" }, "geometry": { "type": "Point", "coordinates": [ 69.2968985, 41.3185037 ] } },
{ "type": "Feature", "properties": { "osm_element": "node", "osm_id": 1775848285, "name": "Hamid Olimjon", "name_en": "Hamid Alimjan", "name_ru": "Хамид Алимджан", "railway": "subway_entrance", "district_name": "Mirzo Ulugbek district", "district_assignment": "within" }, "geometry": { "type": "Point", "coordinates": [ 69.2967006, 41.3187988 ] } },
{ "type": "Feature", "properties": { "osm_element": "node", "osm_id": 1776779182, "name": "Toshkent", "name_en": "Tashkent", "name_ru": "Ташкент", "railway": "subway_entrance", "district_name": "Mirabad district", "district_assignment": "within" }, "geometry": { "type": "Point", "coordinates": [ 69.2858287, 41.2918001 ] } },
{ "type": "Feature", "properties": { "osm_element": "node", "osm_id": 1776779183, "name": "Toshkent", "name_en": "Tashkent", "name_ru": "Ташкент", "railway": "subway_entrance", "district_name": "Mirabad district", "district_assignment": "within" }, "geometry": { "type": "Point", "coordinates": [ 69.2870717, 41.2921197 ] } },
{ "type": "Feature", "properties": { "osm_element": "node", "osm_id": 1776779187, "name": "Toshkent", "name_en": "Tashkent", "name_ru": "Ташкент", "railway": "subway_entrance", "district_name": "Mirabad district", "district_assignment": "within" }, "geometry": { "type": "Point", "coordinates": [ 69.2874805, 41.2923871 ] } },
{ "type": "Feature", "properties": { "osm_element": "node", "osm_id": 1776779190, "name": "Toshkent", "name_en": "Tashkent", "name_ru": "Ташкент", "railway": "subway_entrance", "district_name": "Mirabad district", "district_assignment": "within" }, "geometry": { "type": "Point", "coordinates": [ 69.2888955, 41.2937089 ] } },
{ "type": "Feature", "properties": { "osm_element": "node", "osm_id": 1776785654, "name": "Oybek", "name_en": "Aybek", "name_ru": "Айбек", "railway": "subway_entrance", "district_name": "Mirabad district", "district_assignment": "within" }, "geometry": { "type": "Point", "coordinates": [ 69.2749557, 41.2976207 ] } },
{ "type": "Feature", "properties": { "osm_element": "node", "osm_id": 1777037932, "name": null, "name_en": null, "name_ru": null, "railway": "subway_entrance", "district_name": "Mirzo Ulugbek district", "district_assignment": "within" }, "geometry": { "type": "Point", "coordinates": [ 69.3099255, 41.3215063 ] } },
{ "type": "Feature", "properties": { "osm_element": "node", "osm_id": 1777037936, "name": null, "name_en": null, "name_ru": null, "railway": "subway_entrance", "district_name": "Mirzo Ulugbek district", "district_assignment": "within" }, "geometry": { "type": "Point", "coordinates": [ 69.3122612, 41.3223091 ] } },
{ "type": "Feature", "properties": { "osm_element": "node", "osm_id": 1777037938, "name": "Buyuk Ipak Yo'li", "name_en": null, "name_ru": "Буюк Ипак Йули", "railway": "subway_entrance", "district_name": "Mirzo Ulugbek district", "district_assignment": "within" }, "geometry": { "type": "Point", "coordinates": [ 69.3274711, 41.325784 ] } },
{ "type": "Feature", "properties": { "osm_element": "node", "osm_id": 1777037942, "name": "Buyuk Ipak Yo'li", "name_en": "Buyuk Ipak Yo'li", "name_ru": "Буюк Ипак Йули", "railway": "subway_entrance", "district_name": "Mirzo Ulugbek district", "district_assignment": "within" }, "geometry": { "type": "Point", "coordinates": [ 69.3298608, 41.3261211 ] } },
{ "type": "Feature", "properties": { "osm_element": "node", "osm_id": 1777037955, "name": "Buyuk Ipak Yo'li", "name_en": "Buyuk Ipak Yo'li", "name_ru": "Буюк Ипак Йули", "railway": "subway_entrance", "district_name": "Mirzo Ulugbek district", "district_assignment": "within" }, "geometry": { "type": "Point", "coordinates": [ 69.3299902, 41.3265166 ] } },
{ "type": "Feature", "properties": { "osm_element": "node", "osm_id": 1777037960, "name": "Buyuk Ipak Yo'li", "name_en": "Buyuk Ipak Yuli", "name_ru": "Буюк Ипак Йули", "railway": "subway_entrance", "district_name": "Mirzo Ulugbek district", "district_assignment": "within" }, "geometry": { "type": "Point", "coordinates": [ 69.3271169, 41.3266822 ] } },
{ "type": "Feature", "properties": { "osm_element": "node", "osm_id": 1777051513, "name": "Amir Temur xiyoboni", "name_en": "Amir Timur Square", "name_ru": "Сквер Амира Тимура", "railway": "subway_entrance", "district_name": "Mirzo Ulugbek district", "district_assignment": "within" }, "geometry": { "type": "Point", "coordinates": [ 69.2817984, 41.3116247 ] } },
{ "type": "Feature", "properties": { "osm_element": "node", "osm_id": 1777051516, "name": "Amir Temur xiyoboni", "name_en": "Amir Timur Square", "name_ru": "Сквер Амира Тимура", "railway": "subway_entrance", "district_name": "Yunusabad district", "district_assignment": "within" }, "geometry": { "type": "Point", "coordinates": [ 69.2811049, 41.3117331 ] } },
{ "type": "Feature", "properties": { "osm_element": "node", "osm_id": 1777051522, "name": "Amir Temur xiyoboni", "name_en": "Amir Timur Square", "name_ru": "Cквер Амир Темура", "railway": "subway_entrance", "district_name": "Mirzo Ulugbek district", "district_assignment": "within" }, "geometry": { "type": "Point", "coordinates": [ 69.2826603, 41.3122286 ] } },
{ "type": "Feature", "properties": { "osm_element": "node", "osm_id": 1777051524, "name": "Amir Temur xiyoboni", "name_en": "Amir Timur Square", "name_ru": "Сквер Амира Тимура", "railway": "subway_entrance", "district_name": "Mirzo Ulugbek district", "district_assignment": "within" }, "geometry": { "type": "Point", "coordinates": [ 69.2819726, 41.3123082 ] } },
{ "type": "Feature", "properties": { "osm_element": "node", "osm_id": 1777051529, "name": "Yunus Rajabiy", "name_en": "Yunus Rajabiy", "name_ru": "Юнус Раджаби", "railway": "subway_entrance", "district_name": "Mirzo Ulugbek district", "district_assignment": "within" }, "geometry": { "type": "Point", "coordinates": [ 69.2846159, 41.3130826 ] } },
{ "type": "Feature", "properties": { "osm_element": "node", "osm_id": 1777051535, "name": "Yunus Rajabiy", "name_en": "Yunus Rajabiy", "name_ru": "Юнус Раджаби", "railway": "subway_entrance", "district_name": "Mirzo Ulugbek district", "district_assignment": "within" }, "geometry": { "type": "Point", "coordinates": [ 69.2844102, 41.3133612 ] } },
{ "type": "Feature", "properties": { "osm_element": "node", "osm_id": 1777740155, "name": null, "name_en": null, "name_ru": null, "railway": "subway_entrance", "district_name": "Shaykhantakhur district", "district_assignment": "within" }, "geometry": { "type": "Point", "coordinates": [ 69.2547589, 41.317491 ] } },
{ "type": "Feature", "properties": { "osm_element": "node", "osm_id": 1777740171, "name": null, "name_en": null, "name_ru": null, "railway": "subway_entrance", "district_name": "Shaykhantakhur district", "district_assignment": "within" }, "geometry": { "type": "Point", "coordinates": [ 69.2546696, 41.3200149 ] } },
{ "type": "Feature", "properties": { "osm_element": "node", "osm_id": 1777740172, "name": null, "name_en": null, "name_ru": null, "railway": "subway_entrance", "district_name": "Shaykhantakhur district", "district_assignment": "within" }, "geometry": { "type": "Point", "coordinates": [ 69.2540842, 41.32003 ] } },
{ "type": "Feature", "properties": { "osm_element": "node", "osm_id": 1777744036, "name": "O'zbekiston", "name_en": "Uzbekistan", "name_ru": "Узбекистан", "railway": "subway_entrance", "district_name": "Chilanzar district", "district_assignment": "within" }, "geometry": { "type": "Point", "coordinates": [ 69.253666, 41.3109574 ] } },
{ "type": "Feature", "properties": { "osm_element": "node", "osm_id": 1777744037, "name": "O'zbekiston", "name_en": "Uzbekistan", "name_ru": "Узбекистан", "railway": "subway_entrance", "district_name": "Chilanzar district", "district_assignment": "within" }, "geometry": { "type": "Point", "coordinates": [ 69.253064, 41.3110278 ] } },
{ "type": "Feature", "properties": { "osm_element": "node", "osm_id": 1777744047, "name": "O'zbekiston", "name_en": "Uzbekistan", "name_ru": "Узбекистан", "railway": "subway_entrance", "district_name": "Shaykhantakhur district", "district_assignment": "within" }, "geometry": { "type": "Point", "coordinates": [ 69.2528301, 41.3116539 ] } },
{ "type": "Feature", "properties": { "osm_element": "node", "osm_id": 1777744048, "name": "O'zbekiston", "name_en": "Uzbekistan", "name_ru": "Узбекистан", "railway": "subway_entrance", "district_name": "Shaykhantakhur district", "district_assignment": "within" }, "geometry": { "type": "Point", "coordinates": [ 69.2537489, 41.3116913 ] } },
{ "type": "Feature", "properties": { "osm_element": "node", "osm_id": 1777744052, "name": null, "name_en": null, "name_ru": null, "railway": "subway_entrance", "district_name": "Shaykhantakhur district", "district_assignment": "within" }, "geometry": { "type": "Point", "coordinates": [ 69.2537554, 41.3126593 ] } },
{ "type": "Feature", "properties": { "osm_element": "node", "osm_id": 1777845996, "name": null, "name_en": null, "name_ru": null, "railway": "subway_entrance", "district_name": "Chilanzar district", "district_assignment": "within" }, "geometry": { "type": "Point", "coordinates": [ 69.1959174, 41.255652 ] } },
{ "type": "Feature", "properties": { "osm_element": "node", "osm_id": 1777846001, "name": null, "name_en": null, "name_ru": null, "railway": "subway_entrance", "district_name": "Chilanzar district", "district_assignment": "within" }, "geometry": { "type": "Point", "coordinates": [ 69.195918, 41.2560534 ] } },
{ "type": "Feature", "properties": { "osm_element": "node", "osm_id": 1777846003, "name": null, "name_en": null, "name_ru": null, "railway": "subway_entrance", "district_name": "Chilanzar district", "district_assignment": "within" }, "geometry": { "type": "Point", "coordinates": [ 69.1949369, 41.2569248 ] } },
{ "type": "Feature", "properties": { "osm_element": "node", "osm_id": 1777846008, "name": null, "name_en": null, "name_ru": null, "railway": "subway_entrance", "district_name": "Chilanzar district", "district_assignment": "within" }, "geometry": { "type": "Point", "coordinates": [ 69.1959506, 41.2572321 ] } },
{ "type": "Feature", "properties": { "osm_element": "node", "osm_id": 1777846021, "name": null, "name_en": null, "name_ru": null, "railway": "subway_entrance", "district_name": "Chilanzar district", "district_assignment": "within" }, "geometry": { "type": "Point", "coordinates": [ 69.1959446, 41.2576514 ] } },
{ "type": "Feature", "properties": { "osm_element": "node", "osm_id": 1777846030, "name": null, "name_en": null, "name_ru": null, "railway": "subway_entrance", "district_name": "Chilanzar district", "district_assignment": "within" }, "geometry": { "type": "Point", "coordinates": [ 69.1945697, 41.2582318 ] } },
{ "type": "Feature", "properties": { "osm_element": "node", "osm_id": 1777850319, "name": "Chorsu", "name_en": null, "name_ru": "Чорсу", "railway": "subway_entrance", "district_name": "Shaykhantakhur district", "district_assignment": "within" }, "geometry": { "type": "Point", "coordinates": [ 69.2359727, 41.3254082 ] } },
{ "type": "Feature", "properties": { "osm_element": "node", "osm_id": 1786939640, "name": "Gafur G'ulom", "name_en": "Gafur Gulyam", "name_ru": "Гафур Гулям", "railway": "subway_entrance", "district_name": "Shaykhantakhur district", "district_assignment": "within" }, "geometry": { "type": "Point", "coordinates": [ 69.2475561, 41.327616 ] } },
{ "type": "Feature", "properties": { "osm_element": "node", "osm_id": 2564123992, "name": "Шахристан", "name_en": "Shahristan", "name_ru": "Шахристан", "railway": "subway_entrance", "district_name": "Yunusabad district", "district_assignment": "within" }, "geometry": { "type": "Point", "coordinates": [ 69.2881585, 41.3520122 ] } },
{ "type": "Feature", "properties": { "osm_element": "node", "osm_id": 2564123993, "name": "Шахристан", "name_en": "Shahristan", "name_ru": "Шахристан", "railway": "subway_entrance", "district_name": "Yunusabad district", "district_assignment": "within" }, "geometry": { "type": "Point", "coordinates": [ 69.2876253, 41.3520446 ] } },
{ "type": "Feature", "properties": { "osm_element": "node", "osm_id": 3550608273, "name": "Абдулла Кадыри", "name_en": null, "name_ru": "Абдулла Кадыри", "railway": "subway_entrance", "district_name": "Yunusabad district", "district_assignment": "within" }, "geometry": { "type": "Point", "coordinates": [ 69.2825927, 41.32203 ] } },
{ "type": "Feature", "properties": { "osm_element": "node", "osm_id": 3550608274, "name": "Абдулла Кадыри", "name_en": null, "name_ru": "Абдулла Кадыри", "railway": "subway_entrance", "district_name": "Yunusabad district", "district_assignment": "within" }, "geometry": { "type": "Point", "coordinates": [ 69.2827441, 41.3220143 ] } },
{ "type": "Feature", "properties": { "osm_element": "node", "osm_id": 3725779683, "name": "Xalqlar Do'stligi", "name_en": "Xalqlar Dustligi", "name_ru": "Дружба Народов", "railway": "subway_entrance", "district_name": "Chilanzar district", "district_assignment": "within" }, "geometry": { "type": "Point", "coordinates": [ 69.2431621, 41.3113299 ] } },
{ "type": "Feature", "properties": { "osm_element": "node", "osm_id": 4185804596, "name": "Buyuk Ipak Yo'li", "name_en": "Buyuk Ipak Yuli", "name_ru": "Буюк Ипак Йули", "railway": "subway_entrance", "district_name": "Mirzo Ulugbek district", "district_assignment": "within" }, "geometry": { "type": "Point", "coordinates": [ 69.32783, 41.3262559 ] } },
{ "type": "Feature", "properties": { "osm_element": "node", "osm_id": 4568986686, "name": "Yunusobod", "name_en": "Yunusabad", "name_ru": "Юнусабад", "railway": "subway_entrance", "district_name": "Yunusabad district", "district_assignment": "within" }, "geometry": { "type": "Point", "coordinates": [ 69.2923083, 41.3674655 ] } },
{ "type": "Feature", "properties": { "osm_element": "node", "osm_id": 4694744697, "name": "Buyuk Ipak Yo'li", "name_en": "Buyuk Ipak Yuli", "name_ru": "Буюк Ипак Йули", "railway": "subway_entrance", "district_name": "Mirzo Ulugbek district", "district_assignment": "within" }, "geometry": { "type": "Point", "coordinates": [ 69.3263976, 41.3266494 ] } },
{ "type": "Feature", "properties": { "osm_element": "node", "osm_id": 4694744698, "name": "Buyuk Ipak Yo'li", "name_en": "Buyuk Ipak Yuli", "name_ru": "Буюк Ипак Йули", "railway": "subway_entrance", "district_name": "Mirzo Ulugbek district", "district_assignment": "within" }, "geometry": { "type": "Point", "coordinates": [ 69.3266812, 41.3269346 ] } },
{ "type": "Feature", "properties": { "osm_element": "node", "osm_id": 4759259236, "name": "Yunusobod", "name_en": "Yunusabad", "name_ru": "Юнусабад", "railway": "subway_entrance", "district_name": "Yunusabad district", "district_assignment": "within" }, "geometry": { "type": "Point", "coordinates": [ 69.2912862, 41.366355 ] } },
{ "type": "Feature", "properties": { "osm_element": "node", "osm_id": 4977114644, "name": "Mirzo Ulugʻbek", "name_en": "Mirzo Ulugbek", "name_ru": "Мирзо Улугбек", "railway": "subway_entrance", "district_name": "Chilanzar district", "district_assignment": "within" }, "geometry": { "type": "Point", "coordinates": [ 69.2136034, 41.2826107 ] } },
{ "type": "Feature", "properties": { "osm_element": "node", "osm_id": 5185753347, "name": "Paxtakor", "name_en": "Pakhtakor", "name_ru": "Пахтакор", "railway": "subway_entrance", "district_name": "Shaykhantakhur district", "district_assignment": "within" }, "geometry": { "type": "Point", "coordinates": [ 69.2561109, 41.3175591 ] } },
{ "type": "Feature", "properties": { "osm_element": "node", "osm_id": 5323228253, "name": "Беруни", "name_en": null, "name_ru": "Беруни", "railway": "subway_entrance", "district_name": "Shaykhantakhur district", "district_assignment": "within" }, "geometry": { "type": "Point", "coordinates": [ 69.2058928, 41.3453831 ] } },
{ "type": "Feature", "properties": { "osm_element": "node", "osm_id": 5323228264, "name": "Beruniy", "name_en": null, "name_ru": "Беруни", "railway": "subway_entrance", "district_name": "Shaykhantakhur district", "district_assignment": "within" }, "geometry": { "type": "Point", "coordinates": [ 69.2061933, 41.3441358 ] } },
{ "type": "Feature", "properties": { "osm_element": "node", "osm_id": 5431967358, "name": "Chilonzor", "name_en": "Chilanzar", "name_ru": "Чиланзар", "railway": "subway_entrance", "district_name": "Chilanzar district", "district_assignment": "within" }, "geometry": { "type": "Point", "coordinates": [ 69.2045952, 41.2750138 ] } },
{ "type": "Feature", "properties": { "osm_element": "node", "osm_id": 5432735054, "name": "Mashinasozlar", "name_en": null, "name_ru": "Машинасозлар", "railway": "subway_entrance", "district_name": "Yashnabad district", "district_assignment": "within" }, "geometry": { "type": "Point", "coordinates": [ 69.3066709, 41.2990361 ] } },
{ "type": "Feature", "properties": { "osm_element": "node", "osm_id": 5432790808, "name": null, "name_en": null, "name_ru": null, "railway": "subway_entrance", "district_name": "Shaykhantakhur district", "district_assignment": "within" }, "geometry": { "type": "Point", "coordinates": [ 69.2532133, 41.3128007 ] } },
{ "type": "Feature", "properties": { "osm_element": "node", "osm_id": 5433157103, "name": "G'afur G'ulom", "name_en": "Gafur Gulyam", "name_ru": "Гафур Гулям", "railway": "subway_entrance", "district_name": "Almazar district", "district_assignment": "within" }, "geometry": { "type": "Point", "coordinates": [ 69.245817, 41.3273441 ] } },
{ "type": "Feature", "properties": { "osm_element": "node", "osm_id": 5433186399, "name": "Беруни", "name_en": null, "name_ru": null, "railway": "subway_entrance", "district_name": "Almazar district", "district_assignment": "within" }, "geometry": { "type": "Point", "coordinates": [ 69.2065884, 41.3460978 ] } },
{ "type": "Feature", "properties": { "osm_element": "node", "osm_id": 5433372094, "name": "Kosmonavtlar", "name_en": null, "name_ru": "Космонавтов", "railway": "subway_entrance", "district_name": "Yakkasaray district", "district_assignment": "within" }, "geometry": { "type": "Point", "coordinates": [ 69.2637188, 41.3057678 ] } },
{ "type": "Feature", "properties": { "osm_element": "node", "osm_id": 5462640967, "name": "Mirzo Ulugʻbek", "name_en": null, "name_ru": "Мирзо Улугбек", "railway": "subway_entrance", "district_name": "Chilanzar district", "district_assignment": "within" }, "geometry": { "type": "Point", "coordinates": [ 69.2122822, 41.2814174 ] } },
{ "type": "Feature", "properties": { "osm_element": "node", "osm_id": 6154109557, "name": "Xalqlar Do'stligi", "name_en": "Xalqlar Dustligi", "name_ru": "Дружба Народов", "railway": "subway_entrance", "district_name": "Chilanzar district", "district_assignment": "within" }, "geometry": { "type": "Point", "coordinates": [ 69.2425686, 41.3109652 ] } },
{ "type": "Feature", "properties": { "osm_element": "node", "osm_id": 7053509979, "name": "Turkiston", "name_en": "Turkistan", "name_ru": "Туркистан", "railway": "subway_entrance", "district_name": "Yunusabad district", "district_assignment": "within" }, "geometry": { "type": "Point", "coordinates": [ 69.2961218, 41.3764022 ] } },
{ "type": "Feature", "properties": { "osm_element": "node", "osm_id": 7053509980, "name": "Yunusobod", "name_en": "Yunusabad", "name_ru": "Юнусабад", "railway": "subway_entrance", "district_name": "Yunusabad district", "district_assignment": "within" }, "geometry": { "type": "Point", "coordinates": [ 69.2930447, 41.3671149 ] } },
{ "type": "Feature", "properties": { "osm_element": "node", "osm_id": 7053509983, "name": "Yunusobod", "name_en": "Yunusabad", "name_ru": "Юнусабад", "railway": "subway_entrance", "district_name": "Yunusabad district", "district_assignment": "within" }, "geometry": { "type": "Point", "coordinates": [ 69.2916942, 41.36575 ] } },
{ "type": "Feature", "properties": { "osm_element": "node", "osm_id": 7053517096, "name": "Turkiston", "name_en": "Turkistan", "name_ru": "Туркистан", "railway": "subway_entrance", "district_name": "Yunusabad district", "district_assignment": "within" }, "geometry": { "type": "Point", "coordinates": [ 69.2952452, 41.3765412 ] } },
{ "type": "Feature", "properties": { "osm_element": "node", "osm_id": 7851505409, "name": "Turkiston", "name_en": "Turkistan", "name_ru": "Туркистан", "railway": "subway_entrance", "district_name": "Yunusabad district", "district_assignment": "within" }, "geometry": { "type": "Point", "coordinates": [ 69.2966866, 41.3783421 ] } },
{ "type": "Feature", "properties": { "osm_element": "node", "osm_id": 7851505411, "name": "Turkiston", "name_en": "Turkistan", "name_ru": "Туркистан", "railway": "subway_entrance", "district_name": "Yunusabad district", "district_assignment": "within" }, "geometry": { "type": "Point", "coordinates": [ 69.2957336, 41.3781583 ] } },
{ "type": "Feature", "properties": { "osm_element": "node", "osm_id": 7997001763, "name": "Bekat 6", "name_en": null, "name_ru": "Станция 6/ Янгиабад", "railway": "subway_entrance", "district_name": "Yashnabad district", "district_assignment": "within" }, "geometry": { "type": "Point", "coordinates": [ 69.3581934, 41.256441 ] } },
{ "type": "Feature", "properties": { "osm_element": "node", "osm_id": 7997001764, "name": null, "name_en": "Kuylyuk", "name_ru": "Куйлюк", "railway": "subway_entrance", "district_name": "Bektemir district", "district_assignment": "within" }, "geometry": { "type": "Point", "coordinates": [ 69.327449, 41.2377053 ] } },
{ "type": "Feature", "properties": { "osm_element": "node", "osm_id": 9368644898, "name": null, "name_en": null, "name_ru": null, "railway": "subway_entrance", "district_name": "Chilanzar district", "district_assignment": "within" }, "geometry": { "type": "Point", "coordinates": [ 69.194065, 41.2581004 ] } },
{ "type": "Feature", "properties": { "osm_element": "node", "osm_id": 13322774128, "name": "Qiyot", "name_en": null, "name_ru": null, "railway": "subway_entrance", "district_name": "Sergeli district", "district_assignment": "within" }, "geometry": { "type": "Point", "coordinates": [ 69.3008955, 41.244492 ] } },
{ "type": "Feature", "properties": { "osm_element": "node", "osm_id": 13324929877, "name": null, "name_en": null, "name_ru": null, "railway": "subway_entrance", "district_name": "Sergeli district", "district_assignment": "within" }, "geometry": { "type": "Point", "coordinates": [ 69.2859482, 41.2445858 ] } },
{ "type": "Feature", "properties": { "osm_element": "node", "osm_id": 13324929878, "name": null, "name_en": null, "name_ru": null, "railway": "subway_entrance", "district_name": "Sergeli district", "district_assignment": "within" }, "geometry": { "type": "Point", "coordinates": [ 69.2859529, 41.2444502 ] } },
{ "type": "Feature", "properties": { "osm_element": "node", "osm_id": 13326560028, "name": "Quruvchilar", "name_en": "Kurivchilar", "name_ru": "Куривчилар", "railway": "subway_entrance", "district_name": "Sergeli district", "district_assignment": "within" }, "geometry": { "type": "Point", "coordinates": [ 69.2597195, 41.2213123 ] } },
{ "type": "Feature", "properties": { "osm_element": "node", "osm_id": 13326560037, "name": null, "name_en": null, "name_ru": null, "railway": "subway_entrance", "district_name": "Sergeli district", "district_assignment": "within" }, "geometry": { "type": "Point", "coordinates": [ 69.2706871, 41.2306788 ] } },
{ "type": "Feature", "properties": { "osm_element": "node", "osm_id": 13352013991, "name": null, "name_en": null, "name_ru": null, "railway": "subway_entrance", "district_name": "Yangikhayot district", "district_assignment": "within" }, "geometry": { "type": "Point", "coordinates": [ 69.2082905, 41.2213851 ] } },
{ "type": "Feature", "properties": { "osm_element": "node", "osm_id": 13418520188, "name": null, "name_en": null, "name_ru": null, "railway": "subway_entrance", "district_name": "Yashnabad district", "district_assignment": "within" }, "geometry": { "type": "Point", "coordinates": [ 69.3488952, 41.2981344 ] } },
{ "type": "Feature", "properties": { "osm_element": "node", "osm_id": 13538956795, "name": null, "name_en": null, "name_ru": null, "railway": "subway_entrance", "district_name": "Yashnabad district", "district_assignment": "within" }, "geometry": { "type": "Point", "coordinates": [ 69.3218206, 41.294263 ] } }
]
}
