{
"type": "FeatureCollection",
"name": "metro_stations",
"crs": { "type": "name", "properties": { "name": "urn:ogc:def:crs:OGC:1.3:CRS84" } },
"features": [
{ "type": "Feature", "properties": { "osm_element": "node", "osm_id": 563751850, "name": "Novza", "name_en": "Novza (Hamza)", "name_ru": "Новза (Хамза)", "line": "<NA>", "network": "Ташкентский метрополитен", "operator": "Ассоциация «Тошшаҳартрансхизмат»", "station_tag": "subway", "subway_tag": "yes", "district_name": "Chilanzar district", "district_assignment": "within" }, "geometry": { "type": "Point", "coordinates": [ 69.2236165, 41.2918722 ] } },
{ "type": "Feature", "properties": { "osm_element": "node", "osm_id": 568770460, "name": "Xalqlar doʻstligi", "name_en": "Drujba Narodov", "name_ru": "Дружба Народов", "line": "<NA>", "network": "Ташкентский метрополитен", "operator": "Ассоциация «Тошшаҳартрансхизмат»", "station_tag": "subway", "subway_tag": "yes", "district_name": "Shaykhantakhur district", "district_assignment": "within" }, "geometry": { "type": "Point", "coordinates": [ 69.2430959, 41.3118987 ] } },
{ "type": "Feature", "properties": { "osm_element": "node", "osm_id": 852873027, "name": "Mirzo Ulugʻbek", "name_en": "Mirzo Ulugbek (50 years USSR)", "name_ru": "Мирзо Улугбек (50 лет СССР)", "line": "<NA>", "network": "Ташкентский метрополитен", "operator": "Ассоциация «Тошшаҳартрансхизмат»", "station_tag": "subway", "subway_tag": "yes", "district_name": "Chilanzar district", "district_assignment": "within" }, "geometry": { "type": "Point", "coordinates": [ 69.2125834, 41.2820342 ] } },
{ "type": "Feature", "properties": { "osm_element": "node", "osm_id": 854338154, "name": "Chilonzor", "name_en": "Chilanzar", "name_ru": "Чиланзар", "line": "<NA>", "network": "Ташкентский метрополитен", "operator": "Ассоциация «Тошшаҳартрансхизмат»", "station_tag": "subway", "subway_tag": "yes", "district_name": "Chilanzar district", "district_assignment": "within" }, "geometry": { "type": "Point", "coordinates": [ 69.2049735, 41.274359 ] } },
{ "type": "Feature", "properties": { "osm_element": "node", "osm_id": 1252201486, "name": "Milliy bogʻ", "name_en": "Milliy Bog (Komsomolskaya)", "name_ru": "Миллий Бог (Комсомольская)", "line": "<NA>", "network": "Ташкентский метрополитен", "operator": "Ассоциация «Тошшаҳартрансхизмат»", "station_tag": "subway", "subway_tag": "yes", "district_name": "Chilanzar district", "district_assignment": "within" }, "geometry": { "type": "Point", "coordinates": [ 69.2356663, 41.3033944 ] } },
{ "type": "Feature", "properties": { "osm_element": "node", "osm_id": 1539317100, "name": "G'afur G'ulom", "name_en": "Gafur Gulyam", "name_ru": "Гафур Гулям", "line": "<NA>", "network": "Ташкентский метрополитен", "operator": "Ассоциация «Тошшаҳартрансхизмат»", "station_tag": "subway", "subway_tag": "yes", "district_name": "Almazar district", "district_assignment": "within" }, "geometry": { "type": "Point", "coordinates": [ 69.2458342, 41.3278828 ] } },
{ "type": "Feature", "properties": { "osm_element": "node", "osm_id": 1577932485, "name": "Chorsu", "name_en": "Chorsu", "name_ru": "Чорсу", "line": "<NA>", "network": "Ташкентский метрополитен", "operator": "Ассоциация «Тошшаҳартрансхизмат»", "station_tag": "subway", "subway_tag": "yes", "district_name": "Shaykhantakhur district", "district_assignment": "within" }, "geometry": { "type": "Point", "coordinates": [ 69.2368152, 41.3258649 ] } },
{ "type": "Feature", "properties": { "osm_element": "node", "osm_id": 1579080941, "name": "Oybek", "name_en": "Aybek", "name_ru": "Айбек", "line": "<NA>", "network": "Ташкентский метрополитен", "operator": "Ассоциация «Тошшаҳартрансхизмат»", "station_tag": "subway", "subway_tag": "yes", "district_name": "Mirabad district", "district_assignment": "within" }, "geometry": { "type": "Point", "coordinates": [ 69.2740501, 41.2980128 ] } },
{ "type": "Feature", "properties": { "osm_element": "node", "osm_id": 1579080943, "name": "Mingoʻrik", "name_en": "Ming Urik", "name_ru": "Минг Урик", "line": "<NA>", "network": "Ташкентский метрополитен", "operator": "Ассоциация «Тошшаҳартрансхизмат»", "station_tag": "subway", "subway_tag": "yes", "district_name": "Mirabad district", "district_assignment": "within" }, "geometry": { "type": "Point", "coordinates": [ 69.2744102, 41.299661 ] } },
{ "type": "Feature", "properties": { "osm_element": "node", "osm_id": 1582352956, "name": "Toshkent", "name_en": "Tashkent", "name_ru": "Ташкент", "line": "<NA>", "network": "Ташкентский метрополитен", "operator": "Ассоциация «Тошшаҳартрансхизмат»", "station_tag": "subway", "subway_tag": "yes", "district_name": "Mirabad district", "district_assignment": "within" }, "geometry": { "type": "Point", "coordinates": [ 69.2877212, 41.2932886 ] } },
{ "type": "Feature", "properties": { "osm_element": "node", "osm_id": 1631211328, "name": "Beruniy", "name_en": "Beruniy", "name_ru": "Беруни", "line": "<NA>", "network": "Ташкентский метрополитен", "operator": "Ассоциация «Тошшаҳартрансхизмат»", "station_tag": "subway", "subway_tag": "yes", "district_name": "Shaykhantakhur district", "district_assignment": "within" }, "geometry": { "type": "Point", "coordinates": [ 69.2062046, 41.3446152 ] } },
{ "type": "Feature", "properties": { "osm_element": "node", "osm_id": 1633822600, "name": "Shahriston", "name_en": "Shahristan", "name_ru": "Шахристан", "line": "<NA>", "network": "Ташкентский метрополитен", "operator": "Ассоциация «Тошшаҳартрансхизмат»", "station_tag": "subway", "subway_tag": "yes", "district_name": "Yunusabad district", "district_assignment": "within" }, "geometry": { "type": "Point", "coordinates": [ 69.2881069, 41.3531185 ] } },
{ "type": "Feature", "properties": { "osm_element": "node", "osm_id": 1765133546, "name": "Mashinasozlar", "name_en": "Mashinasozlar (Tashselmash)", "name_ru": "Машиносозлар (Ташсельмаш)", "line": "<NA>", "network": "Ташкентский метрополитен", "operator": "Ассоциация «Тошшаҳартрансхизмат»", "station_tag": "subway", "subway_tag": "yes", "district_name": "Yashnabad district", "district_assignment": "within" }, "geometry": { "type": "Point", "coordinates": [ 69.3051276, 41.2989847 ] } },
{ "type": "Feature", "properties": { "osm_element": "node", "osm_id": 1770328496, "name": "Tinchlik", "name_en": "Tinchlik", "name_ru": "Тинчлик", "line": "<NA>", "network": "Ташкентский метрополитен", "operator": "Ассоциация «Тошшаҳартрансхизмат»", "station_tag": "subway", "subway_tag": "yes", "district_name": "Shaykhantakhur district", "district_assignment": "within" }, "geometry": { "type": "Point", "coordinates": [ 69.2191155, 41.3323014 ] } },
{ "type": "Feature", "properties": { "osm_element": "node", "osm_id": 1772575475, "name": "Abdulla Qodiriy", "name_en": "Abdulla Qodirii", "name_ru": "Абдулла Кадыри", "line": "<NA>", "network": "Ташкентский метрополитен", "operator": "Ассоциация «Тошшаҳартрансхизмат»", "station_tag": "subway", "subway_tag": "yes", "district_name": "Yunusabad district", "district_assignment": "within" }, "geometry": { "type": "Point", "coordinates": [ 69.281759, 41.3201924 ] } },
{ "type": "Feature", "properties": { "osm_element": "node", "osm_id": 1772595534, "name": "Minor", "name_en": "Minor", "name_ru": "Минор", "line": "<NA>", "network": "Ташкентский метрополитен", "operator": "АК «Узбекистон темир йуллари»", "station_tag": "subway", "subway_tag": "yes", "district_name": "Yunusabad district", "district_assignment": "within" }, "geometry": { "type": "Point", "coordinates": [ 69.2834163, 41.3268923 ] } },
{ "type": "Feature", "properties": { "osm_element": "node", "osm_id": 1775804030, "name": "Bodomzor", "name_en": "Badamzar", "name_ru": "Бадамзар", "line": "<NA>", "network": "Ташкентский метрополитен", "operator": "Ассоциация «Тошшаҳартрансхизмат»", "station_tag": "subway", "subway_tag": "yes", "district_name": "Yunusabad district", "district_assignment": "within" }, "geometry": { "type": "Point", "coordinates": [ 69.2845697, 41.3371701 ] } },
{ "type": "Feature", "properties": { "osm_element": "node", "osm_id": 1775848270, "name": "Hamid Olimjon", "name_en": "Hamid Alimjan", "name_ru": "Хамид Алимджан", "line": "<NA>", "network": "Ташкентский метрополитен", "operator": "Ассоциация «Тошшаҳартрансхизмат»", "station_tag": "subway", "subway_tag": "yes", "district_name": "Mirzo Ulugbek district", "district_assignment": "within" }, "geometry": { "type": "Point", "coordinates": [ 69.2957419, 41.3181644 ] } },
{ "type": "Feature", "properties": { "osm_element": "node", "osm_id": 1775892797, "name": "Kosmonavtlar", "name_en": "Cosmonauts", "name_ru": "Космонавтов", "line": "<NA>", "network": "Ташкентский метрополитен", "operator": "Ассоциация «Тошшаҳартрансхизмат»", "station_tag": "subway", "subway_tag": "yes", "district_name": "Yakkasaray district", "district_assignment": "within" }, "geometry": { "type": "Point", "coordinates": [ 69.2647207, 41.3051618 ] } },
{ "type": "Feature", "properties": { "osm_element": "node", "osm_id": 1777037919, "name": "Buyuk Ipak Yoʻli", "name_en": "Buyuk Ipak Yuli (Maxim Gorky)", "name_ru": "Буюк Ипак Йули (Максим Горький)", "line": "<NA>", "network": "Ташкентский метрополитен", "operator": "Ассоциация «Тошшаҳартрансхизмат»", "station_tag": "subway", "subway_tag": "yes", "district_name": "Mirzo Ulugbek district", "district_assignment": "within" }, "geometry": { "type": "Point", "coordinates": [ 69.3285598, 41.3261054 ] } },
{ "type": "Feature", "properties": { "osm_element": "node", "osm_id": 1777037922, "name": "Pushkin", "name_en": "Pushkin", "name_ru": "Пушкин", "line": "<NA>", "network": "Ташкентский метрополитен", "operator": "Ассоциация «Тошшаҳартрансхизмат»", "station_tag": "subway", "subway_tag": "yes", "district_name": "Mirzo Ulugbek district", "district_assignment": "within" }, "geometry": { "type": "Point", "coordinates": [ 69.311102, 41.3219481 ] } },
{ "type": "Feature", "properties": { "osm_element": "node", "osm_id": 1777051509, "name": "Amir Temur xiyoboni", "name_en": "Amir Timur Square", "name_ru": "Сквер Амира Тимура", "line": "<NA>", "network": "Ташкентский метрополитен", "operator": "Ассоциация «Тошшаҳартрансхизмат»", "station_tag": "subway", "subway_tag": "yes", "district_name": "Mirzo Ulugbek district", "district_assignment": "within" }, "geometry": { "type": "Point", "coordinates": [ 69.2832691, 41.3126738 ] } },
{ "type": "Feature", "properties": { "osm_element": "node", "osm_id": 1777051512, "name": "Yunus Rajabiy", "name_en": "Yunus Rajabiy", "name_ru": "Юнyc Раджаби", "line": "<NA>", "network": "Ташкентский метрополитен", "operator": null, "station_tag": "subway", "subway_tag": "yes", "district_name": "Mirzo Ulugbek district", "district_assignment": "within" }, "geometry": { "type": "Point", "coordinates": [ 69.2835077, 41.3138871 ] } },
{ "type": "Feature", "properties": { "osm_element": "node", "osm_id": 1777740153, "name": "Alisher Navoiy", "name_en": "Alisher Navoiy", "name_ru": "Алишер Навои", "line": "<NA>", "network": "Ташкентский метрополитен", "operator": "Ассоциация «Тошшаҳартрансхизмат»", "station_tag": "subway", "subway_tag": "yes", "district_name": "Shaykhantakhur district", "district_assignment": "within" }, "geometry": { "type": "Point", "coordinates": [ 69.2542973, 41.3189218 ] } },
{ "type": "Feature", "properties": { "osm_element": "node", "osm_id": 1777740154, "name": "Paxtakor", "name_en": "Pakhtakor", "name_ru": "Пахтакор", "line": "<NA>", "network": "Ташкентский метрополитен", "operator": "Ассоциация «Тошшаҳартрансхизмат»", "station_tag": "subway", "subway_tag": "yes", "district_name": "Shaykhantakhur district", "district_assignment": "within" }, "geometry": { "type": "Point", "coordinates": [ 69.2550882, 41.3177914 ] } },
{ "type": "Feature", "properties": { "osm_element": "node", "osm_id": 1777744035, "name": "Oʻzbekiston", "name_en": "Uzbekistan", "name_ru": "Узбекистан", "line": "<NA>", "network": "Ташкентский метрополитен", "operator": "Ассоциация «Тошшаҳартрансхизмат»", "station_tag": "subway", "subway_tag": null, "district_name": "Shaykhantakhur district", "district_assignment": "within" }, "geometry": { "type": "Point", "coordinates": [ 69.2534057, 41.3119437 ] } },
{ "type": "Feature", "properties": { "osm_element": "node", "osm_id": 1777845992, "name": "Olmazor", "name_en": "Almazar (Sabir Rakhimov)", "name_ru": "Алмазар (Сабир Рахимов)", "line": "<NA>", "network": "Ташкентский метрополитен", "operator": "Ассоциация «Тошшаҳартрансхизмат»", "station_tag": "subway", "subway_tag": "yes", "district_name": "Chilanzar district", "district_assignment": "within" }, "geometry": { "type": "Point", "coordinates": [ 69.1961045, 41.2566724 ] } },
{ "type": "Feature", "properties": { "osm_element": "node", "osm_id": 1777856012, "name": "Do'stlik", "name_en": "Dustlik (Chkalov)", "name_ru": "Дустлик (Чкалов)", "line": "<NA>", "network": "Ташкентский метрополитен", "operator": "Ассоциация «Тошшаҳартрансхизмат»", "station_tag": "subway", "subway_tag": "yes", "district_name": "Yashnabad district", "district_assignment": "within" }, "geometry": { "type": "Point", "coordinates": [ 69.3222445, 41.2936401 ] } },
{ "type": "Feature", "properties": { "osm_element": "node", "osm_id": 1778357473, "name": "Mustaqillik maydoni", "name_en": null, "name_ru": "Мустакиллик майдони", "line": "<NA>", "network": "Ташкентский метрополитен", "operator": "Ассоциация «Тошшаҳартрансхизмат»", "station_tag": "subway", "subway_tag": "yes", "district_name": "Yunusabad district", "district_assignment": "within" }, "geometry": { "type": "Point", "coordinates": [ 69.2710646, 41.3149453 ] } },
{ "type": "Feature", "properties": { "osm_element": "node", "osm_id": 6011988808, "name": "Tuzel", "name_en": "Tuzel", "name_ru": "Тузель", "line": "<NA>", "network": "Ташкентский метрополитен", "operator": "Ассоциация «Тошшаҳартрансхизмат»", "station_tag": null, "subway_tag": "yes", "district_name": "Yashnabad district", "district_assignment": "within" }, "geometry": { "type": "Point", "coordinates": [ 69.3563523, 41.2917456 ] } },
{ "type": "Feature", "properties": { "osm_element": "node", "osm_id": 6761195240, "name": "Yunusobod", "name_en": "Yunusabad", "name_ru": "Юнусабад", "line": "<NA>", "network": null, "operator": null, "station_tag": null, "subway_tag": "yes", "district_name": "Yunusabad district", "district_assignment": "within" }, "geometry": { "type": "Point", "coordinates": [ 69.2917081, 41.3663489 ] } },
{ "type": "Feature", "properties": { "osm_element": "node", "osm_id": 6902085593, "name": "Yashnobod", "name_en": "Ahangaron", "name_ru": "Яшнабад", "line": "<NA>", "network": "Ташкентский метрополитен", "operator": "Ассоциация «Тошшаҳартрансхизмат»", "station_tag": null, "subway_tag": "yes", "district_name": "Yashnabad district", "district_assignment": "within" }, "geometry": { "type": "Point", "coordinates": [ 69.3494377, 41.2978536 ] } },
{ "type": "Feature", "properties": { "osm_element": "node", "osm_id": 6923918549, "name": "Texnopark", "name_en": "Technopark", "name_ru": "Технопарк", "line": "<NA>", "network": "Ташкентский метрополитен", "operator": "Ассоциация «Тошшаҳартрансхизмат»", "station_tag": null, "subway_tag": "yes", "district_name": "Yashnabad district", "district_assignment": "within" }, "geometry": { "type": "Point", "coordinates": [ 69.3226789, 41.2945327 ] } },
{ "type": "Feature", "properties": { "osm_element": "node", "osm_id": 7597627323, "name": "Rohat", "name_en": "Rakhat", "name_ru": "Рахат", "line": "<NA>", "network": "Ташкентский метрополитен", "operator": "Ассоциация «Тошшаҳартрансхизмат»", "station_tag": null, "subway_tag": "yes", "district_name": "Yashnabad district", "district_assignment": "within" }, "geometry": { "type": "Point", "coordinates": [ 69.3650452, 41.2656083 ] } },
{ "type": "Feature", "properties": { "osm_element": "node", "osm_id": 7861940928, "name": "Turkiston", "name_en": "Turkistan", "name_ru": "Туркистан", "line": "<NA>", "network": "Ташкентский метрополитен", "operator": "Ассоциация «Тошшаҳартрансхизмат»", "station_tag": "subway", "subway_tag": "yes", "district_name": "Yunusabad district", "district_assignment": "within" }, "geometry": { "type": "Point", "coordinates": [ 69.2960151, 41.3775217 ] } },
{ "type": "Feature", "properties": { "osm_element": "node", "osm_id": 7910174392, "name": "Yangiobod", "name_en": "Yangiabad", "name_ru": "Янгиабад", "line": "<NA>", "network": "Ташкентский метрополитен", "operator": "Ассоциация «Тошшаҳартрансхизмат»", "station_tag": null, "subway_tag": "yes", "district_name": "Yashnabad district", "district_assignment": "within" }, "geometry": { "type": "Point", "coordinates": [ 69.3584025, 41.2561594 ] } },
{ "type": "Feature", "properties": { "osm_element": "node", "osm_id": 7910174393, "name": "Qo‘yliq", "name_en": "Kuylyuk", "name_ru": "Куйлюк", "line": "<NA>", "network": "Ташкентский метрополитен", "operator": "Ассоциация «Тошшаҳартрансхизмат»", "station_tag": null, "subway_tag": "yes", "district_name": "Bektemir district", "district_assignment": "within" }, "geometry": { "type": "Point", "coordinates": [ 69.3274964, 41.2374808 ] } },
{ "type": "Feature", "properties": { "osm_element": "node", "osm_id": 8962013669, "name": "Qiyot", "name_en": null, "name_ru": "Киёт", "line": "<NA>", "network": null, "operator": null, "station_tag": null, "subway_tag": "yes", "district_name": "Sergeli district", "district_assignment": "within" }, "geometry": { "type": "Point", "coordinates": [ 69.3002451, 41.2444232 ] } },
{ "type": "Feature", "properties": { "osm_element": "node", "osm_id": 9209214732, "name": "Quruvchilar", "name_en": "Kuruvchilar (Stroiteley)", "name_ru": "Курувчилар", "line": "<NA>", "network": null, "operator": null, "station_tag": null, "subway_tag": "yes", "district_name": "Sergeli district", "district_assignment": "within" }, "geometry": { "type": "Point", "coordinates": [ 69.261022, 41.2218027 ] } },
{ "type": "Feature", "properties": { "osm_element": "node", "osm_id": 9972711745, "name": "Olmos", "name_en": "Almas", "name_ru": "Алмас", "line": "<NA>", "network": "Ташкентский метрополитен", "operator": null, "station_tag": "subway", "subway_tag": "yes", "district_name": "Yashnabad district", "district_assignment": "within" }, "geometry": { "type": "Point", "coordinates": [ 69.3603338, 41.281705 ] } },
{ "type": "Feature", "properties": { "osm_element": "node", "osm_id": 10050570440, "name": "Xonobod", "name_en": null, "name_ru": "Ханабад", "line": "<NA>", "network": null, "operator": null, "station_tag": null, "subway_tag": "yes", "district_name": "Sergeli district", "district_assignment": "within" }, "geometry": { "type": "Point", "coordinates": [ 69.2701677, 41.22969 ] } },
{ "type": "Feature", "properties": { "osm_element": "node", "osm_id": 10537931294, "name": "Matonat", "name_en": "Matonat", "name_ru": "Матонат", "line": "<NA>", "network": "Ташкентский метрополитен", "operator": "Ассоциация «Тошшаҳартрансхизмат»", "station_tag": "subway", "subway_tag": "yes", "district_name": "Mirabad district", "district_assignment": "within" }, "geometry": { "type": "Point", "coordinates": [ 69.3083229, 41.2444713 ] } },
{ "type": "Feature", "properties": { "osm_element": "node", "osm_id": 10538244112, "name": "Choshtepa", "name_en": "Chashtepa", "name_ru": "Чаштепа", "line": "<NA>", "network": "Ташкентский метрополитен", "operator": null, "station_tag": "subway", "subway_tag": "yes", "district_name": "Yangikhayot district", "district_assignment": "within" }, "geometry": { "type": "Point", "coordinates": [ 69.1960345, 41.2382496 ] } },
{ "type": "Feature", "properties": { "osm_element": "node", "osm_id": 10538244113, "name": "O‘zgarish", "name_en": "Uzgarish", "name_ru": "Узгариш", "line": "<NA>", "network": "Ташкентский метрополитен", "operator": "Ассоциация «Тошшаҳартрансхизмат»", "station_tag": "subway", "subway_tag": "yes", "district_name": "Yangikhayot district", "district_assignment": "within" }, "geometry": { "type": "Point", "coordinates": [ 69.2039714, 41.2273364 ] } },
{ "type": "Feature", "properties": { "osm_element": "node", "osm_id": 10538244119, "name": "Yangihayot", "name_en": "Yangihayot", "name_ru": "Янгихаёт", "line": "<NA>", "network": "Ташкентский метрополитен", "operator": "Ассоциация «Тошшаҳартрансхизмат»", "station_tag": "subway", "subway_tag": "yes", "district_name": "Yangikhayot district", "district_assignment": "within" }, "geometry": { "type": "Point", "coordinates": [ 69.214015, 41.2135099 ] } },
{ "type": "Feature", "properties": { "osm_element": "node", "osm_id": 10538244120, "name": "Chinor", "name_en": "Chinara", "name_ru": "Чинара", "line": "<NA>", "network": "Ташкентский метрополитен", "operator": "Ассоциация «Тошшаҳартрансхизмат»", "station_tag": "subway", "subway_tag": "yes", "district_name": "Yangikhayot district", "district_assignment": "within" }, "geometry": { "type": "Point", "coordinates": [ 69.2189575, 41.2066965 ] } },
{ "type": "Feature", "properties": { "osm_element": "node", "osm_id": 10538303447, "name": "Tolarik", "name_en": "Talaryk", "name_ru": "Таларык", "line": "<NA>", "network": "Ташкентский метрополитен", "operator": "Ассоциация «Тошшаҳартрансхизмат»", "station_tag": "subway", "subway_tag": "yes", "district_name": "Sergeli district", "district_assignment": "within" }, "geometry": { "type": "Point", "coordinates": [ 69.2849568, 41.2445139 ] } },
{ "type": "Feature", "properties": { "osm_element": "node", "osm_id": 10541839548, "name": "Sergeli", "name_en": "Sergeli", "name_ru": "Сергели", "line": "<NA>", "network": null, "operator": null, "station_tag": null, "subway_tag": "yes", "district_name": "Yangikhayot district", "district_assignment": "within" }, "geometry": { "type": "Point", "coordinates": [ 69.2090865, 41.2202283 ] } },
{ "type": "Feature", "properties": { "osm_element": "node", "osm_id": 11218653778, "name": "Qipchok", "name_en": "Kipchak", "name_ru": "Кипчак", "line": "<NA>", "network": "Ташкентский метрополитен", "operator": "Ассоциация «Тошшаҳартрансхизмат»", "station_tag": "subway", "subway_tag": "yes", "district_name": "Yangikhayot district", "district_assignment": "within" }, "geometry": { "type": "Point", "coordinates": [ 69.2214112, 41.2054229 ] } },
{ "type": "Feature", "properties": { "osm_element": "node", "osm_id": 11218653779, "name": "Turon", "name_en": "Turan", "name_ru": "Туран", "line": "<NA>", "network": "Ташкентский метрополитен", "operator": "Ассоциация «Тошшаҳартрансхизмат»", "station_tag": "subway", "subway_tag": "yes", "district_name": "Yangikhayot district", "district_assignment": "within" }, "geometry": { "type": "Point", "coordinates": [ 69.234154, 41.2106813 ] } }
]
}
