{"type":"FeatureCollection","features":[{"type":"Feature","properties":{"purpose":"dim outside the study area","role":"display_only"},"geometry":{"type":"Polygon","coordinates":[[[-180.0,85.0],[180.0,85.0],[180.0,-85.0],[-180.0,-85.0],[-180.0,85.0]],[[69.31337,41.18741],[69.32249,41.19418],[69.33134,41.20085],[69.3319,41.20127],[69.33193,41.20129],[69.33403,41.20288],[69.34082,41.20804],[69.34671,41.2125],[69.35359,41.21735],[69.35524,41.21841],[69.3594,41.22102],[69.36629,41.22547],[69.37989,41.23429],[69.38722,41.23909],[69.38717,41.23912],[69.39235,41.24244],[69.39268,41.24279],[69.3929,41.24306],[69.39305,41.24326],[69.39319,41.24352],[69.39326,41.2437],[69.39332,41.24389],[69.39339,41.24413],[69.39342,41.24433],[69.39342,41.24457],[69.39342,41.24463],[69.3934,41.24492],[69.39334,41.24531],[69.39327,41.24559],[69.39314,41.24597],[69.39304,41.24622],[69.39298,41.24634],[69.39292,41.24646],[69.3928,41.24666],[69.39268,41.24685],[69.39249,41.2471],[69.39221,41.24747],[69.39208,41.24771],[69.39143,41.24821],[69.39067,41.24883],[69.39018,41.24921],[69.38968,41.24961],[69.38848,41.25058],[69.38632,41.25229],[69.38606,41.2525],[69.38467,41.25356],[69.38401,41.25408],[69.38395,41.25412],[69.38372,41.2543],[69.38386,41.25445],[69.37441,41.26201],[69.37574,41.26293],[69.37695,41.26404],[69.3778,41.26511],[69.37868,41.26657],[69.37941,41.26819],[69.37993,41.27015],[69.38356,41.26956],[69.38412,41.27048],[69.38654,41.27328],[69.38942,41.27479],[69.39474,41.27924],[69.40135,41.28525],[69.40684,41.28948],[69.41138,41.29258],[69.42012,41.30001],[69.42483,41.30332],[69.42716,41.30594],[69.42876,41.30718],[69.43025,41.30884],[69.43165,41.30959],[69.43477,41.31073],[69.4388,41.31422],[69.44577,41.31798],[69.44841,41.3193],[69.44963,41.32082],[69.45211,41.32222],[69.45427,41.32405],[69.45639,41.32618],[69.45782,41.32828],[69.46379,41.33136],[69.46822,41.33496],[69.47158,41.33808],[69.47402,41.3449],[69.47714,41.34704],[69.47424,41.34912],[69.46992,41.34738],[69.46147,41.34563],[69.4573,41.3452],[69.44045,41.34481],[69.40789,41.34222],[69.40971,41.34419],[69.41064,41.34627],[69.41115,41.34777],[69.41161,41.35023],[69.41125,41.35262],[69.4108,41.35566],[69.40952,41.35773],[69.4088,41.35805],[69.40712,41.36105],[69.40667,41.36184],[69.40619,41.36189],[69.40599,41.3619],[69.40543,41.36236],[69.40474,41.36363],[69.4046,41.36377],[69.4044,41.36383],[69.4016,41.36302],[69.40104,41.36481],[69.40101,41.3649],[69.4006,41.36476],[69.40045,41.36506],[69.39977,41.3648],[69.39886,41.36599],[69.39589,41.36432],[69.39543,41.36486],[69.39482,41.36524],[69.39441,41.36543],[69.39372,41.36561],[69.39284,41.36591],[69.39213,41.36613],[69.39154,41.36625],[69.39099,41.36622],[69.38925,41.3658],[69.38603,41.36468],[69.38369,41.36377],[69.3798,41.36249],[69.3774,41.36163],[69.37542,41.36134],[69.37421,41.36138],[69.37301,41.36152],[69.36985,41.36195],[69.36479,41.36256],[69.36425,41.36256],[69.36375,41.3625],[69.36325,41.36238],[69.36273,41.3622],[69.36216,41.36185],[69.36191,41.36166],[69.36166,41.36143],[69.35907,41.35823],[69.35767,41.35665],[69.35753,41.35651],[69.35676,41.35579],[69.35647,41.35562],[69.35613,41.35546],[69.35586,41.35533],[69.35551,41.3552],[69.3552,41.35509],[69.35482,41.35497],[69.35437,41.35486],[69.35396,41.35476],[69.3536,41.35472],[69.35323,41.35467],[69.35291,41.35465],[69.35246,41.35463],[69.35196,41.35463],[69.35133,41.35466],[69.35078,41.35474],[69.35038,41.35481],[69.3499,41.35492],[69.34928,41.35508],[69.34758,41.35562],[69.34715,41.35573],[69.34677,41.35582],[69.34634,41.3559],[69.34596,41.35596],[69.34552,41.35601],[69.34508,41.35604],[69.34458,41.35603],[69.34426,41.35602],[69.34406,41.35601],[69.34379,41.35618],[69.34361,41.35628],[69.33828,41.35955],[69.33583,41.36143],[69.33563,41.36155],[69.33493,41.36209],[69.33094,41.36514],[69.32647,41.36856],[69.32506,41.36967],[69.32459,41.37014],[69.32415,41.37077],[69.32291,41.37342],[69.31944,41.38143],[69.31896,41.38272],[69.31836,41.38351],[69.31793,41.38387],[69.3177,41.38406],[69.3173,41.38429],[69.31668,41.38457],[69.3158,41.3849],[69.31498,41.385],[69.31171,41.38514],[69.30803,41.38478],[69.30506,41.38451],[69.30284,41.38415],[69.30183,41.38402],[69.30059,41.38395],[69.29743,41.38387],[69.29108,41.38379],[69.29061,41.38378],[69.29057,41.38378],[69.29017,41.38379],[69.2899,41.38367],[69.28819,41.38364],[69.2866,41.38368],[69.28509,41.3838],[69.28354,41.3842],[69.28234,41.38459],[69.28099,41.38521],[69.27954,41.38613],[69.27806,41.38712],[69.27739,41.38756],[69.26506,41.39545],[69.26397,41.39608],[69.26178,41.39713],[69.25917,41.39767],[69.25773,41.39786],[69.25627,41.39794],[69.23896,41.39864],[69.23588,41.39848],[69.23416,41.3981],[69.23246,41.39769],[69.22936,41.39597],[69.22798,41.39509],[69.2225,41.39169],[69.22151,41.39106],[69.21574,41.38738],[69.21371,41.38698],[69.21172,41.38697],[69.21127,41.38669],[69.21133,41.386],[69.21046,41.384],[69.18501,41.36812],[69.18274,41.3667],[69.17436,41.36157],[69.16888,41.35684],[69.1667,41.35376],[69.1657,41.35109],[69.16505,41.34845],[69.16504,41.34837],[69.16457,41.34625],[69.16457,41.34519],[69.16437,41.34237],[69.16417,41.33859],[69.16399,41.33692],[69.16358,41.33543],[69.16271,41.33333],[69.16151,41.33149],[69.16083,41.33029],[69.15993,41.32837],[69.15986,41.3282],[69.15937,41.32853],[69.15924,41.32845],[69.15884,41.32847],[69.15861,41.32834],[69.15841,41.32825],[69.15813,41.32824],[69.15798,41.32824],[69.15784,41.32824],[69.15772,41.32818],[69.15766,41.32812],[69.15748,41.32792],[69.15736,41.32781],[69.15725,41.3277],[69.15705,41.32744],[69.15682,41.32731],[69.15664,41.32724],[69.15639,41.32725],[69.15617,41.32726],[69.15594,41.32726],[69.15565,41.32736],[69.15545,41.3274],[69.15522,41.32747],[69.15505,41.32741],[69.155,41.32736],[69.15486,41.32723],[69.1548,41.32707],[69.15474,41.32695],[69.15465,41.32684],[69.15459,41.32671],[69.15449,41.3266],[69.15448,41.32652],[69.15449,41.32644],[69.15451,41.32631],[69.15462,41.32621],[69.15474,41.326],[69.15466,41.32591],[69.15446,41.32584],[69.15438,41.32576],[69.15418,41.32562],[69.15409,41.32553],[69.15404,41.32544],[69.15386,41.32539],[69.15362,41.32531],[69.15356,41.32528],[69.15354,41.32519],[69.15374,41.32491],[69.15397,41.32466],[69.15401,41.32455],[69.15402,41.32446],[69.15392,41.32423],[69.15392,41.32412],[69.1539,41.32404],[69.15365,41.32372],[69.1536,41.32338],[69.15381,41.32316],[69.15435,41.32283],[69.15451,41.32264],[69.15461,41.32242],[69.1546,41.32235],[69.15456,41.32231],[69.15445,41.32221],[69.15432,41.32193],[69.15429,41.32159],[69.15401,41.32145],[69.15374,41.32132],[69.15365,41.32127],[69.15348,41.32117],[69.15342,41.32099],[69.15274,41.32045],[69.15257,41.32036],[69.15228,41.31998],[69.15209,41.31975],[69.15191,41.31946],[69.1519,41.31926],[69.1518,41.31895],[69.15154,41.31868],[69.15114,41.31812],[69.15065,41.31738],[69.15035,41.31693],[69.15011,41.31643],[69.14983,41.31614],[69.14977,41.31586],[69.14974,41.31566],[69.14954,41.31547],[69.14927,41.31536],[69.14905,41.31524],[69.14885,41.31507],[69.14851,41.31478],[69.14833,41.31455],[69.14834,41.31415],[69.14834,41.31393],[69.14829,41.31382],[69.14826,41.31377],[69.14817,41.3137],[69.14809,41.31369],[69.14792,41.31344],[69.14785,41.31336],[69.14778,41.3133],[69.14767,41.31323],[69.14764,41.31318],[69.14754,41.31312],[69.14747,41.31314],[69.14747,41.31319],[69.14741,41.31323],[69.14728,41.31324],[69.14712,41.3136],[69.14698,41.31373],[69.14674,41.31374],[69.14663,41.31366],[69.14659,41.31355],[69.14664,41.3134],[69.1469,41.31319],[69.14706,41.31299],[69.1474,41.31241],[69.14751,41.31206],[69.14751,41.31189],[69.14762,41.31179],[69.14772,41.31173],[69.14793,41.31178],[69.14805,41.31177],[69.1481,41.3117],[69.14815,41.31163],[69.14808,41.31135],[69.14794,41.31128],[69.14763,41.31116],[69.1474,41.31082],[69.14729,41.31035],[69.14733,41.31008],[69.14758,41.30995],[69.14771,41.30995],[69.14788,41.30997],[69.14805,41.30996],[69.14828,41.30997],[69.14839,41.30994],[69.14847,41.30983],[69.14846,41.30963],[69.1485,41.30938],[69.14866,41.30915],[69.14873,41.30888],[69.14897,41.30849],[69.14909,41.30816],[69.14889,41.30758],[69.14891,41.30738],[69.14893,41.30715],[69.14888,41.30709],[69.14879,41.30703],[69.14873,41.30693],[69.14869,41.30683],[69.14868,41.30671],[69.1487,41.30657],[69.14878,41.30623],[69.14875,41.30592],[69.14871,41.30569],[69.14868,41.30558],[69.1485,41.30511],[69.14793,41.3043],[69.14758,41.30406],[69.14724,41.30388],[69.1468,41.30389],[69.1465,41.3038],[69.14609,41.30317],[69.14598,41.30302],[69.14581,41.30291],[69.14551,41.30284],[69.14533,41.30277],[69.14495,41.30216],[69.14485,41.30201],[69.14468,41.30173],[69.14472,41.30144],[69.14496,41.30115],[69.14498,41.30097],[69.1449,41.30064],[69.14435,41.30028],[69.14397,41.30018],[69.14375,41.30019],[69.14338,41.30015],[69.14319,41.30009],[69.14304,41.29997],[69.1429,41.29984],[69.14287,41.29967],[69.14292,41.29951],[69.14305,41.29926],[69.143,41.29902],[69.14289,41.2988],[69.14271,41.2987],[69.1425,41.29863],[69.14223,41.29844],[69.14199,41.29829],[69.14185,41.29806],[69.14175,41.29778],[69.14157,41.29749],[69.14153,41.29734],[69.14141,41.29713],[69.1413,41.29704],[69.14125,41.29696],[69.14121,41.29685],[69.14113,41.29676],[69.14101,41.29671],[69.14093,41.29667],[69.14085,41.29665],[69.14039,41.29665],[69.1402,41.29654],[69.14008,41.29639],[69.14016,41.29618],[69.1402,41.29601],[69.14019,41.29595],[69.14014,41.29589],[69.13996,41.29581],[69.13987,41.29576],[69.13981,41.29567],[69.13971,41.29545],[69.13958,41.29534],[69.13944,41.29523],[69.13929,41.29516],[69.13915,41.29513],[69.13862,41.29501],[69.13845,41.29493],[69.13839,41.29471],[69.13839,41.29448],[69.1385,41.2943],[69.13869,41.29411],[69.13877,41.29393],[69.13872,41.29375],[69.1386,41.2935],[69.13851,41.29313],[69.13843,41.29268],[69.13826,41.29241],[69.13746,41.29197],[69.13692,41.29169],[69.13675,41.29154],[69.13668,41.29142],[69.1365,41.29118],[69.1362,41.29092],[69.13605,41.29084],[69.1358,41.29085],[69.13553,41.29085],[69.13521,41.29077],[69.13507,41.29067],[69.135,41.29048],[69.13489,41.29018],[69.13456,41.28996],[69.1342,41.28986],[69.13398,41.28984],[69.13377,41.28977],[69.13372,41.28967],[69.13376,41.28953],[69.13388,41.28937],[69.13407,41.28916],[69.13411,41.28908],[69.13412,41.28898],[69.13406,41.28883],[69.13399,41.28875],[69.13388,41.2887],[69.13372,41.28867],[69.13354,41.28868],[69.13338,41.28868],[69.13321,41.28863],[69.13287,41.28846],[69.13241,41.28819],[69.13212,41.288],[69.132,41.28777],[69.13192,41.28762],[69.13195,41.28743],[69.13242,41.2869],[69.13274,41.28648],[69.13311,41.28603],[69.13351,41.28555],[69.13398,41.28497],[69.13441,41.28449],[69.13471,41.28435],[69.13493,41.28412],[69.13496,41.28383],[69.1349,41.28354],[69.13455,41.28323],[69.13438,41.2829],[69.13427,41.28266],[69.13424,41.28244],[69.13441,41.28209],[69.1343,41.28169],[69.13424,41.28138],[69.13406,41.28111],[69.13375,41.2809],[69.13339,41.28076],[69.13308,41.28051],[69.13292,41.28027],[69.13295,41.28007],[69.13332,41.27935],[69.13346,41.27913],[69.13349,41.279],[69.13346,41.27892],[69.13336,41.27887],[69.13324,41.27884],[69.13304,41.27881],[69.13261,41.27896],[69.13217,41.27907],[69.13184,41.27903],[69.13155,41.27895],[69.13133,41.27873],[69.13122,41.27856],[69.13108,41.27843],[69.13102,41.27831],[69.13087,41.27811],[69.13069,41.2778],[69.13068,41.27759],[69.1306,41.27738],[69.1304,41.27719],[69.13001,41.27688],[69.12959,41.27655],[69.12899,41.27624],[69.12879,41.27609],[69.12854,41.27573],[69.12843,41.27555],[69.12833,41.27534],[69.12838,41.2751],[69.12835,41.27453],[69.12828,41.27433],[69.12811,41.27405],[69.12768,41.27378],[69.12745,41.27363],[69.12723,41.27343],[69.12684,41.27292],[69.1264,41.27265],[69.12569,41.27216],[69.12558,41.27186],[69.12558,41.27168],[69.12564,41.27155],[69.12568,41.27116],[69.12573,41.27083],[69.12562,41.27059],[69.1255,41.2703],[69.1253,41.27009],[69.12506,41.27001],[69.12474,41.27002],[69.12417,41.27006],[69.12361,41.27006],[69.12309,41.26999],[69.1229,41.26994],[69.12279,41.26982],[69.12278,41.26959],[69.12287,41.26917],[69.12291,41.26856],[69.12281,41.26793],[69.12248,41.26744],[69.12218,41.26717],[69.12197,41.26678],[69.12191,41.26652],[69.1218,41.26626],[69.12232,41.26607],[69.12258,41.26607],[69.12261,41.26646],[69.12286,41.26686],[69.12315,41.26714],[69.12362,41.26727],[69.12411,41.26726],[69.12518,41.26685],[69.12595,41.26721],[69.12632,41.26741],[69.12838,41.26813],[69.13022,41.26863],[69.13149,41.269],[69.13187,41.2693],[69.13267,41.27011],[69.13366,41.27103],[69.13473,41.27187],[69.13526,41.27232],[69.1361,41.27262],[69.13712,41.27308],[69.13743,41.27342],[69.13889,41.27456],[69.13988,41.27525],[69.14041,41.27587],[69.14076,41.27647],[69.14093,41.27696],[69.14088,41.27732],[69.14087,41.27764],[69.14102,41.27786],[69.14139,41.27782],[69.14188,41.27796],[69.14316,41.27865],[69.1436,41.27908],[69.14425,41.2798],[69.14482,41.28048],[69.14529,41.28058],[69.14557,41.28072],[69.14576,41.28092],[69.14653,41.28122],[69.14695,41.28122],[69.14755,41.28096],[69.14749,41.28064],[69.147,41.27916],[69.1467,41.27822],[69.14657,41.27773],[69.14655,41.27764],[69.14651,41.27733],[69.14646,41.27658],[69.14646,41.27614],[69.14652,41.27511],[69.14652,41.27507],[69.14661,41.27343],[69.14662,41.27322],[69.14664,41.27285],[69.14664,41.27274],[69.14666,41.27242],[69.14667,41.27229],[69.14669,41.272],[69.14675,41.2708],[69.14679,41.26986],[69.1468,41.26978],[69.1469,41.26807],[69.14693,41.26755],[69.147,41.26627],[69.14707,41.26513],[69.1471,41.26485],[69.14715,41.26457],[69.14722,41.26419],[69.14729,41.26396],[69.14736,41.26373],[69.14744,41.2635],[69.14752,41.26327],[69.1477,41.26284],[69.14788,41.26247],[69.14812,41.26206],[69.14838,41.26166],[69.14857,41.26139],[69.14877,41.26114],[69.14883,41.26106],[69.14889,41.26098],[69.14897,41.26089],[69.14899,41.26087],[69.14925,41.26059],[69.14934,41.26049],[69.14959,41.26023],[69.14982,41.26002],[69.15001,41.25985],[69.15047,41.25947],[69.15158,41.25865],[69.15223,41.25816],[69.1529,41.25767],[69.15378,41.25704],[69.15385,41.25698],[69.15526,41.25604],[69.15655,41.25525],[69.15658,41.25523],[69.15668,41.25518],[69.15677,41.25513],[69.15691,41.25505],[69.15705,41.25498],[69.15733,41.25482],[69.15742,41.25477],[69.15756,41.2547],[69.15805,41.25441],[69.15985,41.25334],[69.16064,41.25284],[69.16088,41.25268],[69.1614,41.25231],[69.16201,41.2518],[69.16255,41.25127],[69.16308,41.25071],[69.16334,41.25041],[69.16349,41.25021],[69.16371,41.24984],[69.16391,41.24948],[69.1642,41.24894],[69.16426,41.2488],[69.16442,41.24835],[69.16529,41.24572],[69.16679,41.24116],[69.16707,41.24031],[69.16679,41.23984],[69.1667,41.23963],[69.16668,41.2396],[69.16666,41.23957],[69.16664,41.23953],[69.16661,41.2395],[69.16657,41.23945],[69.16654,41.23941],[69.16649,41.23936],[69.16644,41.23931],[69.16604,41.23894],[69.16598,41.23887],[69.16592,41.2388],[69.16586,41.23872],[69.16581,41.23865],[69.16576,41.23857],[69.16573,41.23849],[69.1657,41.2384],[69.16568,41.23831],[69.16566,41.23823],[69.16565,41.23815],[69.16564,41.23801],[69.16563,41.23792],[69.16559,41.23737],[69.16556,41.23698],[69.16554,41.23688],[69.1655,41.23679],[69.16546,41.2367],[69.16542,41.23661],[69.16645,41.2355],[69.16675,41.23542],[69.16693,41.23538],[69.16747,41.23529],[69.16792,41.23521],[69.16813,41.23517],[69.16835,41.23511],[69.16848,41.23506],[69.16854,41.23503],[69.16858,41.23501],[69.16884,41.23486],[69.16916,41.23463],[69.16935,41.23453],[69.16998,41.23376],[69.17061,41.233],[69.17071,41.23287],[69.17079,41.23277],[69.17139,41.23204],[69.17205,41.23124],[69.17237,41.23084],[69.17253,41.23064],[69.17267,41.23048],[69.17359,41.22919],[69.17411,41.22832],[69.17383,41.2271],[69.17289,41.22674],[69.17221,41.22636],[69.17228,41.22625],[69.17194,41.22604],[69.17254,41.22546],[69.1719,41.2251],[69.17227,41.22497],[69.17313,41.22399],[69.17429,41.22274],[69.17447,41.22257],[69.17404,41.22176],[69.17395,41.22167],[69.1755,41.22133],[69.17456,41.21881],[69.17466,41.21874],[69.17475,41.21868],[69.17639,41.21765],[69.17779,41.21906],[69.1797,41.21807],[69.1806,41.21907],[69.18373,41.21695],[69.18382,41.21682],[69.18379,41.21664],[69.18154,41.21455],[69.18489,41.21222],[69.18513,41.21197],[69.1853,41.21173],[69.18533,41.21154],[69.18524,41.21037],[69.18326,41.20831],[69.18323,41.20731],[69.18309,41.20702],[69.18238,41.2067],[69.18287,41.20595],[69.18556,41.20499],[69.18585,41.20486],[69.18545,41.20388],[69.18509,41.20271],[69.18495,41.20184],[69.18498,41.20068],[69.18526,41.1986],[69.18639,41.1962],[69.18766,41.19469],[69.18967,41.19247],[69.19302,41.18877],[69.199,41.18205],[69.20003,41.18089],[69.20101,41.17981],[69.20188,41.17887],[69.20296,41.17784],[69.20407,41.17696],[69.2049,41.17638],[69.20549,41.176],[69.20618,41.1756],[69.20708,41.17513],[69.20763,41.17487],[69.20798,41.17472],[69.20892,41.17438],[69.2098,41.17408],[69.21166,41.17348],[69.22217,41.17017],[69.22855,41.16813],[69.23094,41.16729],[69.23096,41.16727],[69.23097,41.16725],[69.23099,41.16723],[69.23101,41.16721],[69.23104,41.1672],[69.23107,41.16718],[69.2311,41.16717],[69.23113,41.16716],[69.23145,41.1671],[69.23459,41.16637],[69.23829,41.16568],[69.2468,41.16593],[69.25668,41.16478],[69.25703,41.16473],[69.25714,41.16473],[69.25723,41.16476],[69.25729,41.1648],[69.25738,41.16493],[69.25772,41.16489],[69.25876,41.16477],[69.25878,41.16469],[69.25883,41.16462],[69.25891,41.16455],[69.25903,41.16451],[69.2592,41.16447],[69.26163,41.16432],[69.26296,41.16419],[69.26335,41.16429],[69.26892,41.16368],[69.26902,41.16361],[69.27026,41.16358],[69.27145,41.16355],[69.27294,41.16358],[69.27442,41.1637],[69.27487,41.16375],[69.27556,41.16385],[69.27683,41.16408],[69.27769,41.16426],[69.27866,41.16454],[69.27954,41.16485],[69.28112,41.16545],[69.28247,41.16612],[69.28678,41.16883],[69.29222,41.17241],[69.29561,41.17456],[69.29888,41.17619],[69.30647,41.18193],[69.30735,41.18262],[69.31337,41.18741]],[[69.4411,41.4154],[69.44093,41.41462],[69.44084,41.41303],[69.44089,41.41272],[69.44102,41.41183],[69.44142,41.41061],[69.44203,41.40945],[69.44274,41.40853],[69.44363,41.40768],[69.44418,41.40717],[69.44355,41.40683],[69.44424,41.40606],[69.44474,41.4055],[69.44497,41.40541],[69.44592,41.40394],[69.44601,41.40385],[69.44847,41.40208],[69.44895,41.40109],[69.45009,41.40136],[69.45015,41.40026],[69.45086,41.40047],[69.45124,41.40047],[69.45223,41.4003],[69.45307,41.40062],[69.45604,41.4016],[69.45721,41.40113],[69.45803,41.40138],[69.45965,41.40238],[69.46163,41.40326],[69.46338,41.40459],[69.46385,41.4048],[69.46575,41.40509],[69.46929,41.40645],[69.46954,41.40662],[69.46945,41.40675],[69.46912,41.40668],[69.46882,41.40676],[69.46863,41.40705],[69.46783,41.40705],[69.46695,41.40784],[69.46641,41.4076],[69.46439,41.40935],[69.46995,41.41261],[69.46932,41.41343],[69.46838,41.41429],[69.46453,41.4119],[69.46482,41.41406],[69.46446,41.41575],[69.4637,41.41702],[69.46295,41.41816],[69.46199,41.41898],[69.46198,41.41909],[69.461,41.41989],[69.45988,41.42064],[69.45822,41.4215],[69.45783,41.42162],[69.45761,41.42169],[69.45541,41.42223],[69.45361,41.42248],[69.45241,41.4225],[69.45101,41.42239],[69.45027,41.42249],[69.44989,41.4224],[69.44903,41.42198],[69.44836,41.42186],[69.4471,41.42141],[69.44668,41.42122],[69.44589,41.42086],[69.44483,41.42018],[69.44362,41.41928],[69.44229,41.41786],[69.4419,41.4173],[69.44186,41.41711],[69.4414,41.41621],[69.4411,41.4154]]]}}]}
