{"type":"FeatureCollection","features":[{"type":"Feature","properties":{"name":null,"name_ru":"Куйлюк Вещевой","district_name":"Bektemir district"},"geometry":{"type":"Point","coordinates":[69.33321,41.23742]}},{"type":"Feature","properties":{"name":"Qo'yliq qurilish bozori","name_ru":"Строительный Рынок Куйлюк","district_name":"Bektemir district"},"geometry":{"type":"Point","coordinates":[69.335,41.23815]}},{"type":"Feature","properties":{"name":"Aviosozlar Bozori (Kadisheva)","name_ru":"Рынок Авиосозлар (Кадышева)","district_name":"Yashnabad district"},"geometry":{"type":"Point","coordinates":[69.34888,41.28544]}},{"type":"Feature","properties":{"name":"Mirobod bozori","name_ru":"Мирабадский Рынок \"Госпитальный \"","district_name":"Mirabad district"},"geometry":{"type":"Point","coordinates":[69.27496,41.29098]}},{"type":"Feature","properties":{"name":"Сторительный рынок Домбрабад","name_ru":"Сторительный рынок Домбрабад","district_name":"Chilanzar district"},"geometry":{"type":"Point","coordinates":[69.20057,41.25371]}},{"type":"Feature","properties":{"name":"Oloy Bozori","name_ru":"Алайский базар","district_name":"Yunusabad district"},"geometry":{"type":"Point","coordinates":[69.28507,41.31876]}},{"type":"Feature","properties":{"name":"Fleshka texno-bozori (Malika)","name_ru":"Техно-Центр \"Флэшка\" (Малика)","district_name":"Shaykhantakhur district"},"geometry":{"type":"Point","coordinates":[69.27146,41.33812]}},{"type":"Feature","properties":{"name":"Katartal bazar (Optoviy)","name_ru":"\"Катартал\" Оптовый рынок","district_name":"Chilanzar district"},"geometry":{"type":"Point","coordinates":[69.21181,41.29338]}},{"type":"Feature","properties":{"name":"Shirin Bozori","name_ru":"рынок Ширин","district_name":"Mirzo Ulugbek district"},"geometry":{"type":"Point","coordinates":[69.38459,41.35459]}},{"type":"Feature","properties":{"name":"Qo'yliq oziq-ovqat bozori","name_ru":"Куйлюкский базар","district_name":"Bektemir district"},"geometry":{"type":"Point","coordinates":[69.32708,41.23516]}},{"type":"Feature","properties":{"name":"Yangi Qo'yliq","name_ru":"Янги Куйлик","district_name":"Sergeli district"},"geometry":{"type":"Point","coordinates":[69.30138,41.24913]}},{"type":"Feature","properties":{"name":"DEN","name_ru":null,"district_name":"Sergeli district"},"geometry":{"type":"Point","coordinates":[69.30115,41.24987]}},{"type":"Feature","properties":{"name":"Янгиабад (барахолка)","name_ru":"Янгиабад (барахолка)","district_name":"Yashnabad district"},"geometry":{"type":"Point","coordinates":[69.35255,41.25836]}},{"type":"Feature","properties":{"name":"Торговый Центр - Сергели","name_ru":"Корзинка Уз Спутник","district_name":"Yangikhayot district"},"geometry":{"type":"Point","coordinates":[69.21094,41.19948]}},{"type":"Feature","properties":{"name":"базарчик","name_ru":null,"district_name":"Bektemir district"},"geometry":{"type":"Point","coordinates":[69.37271,41.24946]}},{"type":"Feature","properties":{"name":"Yunusobod dehqon bozori","name_ru":"Дехканский рынок \"Юнусабад\"","district_name":"Yunusabad district"},"geometry":{"type":"Point","coordinates":[69.29092,41.36464]}},{"type":"Feature","properties":{"name":"Ахмад-Дониш - вещевой","name_ru":"Ахмад-Дониш - вещевой","district_name":"Yunusabad district"},"geometry":{"type":"Point","coordinates":[69.29474,41.36957]}},{"type":"Feature","properties":{"name":"Базарчик","name_ru":"Базарчик","district_name":"Chilanzar district"},"geometry":{"type":"Point","coordinates":[69.2217,41.2825]}},{"type":"Feature","properties":{"name":"Базарчик","name_ru":null,"district_name":"Almazar district"},"geometry":{"type":"Point","coordinates":[69.18462,41.36395]}},{"type":"Feature","properties":{"name":"Рынок Ибн-Сино","name_ru":"рынок Ибн Сино","district_name":"Shaykhantakhur district"},"geometry":{"type":"Point","coordinates":[69.17365,41.33539]}},{"type":"Feature","properties":{"name":"оптовый рынок Сергели","name_ru":"оптовый рынок Сергели","district_name":"Sergeli district"},"geometry":{"type":"Point","coordinates":[69.27295,41.21258]}},{"type":"Feature","properties":{"name":"Строительный рынок Чукурсай","name_ru":"Строительный рынок Чукурсай","district_name":"Almazar district"},"geometry":{"type":"Point","coordinates":[69.24637,41.35514]}},{"type":"Feature","properties":{"name":"TansiqBoyevBozor","name_ru":"Тансыкбаева базар","district_name":"Almazar district"},"geometry":{"type":"Point","coordinates":[69.20392,41.36775]}},{"type":"Feature","properties":{"name":"Аския базар","name_ru":"Аския базар","district_name":"Yakkasaray district"},"geometry":{"type":"Point","coordinates":[69.25058,41.2845]}},{"type":"Feature","properties":{"name":"\"Урикзар продуктовый рынок","name_ru":"\"Урикзар\" продуктовый рынок","district_name":"Uchtepa district"},"geometry":{"type":"Point","coordinates":[69.1512,41.28542]}},{"type":"Feature","properties":{"name":"\"Урикзар\" вещевой рынок","name_ru":"\"Урикзар\" вещевой рынок","district_name":"Uchtepa district"},"geometry":{"type":"Point","coordinates":[69.15195,41.28649]}},{"type":"Feature","properties":{"name":"\"Урикзар строительный рынок","name_ru":"\"Урикзар\" строительный рынок","district_name":"Uchtepa district"},"geometry":{"type":"Point","coordinates":[69.15118,41.28792]}},{"type":"Feature","properties":{"name":"Bekto'pi","name_ru":"Бектопи строительный рынок","district_name":"Chilanzar district"},"geometry":{"type":"Point","coordinates":[69.16287,41.25288]}},{"type":"Feature","properties":{"name":"Птичий рынок","name_ru":null,"district_name":"Almazar district"},"geometry":{"type":"Point","coordinates":[69.21539,41.36217]}},{"type":"Feature","properties":{"name":null,"name_ru":null,"district_name":"Almazar district"},"geometry":{"type":"Point","coordinates":[69.21263,41.35187]}},{"type":"Feature","properties":{"name":"Навруз рынок","name_ru":"Навруз рынок","district_name":"Mirzo Ulugbek district"},"geometry":{"type":"Point","coordinates":[69.35576,41.33691]}},{"type":"Feature","properties":{"name":"Тахтабазар","name_ru":"Деревянный рынок","district_name":"Uchtepa district"},"geometry":{"type":"Point","coordinates":[69.14957,41.27967]}},{"type":"Feature","properties":{"name":"Стройматериалы","name_ru":"Стройматериалы","district_name":"Uchtepa district"},"geometry":{"type":"Point","coordinates":[69.14854,41.27656]}},{"type":"Feature","properties":{"name":"Стройматериалы","name_ru":"Стройматериалы","district_name":"Uchtepa district"},"geometry":{"type":"Point","coordinates":[69.15335,41.28138]}},{"type":"Feature","properties":{"name":"Рынок Сергели","name_ru":"Рынок Сергели","district_name":"Sergeli district"},"geometry":{"type":"Point","coordinates":[69.21807,41.22745]}},{"type":"Feature","properties":{"name":"Chorsu bozor","name_ru":"Чорсу базар","district_name":"Shaykhantakhur district"},"geometry":{"type":"Point","coordinates":[69.23653,41.32617]}},{"type":"Feature","properties":{"name":"Чўпан базар","name_ru":null,"district_name":"Shaykhantakhur district"},"geometry":{"type":"Point","coordinates":[69.23463,41.32431]}},{"type":"Feature","properties":{"name":"Chilonzor buyum savdo kompleksi","name_ru":"Чиланзарский вещевой рынок (Ипподром)","district_name":"Chilanzar district"},"geometry":{"type":"Point","coordinates":[69.16993,41.24504]}},{"type":"Feature","properties":{"name":"Beshyogʻoch","name_ru":"Бешагач","district_name":"Chilanzar district"},"geometry":{"type":"Point","coordinates":[69.24877,41.30391]}},{"type":"Feature","properties":{"name":"Рынок кованных издлий","name_ru":null,"district_name":"Uchtepa district"},"geometry":{"type":"Point","coordinates":[69.1509,41.31094]}},{"type":"Feature","properties":{"name":"Ширин базар","name_ru":null,"district_name":"Mirzo Ulugbek district"},"geometry":{"type":"Point","coordinates":[69.3447,41.34702]}},{"type":"Feature","properties":{"name":"Базарчик Рохат 6:00-20:00","name_ru":"Базарчик Рохат","district_name":"Yashnabad district"},"geometry":{"type":"Point","coordinates":[69.36422,41.26487]}},{"type":"Feature","properties":{"name":"Чиланзар базар","name_ru":"Чиланзар базар","district_name":"Chilanzar district"},"geometry":{"type":"Point","coordinates":[69.20314,41.27719]}},{"type":"Feature","properties":{"name":"Yangiobod bozori","name_ru":"Янгиобад дыхканский базар","district_name":"Yashnabad district"},"geometry":{"type":"Point","coordinates":[69.35876,41.29134]}},{"type":"Feature","properties":{"name":null,"name_ru":null,"district_name":"Mirzo Ulugbek district"},"geometry":{"type":"Point","coordinates":[69.38603,41.35307]}},{"type":"Feature","properties":{"name":"Bo'z dehqon bozori","name_ru":"Буз Базар","district_name":"Mirzo Ulugbek district"},"geometry":{"type":"Point","coordinates":[69.32583,41.3287]}},{"type":"Feature","properties":{"name":null,"name_ru":null,"district_name":"Bektemir district"},"geometry":{"type":"Point","coordinates":[69.3434,41.24421]}},{"type":"Feature","properties":{"name":"Базарчик","name_ru":null,"district_name":"Mirzo Ulugbek district"},"geometry":{"type":"Point","coordinates":[69.3684,41.33465]}},{"type":"Feature","properties":{"name":"Строительный рынок Джами","name_ru":"Строительный рынок Джами","district_name":"Almazar district"},"geometry":{"type":"Point","coordinates":[69.25322,41.35576]}},{"type":"Feature","properties":{"name":"Базарчик Чигатай","name_ru":"Базарчик Чигатай","district_name":"Almazar district"},"geometry":{"type":"Point","coordinates":[69.22219,41.33854]}},{"type":"Feature","properties":{"name":"Базарчик","name_ru":"Базарчик","district_name":"Chilanzar district"},"geometry":{"type":"Point","coordinates":[69.20678,41.26376]}},{"type":"Feature","properties":{"name":"Parkent Bozori","name_ru":"Паркентский рынок","district_name":"Yashnabad district"},"geometry":{"type":"Point","coordinates":[69.32285,41.31458]}},{"type":"Feature","properties":{"name":"Navro'z bozori","name_ru":"Навруз базар","district_name":"Mirzo Ulugbek district"},"geometry":{"type":"Point","coordinates":[69.38674,41.35449]}},{"type":"Feature","properties":{"name":"Avayhon shaxobchasi","name_ru":"Авайхан","district_name":"Mirzo Ulugbek district"},"geometry":{"type":"Point","coordinates":[69.35429,41.32042]}},{"type":"Feature","properties":{"name":null,"name_ru":"Базарчик","district_name":"Yangikhayot district"},"geometry":{"type":"Point","coordinates":[69.21679,41.20423]}},{"type":"Feature","properties":{"name":"Строительный рынок","name_ru":null,"district_name":"Yunusabad district"},"geometry":{"type":"Point","coordinates":[69.28932,41.36659]}},{"type":"Feature","properties":{"name":"Sulton Grup","name_ru":null,"district_name":"Yunusabad district"},"geometry":{"type":"Point","coordinates":[69.26759,41.34635]}},{"type":"Feature","properties":{"name":"Назарбек. Металлический рынок","name_ru":null,"district_name":"Uchtepa district"},"geometry":{"type":"Point","coordinates":[69.15038,41.3111]}},{"type":"Feature","properties":{"name":"Базарчик","name_ru":null,"district_name":"Chilanzar district"},"geometry":{"type":"Point","coordinates":[69.20533,41.28552]}},{"type":"Feature","properties":{"name":"Food City bozori","name_ru":"рынок Food City","district_name":"Bektemir district"},"geometry":{"type":"Point","coordinates":[69.32138,41.20492]}},{"type":"Feature","properties":{"name":null,"name_ru":null,"district_name":"Yashnabad district"},"geometry":{"type":"Point","coordinates":[69.35012,41.28428]}},{"type":"Feature","properties":{"name":"Ярмарка","name_ru":null,"district_name":"Yashnabad district"},"geometry":{"type":"Point","coordinates":[69.34764,41.28586]}},{"type":"Feature","properties":{"name":"Farg'ona bozori (guruch)","name_ru":"Ферганский базар (Рисовый)","district_name":"Mirabad district"},"geometry":{"type":"Point","coordinates":[69.30957,41.27345]}},{"type":"Feature","properties":{"name":"Рынок металла","name_ru":null,"district_name":"Uchtepa district"},"geometry":{"type":"Point","coordinates":[69.15179,41.31179]}},{"type":"Feature","properties":{"name":"Юнусабадский оптовый рынок на реконструкции","name_ru":"Юнусабадский оптовый рынок на реконструкции","district_name":"Yunusabad district"},"geometry":{"type":"Point","coordinates":[69.33386,41.35563]}},{"type":"Feature","properties":{"name":"Базарчик","name_ru":"Базарчик","district_name":"Chilanzar district"},"geometry":{"type":"Point","coordinates":[69.18337,41.27262]}},{"type":"Feature","properties":{"name":"Базарчик","name_ru":null,"district_name":"Almazar district"},"geometry":{"type":"Point","coordinates":[69.2369,41.35659]}},{"type":"Feature","properties":{"name":"Фархадский базар","name_ru":null,"district_name":"Uchtepa district"},"geometry":{"type":"Point","coordinates":[69.18895,41.28527]}},{"type":"Feature","properties":{"name":"Строительный рынок Джами","name_ru":"Строительный рынок Джами","district_name":"Almazar district"},"geometry":{"type":"Point","coordinates":[69.24943,41.35566]}},{"type":"Feature","properties":{"name":"Базарчик","name_ru":null,"district_name":"Sergeli district"},"geometry":{"type":"Point","coordinates":[69.28133,41.26892]}},{"type":"Feature","properties":{"name":"Базар","name_ru":"Базарчик","district_name":"Yashnabad district"},"geometry":{"type":"Point","coordinates":[69.3428,41.25454]}},{"type":"Feature","properties":{"name":"Водник рынок","name_ru":"Водник рынок","district_name":"Bektemir district"},"geometry":{"type":"Point","coordinates":[69.37547,41.25482]}},{"type":"Feature","properties":{"name":"Qoʻyliq dehqon bozori","name_ru":"Куйлюкский продуктовый Рынок","district_name":"Bektemir district"},"geometry":{"type":"Point","coordinates":[69.32955,41.23648]}},{"type":"Feature","properties":{"name":"Оптовый металл","name_ru":null,"district_name":"Uchtepa district"},"geometry":{"type":"Point","coordinates":[69.14928,41.31112]}},{"type":"Feature","properties":{"name":"Урикзор","name_ru":"Урикзар","district_name":"Uchtepa district"},"geometry":{"type":"Point","coordinates":[69.15175,41.28666]}},{"type":"Feature","properties":{"name":"Цветочный базар","name_ru":"Цветочный базар","district_name":"Yakkasaray district"},"geometry":{"type":"Point","coordinates":[69.25634,41.28978]}},{"type":"Feature","properties":{"name":"Market","name_ru":null,"district_name":"Chilanzar district"},"geometry":{"type":"Point","coordinates":[69.1999,41.28863]}},{"type":"Feature","properties":{"name":"Uzum","name_ru":null,"district_name":"Uchtepa district"},"geometry":{"type":"Point","coordinates":[69.17178,41.28595]}},{"type":"Feature","properties":{"name":"Grain sector","name_ru":null,"district_name":"Shaykhantakhur district"},"geometry":{"type":"Point","coordinates":[69.23716,41.32796]}},{"type":"Feature","properties":{"name":null,"name_ru":null,"district_name":"Yunusabad district"},"geometry":{"type":"Point","coordinates":[69.34041,41.35755]}},{"type":"Feature","properties":{"name":"Mirabad Bazaar","name_ru":null,"district_name":"Mirabad district"},"geometry":{"type":"Point","coordinates":[69.27467,41.29108]}},{"type":"Feature","properties":{"name":"Ippodrom Bazaar","name_ru":null,"district_name":"Chilanzar district"},"geometry":{"type":"Point","coordinates":[69.17098,41.24523]}},{"type":"Feature","properties":{"name":"Uzum","name_ru":null,"district_name":"Yashnabad district"},"geometry":{"type":"Point","coordinates":[69.36684,41.2972]}}]}
