{"type":"FeatureCollection","features":[{"type":"Feature","properties":{"osm_id":563751850,"name":"Novza","name_en":"Novza (Hamza)","district_name":"Chilanzar district"},"geometry":{"type":"Point","coordinates":[69.22362,41.29187]}},{"type":"Feature","properties":{"osm_id":568770460,"name":"Xalqlar doʻstligi","name_en":"Drujba Narodov","district_name":"Shaykhantakhur district"},"geometry":{"type":"Point","coordinates":[69.2431,41.3119]}},{"type":"Feature","properties":{"osm_id":852873027,"name":"Mirzo Ulugʻbek","name_en":"Mirzo Ulugbek (50 years USSR)","district_name":"Chilanzar district"},"geometry":{"type":"Point","coordinates":[69.21258,41.28203]}},{"type":"Feature","properties":{"osm_id":854338154,"name":"Chilonzor","name_en":"Chilanzar","district_name":"Chilanzar district"},"geometry":{"type":"Point","coordinates":[69.20497,41.27436]}},{"type":"Feature","properties":{"osm_id":1252201486,"name":"Milliy bogʻ","name_en":"Milliy Bog (Komsomolskaya)","district_name":"Chilanzar district"},"geometry":{"type":"Point","coordinates":[69.23567,41.30339]}},{"type":"Feature","properties":{"osm_id":1539317100,"name":"G'afur G'ulom","name_en":"Gafur Gulyam","district_name":"Almazar district"},"geometry":{"type":"Point","coordinates":[69.24583,41.32788]}},{"type":"Feature","properties":{"osm_id":1577932485,"name":"Chorsu","name_en":"Chorsu","district_name":"Shaykhantakhur district"},"geometry":{"type":"Point","coordinates":[69.23682,41.32586]}},{"type":"Feature","properties":{"osm_id":1579080941,"name":"Oybek","name_en":"Aybek","district_name":"Mirabad district"},"geometry":{"type":"Point","coordinates":[69.27405,41.29801]}},{"type":"Feature","properties":{"osm_id":1579080943,"name":"Mingoʻrik","name_en":"Ming Urik","district_name":"Mirabad district"},"geometry":{"type":"Point","coordinates":[69.27441,41.29966]}},{"type":"Feature","properties":{"osm_id":1582352956,"name":"Toshkent","name_en":"Tashkent","district_name":"Mirabad district"},"geometry":{"type":"Point","coordinates":[69.28772,41.29329]}},{"type":"Feature","properties":{"osm_id":1631211328,"name":"Beruniy","name_en":"Beruniy","district_name":"Shaykhantakhur district"},"geometry":{"type":"Point","coordinates":[69.2062,41.34462]}},{"type":"Feature","properties":{"osm_id":1633822600,"name":"Shahriston","name_en":"Shahristan","district_name":"Yunusabad district"},"geometry":{"type":"Point","coordinates":[69.28811,41.35312]}},{"type":"Feature","properties":{"osm_id":1765133546,"name":"Mashinasozlar","name_en":"Mashinasozlar (Tashselmash)","district_name":"Yashnabad district"},"geometry":{"type":"Point","coordinates":[69.30513,41.29898]}},{"type":"Feature","properties":{"osm_id":1770328496,"name":"Tinchlik","name_en":"Tinchlik","district_name":"Shaykhantakhur district"},"geometry":{"type":"Point","coordinates":[69.21912,41.3323]}},{"type":"Feature","properties":{"osm_id":1772575475,"name":"Abdulla Qodiriy","name_en":"Abdulla Qodirii","district_name":"Yunusabad district"},"geometry":{"type":"Point","coordinates":[69.28176,41.32019]}},{"type":"Feature","properties":{"osm_id":1772595534,"name":"Minor","name_en":"Minor","district_name":"Yunusabad district"},"geometry":{"type":"Point","coordinates":[69.28342,41.32689]}},{"type":"Feature","properties":{"osm_id":1775804030,"name":"Bodomzor","name_en":"Badamzar","district_name":"Yunusabad district"},"geometry":{"type":"Point","coordinates":[69.28457,41.33717]}},{"type":"Feature","properties":{"osm_id":1775848270,"name":"Hamid Olimjon","name_en":"Hamid Alimjan","district_name":"Mirzo Ulugbek district"},"geometry":{"type":"Point","coordinates":[69.29574,41.31816]}},{"type":"Feature","properties":{"osm_id":1775892797,"name":"Kosmonavtlar","name_en":"Cosmonauts","district_name":"Yakkasaray district"},"geometry":{"type":"Point","coordinates":[69.26472,41.30516]}},{"type":"Feature","properties":{"osm_id":1777037919,"name":"Buyuk Ipak Yoʻli","name_en":"Buyuk Ipak Yuli (Maxim Gorky)","district_name":"Mirzo Ulugbek district"},"geometry":{"type":"Point","coordinates":[69.32856,41.32611]}},{"type":"Feature","properties":{"osm_id":1777037922,"name":"Pushkin","name_en":"Pushkin","district_name":"Mirzo Ulugbek district"},"geometry":{"type":"Point","coordinates":[69.3111,41.32195]}},{"type":"Feature","properties":{"osm_id":1777051509,"name":"Amir Temur xiyoboni","name_en":"Amir Timur Square","district_name":"Mirzo Ulugbek district"},"geometry":{"type":"Point","coordinates":[69.28327,41.31267]}},{"type":"Feature","properties":{"osm_id":1777051512,"name":"Yunus Rajabiy","name_en":"Yunus Rajabiy","district_name":"Mirzo Ulugbek district"},"geometry":{"type":"Point","coordinates":[69.28351,41.31389]}},{"type":"Feature","properties":{"osm_id":1777740153,"name":"Alisher Navoiy","name_en":"Alisher Navoiy","district_name":"Shaykhantakhur district"},"geometry":{"type":"Point","coordinates":[69.2543,41.31892]}},{"type":"Feature","properties":{"osm_id":1777740154,"name":"Paxtakor","name_en":"Pakhtakor","district_name":"Shaykhantakhur district"},"geometry":{"type":"Point","coordinates":[69.25509,41.31779]}},{"type":"Feature","properties":{"osm_id":1777744035,"name":"Oʻzbekiston","name_en":"Uzbekistan","district_name":"Shaykhantakhur district"},"geometry":{"type":"Point","coordinates":[69.25341,41.31194]}},{"type":"Feature","properties":{"osm_id":1777845992,"name":"Olmazor","name_en":"Almazar (Sabir Rakhimov)","district_name":"Chilanzar district"},"geometry":{"type":"Point","coordinates":[69.1961,41.25667]}},{"type":"Feature","properties":{"osm_id":1777856012,"name":"Do'stlik","name_en":"Dustlik (Chkalov)","district_name":"Yashnabad district"},"geometry":{"type":"Point","coordinates":[69.32224,41.29364]}},{"type":"Feature","properties":{"osm_id":1778357473,"name":"Mustaqillik maydoni","name_en":null,"district_name":"Yunusabad district"},"geometry":{"type":"Point","coordinates":[69.27106,41.31495]}},{"type":"Feature","properties":{"osm_id":6011988808,"name":"Tuzel","name_en":"Tuzel","district_name":"Yashnabad district"},"geometry":{"type":"Point","coordinates":[69.35635,41.29175]}},{"type":"Feature","properties":{"osm_id":6761195240,"name":"Yunusobod","name_en":"Yunusabad","district_name":"Yunusabad district"},"geometry":{"type":"Point","coordinates":[69.29171,41.36635]}},{"type":"Feature","properties":{"osm_id":6902085593,"name":"Yashnobod","name_en":"Ahangaron","district_name":"Yashnabad district"},"geometry":{"type":"Point","coordinates":[69.34944,41.29785]}},{"type":"Feature","properties":{"osm_id":6923918549,"name":"Texnopark","name_en":"Technopark","district_name":"Yashnabad district"},"geometry":{"type":"Point","coordinates":[69.32268,41.29453]}},{"type":"Feature","properties":{"osm_id":7597627323,"name":"Rohat","name_en":"Rakhat","district_name":"Yashnabad district"},"geometry":{"type":"Point","coordinates":[69.36505,41.26561]}},{"type":"Feature","properties":{"osm_id":7861940928,"name":"Turkiston","name_en":"Turkistan","district_name":"Yunusabad district"},"geometry":{"type":"Point","coordinates":[69.29602,41.37752]}},{"type":"Feature","properties":{"osm_id":7910174392,"name":"Yangiobod","name_en":"Yangiabad","district_name":"Yashnabad district"},"geometry":{"type":"Point","coordinates":[69.3584,41.25616]}},{"type":"Feature","properties":{"osm_id":7910174393,"name":"Qo‘yliq","name_en":"Kuylyuk","district_name":"Bektemir district"},"geometry":{"type":"Point","coordinates":[69.3275,41.23748]}},{"type":"Feature","properties":{"osm_id":8962013669,"name":"Qiyot","name_en":null,"district_name":"Sergeli district"},"geometry":{"type":"Point","coordinates":[69.30025,41.24442]}},{"type":"Feature","properties":{"osm_id":9209214732,"name":"Quruvchilar","name_en":"Kuruvchilar (Stroiteley)","district_name":"Sergeli district"},"geometry":{"type":"Point","coordinates":[69.26102,41.2218]}},{"type":"Feature","properties":{"osm_id":9972711745,"name":"Olmos","name_en":"Almas","district_name":"Yashnabad district"},"geometry":{"type":"Point","coordinates":[69.36033,41.28171]}},{"type":"Feature","properties":{"osm_id":10050570440,"name":"Xonobod","name_en":null,"district_name":"Sergeli district"},"geometry":{"type":"Point","coordinates":[69.27017,41.22969]}},{"type":"Feature","properties":{"osm_id":10537931294,"name":"Matonat","name_en":"Matonat","district_name":"Mirabad district"},"geometry":{"type":"Point","coordinates":[69.30832,41.24447]}},{"type":"Feature","properties":{"osm_id":10538244112,"name":"Choshtepa","name_en":"Chashtepa","district_name":"Yangikhayot district"},"geometry":{"type":"Point","coordinates":[69.19603,41.23825]}},{"type":"Feature","properties":{"osm_id":10538244113,"name":"O‘zgarish","name_en":"Uzgarish","district_name":"Yangikhayot district"},"geometry":{"type":"Point","coordinates":[69.20397,41.22734]}},{"type":"Feature","properties":{"osm_id":10538244119,"name":"Yangihayot","name_en":"Yangihayot","district_name":"Yangikhayot district"},"geometry":{"type":"Point","coordinates":[69.21402,41.21351]}},{"type":"Feature","properties":{"osm_id":10538244120,"name":"Chinor","name_en":"Chinara","district_name":"Yangikhayot district"},"geometry":{"type":"Point","coordinates":[69.21896,41.2067]}},{"type":"Feature","properties":{"osm_id":10538303447,"name":"Tolarik","name_en":"Talaryk","district_name":"Sergeli district"},"geometry":{"type":"Point","coordinates":[69.28496,41.24451]}},{"type":"Feature","properties":{"osm_id":10541839548,"name":"Sergeli","name_en":"Sergeli","district_name":"Yangikhayot district"},"geometry":{"type":"Point","coordinates":[69.20909,41.22023]}},{"type":"Feature","properties":{"osm_id":11218653778,"name":"Qipchok","name_en":"Kipchak","district_name":"Yangikhayot district"},"geometry":{"type":"Point","coordinates":[69.22141,41.20542]}},{"type":"Feature","properties":{"osm_id":11218653779,"name":"Turon","name_en":"Turan","district_name":"Yangikhayot district"},"geometry":{"type":"Point","coordinates":[69.23415,41.21068]}}]}
