{"type":"FeatureCollection","features":[{"type":"Feature","properties":{"station_id":"tm_chilonzor_01","station_name_current":"Olmazor","station_name_historical":"Sobir Rahimov","line":"Chilonzor line","opening_date":"1977-11-06","opening_year":1977,"date_precision":"day","opening_batch_id":"chilonzor_1977_11_06","district_name":"Chilanzar district","source_provider":"Government of Uzbekistan metro-construction directorate","source_quality":"primary","role":"display_only"},"geometry":{"type":"Point","coordinates":[69.1961045,41.2566724]}},{"type":"Feature","properties":{"station_id":"tm_chilonzor_02","station_name_current":"Chilonzor","station_name_historical":null,"line":"Chilonzor line","opening_date":"1977-11-06","opening_year":1977,"date_precision":"day","opening_batch_id":"chilonzor_1977_11_06","district_name":"Chilanzar district","source_provider":"Government of Uzbekistan metro-construction directorate","source_quality":"primary","role":"display_only"},"geometry":{"type":"Point","coordinates":[69.2049735,41.274359]}},{"type":"Feature","properties":{"station_id":"tm_chilonzor_03","station_name_current":"Mirzo Ulugʻbek","station_name_historical":null,"line":"Chilonzor line","opening_date":"1977-11-06","opening_year":1977,"date_precision":"day","opening_batch_id":"chilonzor_1977_11_06","district_name":"Chilanzar district","source_provider":"Government of Uzbekistan metro-construction directorate","source_quality":"primary","role":"display_only"},"geometry":{"type":"Point","coordinates":[69.2125834,41.2820342]}},{"type":"Feature","properties":{"station_id":"tm_chilonzor_04","station_name_current":"Novza","station_name_historical":"Hamza","line":"Chilonzor line","opening_date":"1977-11-06","opening_year":1977,"date_precision":"day","opening_batch_id":"chilonzor_1977_11_06","district_name":"Chilanzar district","source_provider":"Government of Uzbekistan metro-construction directorate","source_quality":"primary","role":"display_only"},"geometry":{"type":"Point","coordinates":[69.2236165,41.2918722]}},{"type":"Feature","properties":{"station_id":"tm_chilonzor_05","station_name_current":"Milliy bogʻ","station_name_historical":"Yoshlik","line":"Chilonzor line","opening_date":"1977-11-06","opening_year":1977,"date_precision":"day","opening_batch_id":"chilonzor_1977_11_06","district_name":"Chilanzar district","source_provider":"Government of Uzbekistan metro-construction directorate","source_quality":"primary","role":"display_only"},"geometry":{"type":"Point","coordinates":[69.2356663,41.3033944]}},{"type":"Feature","properties":{"station_id":"tm_chilonzor_06","station_name_current":"Xalqlar doʻstligi","station_name_historical":null,"line":"Chilonzor line","opening_date":"1977-11-06","opening_year":1977,"date_precision":"day","opening_batch_id":"chilonzor_1977_11_06","district_name":"Shaykhantakhur district","source_provider":"Government of Uzbekistan metro-construction directorate","source_quality":"primary","role":"display_only"},"geometry":{"type":"Point","coordinates":[69.2430959,41.3118987]}},{"type":"Feature","properties":{"station_id":"tm_chilonzor_07","station_name_current":"Paxtakor","station_name_historical":null,"line":"Chilonzor line","opening_date":"1977-11-06","opening_year":1977,"date_precision":"day","opening_batch_id":"chilonzor_1977_11_06","district_name":"Shaykhantakhur district","source_provider":"Government of Uzbekistan metro-construction directorate","source_quality":"primary","role":"display_only"},"geometry":{"type":"Point","coordinates":[69.2550882,41.3177914]}},{"type":"Feature","properties":{"station_id":"tm_chilonzor_08","station_name_current":"Mustaqillik maydoni","station_name_historical":null,"line":"Chilonzor line","opening_date":"1977-11-06","opening_year":1977,"date_precision":"day","opening_batch_id":"chilonzor_1977_11_06","district_name":"Yunusabad district","source_provider":"Government of Uzbekistan metro-construction directorate","source_quality":"primary","role":"display_only"},"geometry":{"type":"Point","coordinates":[69.2710646,41.3149453]}},{"type":"Feature","properties":{"station_id":"tm_chilonzor_09","station_name_current":"Amir Temur xiyoboni","station_name_historical":"Markaziy xiyobon","line":"Chilonzor line","opening_date":"1977-11-06","opening_year":1977,"date_precision":"day","opening_batch_id":"chilonzor_1977_11_06","district_name":"Mirzo Ulugbek district","source_provider":"Government of Uzbekistan metro-construction directorate","source_quality":"primary","role":"display_only"},"geometry":{"type":"Point","coordinates":[69.2832691,41.3126738]}},{"type":"Feature","properties":{"station_id":"tm_chilonzor_10","station_name_current":"Hamid Olimjon","station_name_historical":null,"line":"Chilonzor line","opening_date":"1980-08-18","opening_year":1980,"date_precision":"day","opening_batch_id":"chilonzor_1980_08_18","district_name":"Mirzo Ulugbek district","source_provider":"Government of Uzbekistan metro-construction directorate","source_quality":"primary","role":"display_only"},"geometry":{"type":"Point","coordinates":[69.2957419,41.3181644]}},{"type":"Feature","properties":{"station_id":"tm_chilonzor_11","station_name_current":"Pushkin","station_name_historical":null,"line":"Chilonzor line","opening_date":"1980-08-18","opening_year":1980,"date_precision":"day","opening_batch_id":"chilonzor_1980_08_18","district_name":"Mirzo Ulugbek district","source_provider":"Government of Uzbekistan metro-construction directorate","source_quality":"primary","role":"display_only"},"geometry":{"type":"Point","coordinates":[69.311102,41.3219481]}},{"type":"Feature","properties":{"station_id":"tm_chilonzor_12","station_name_current":"Buyuk Ipak Yoʻli","station_name_historical":null,"line":"Chilonzor line","opening_date":"1980-08-18","opening_year":1980,"date_precision":"day","opening_batch_id":"chilonzor_1980_08_18","district_name":"Mirzo Ulugbek district","source_provider":"Government of Uzbekistan metro-construction directorate","source_quality":"primary","role":"display_only"},"geometry":{"type":"Point","coordinates":[69.3285598,41.3261054]}},{"type":"Feature","properties":{"station_id":"tm_circle_01","station_name_current":"Texnopark","station_name_historical":"Doʻstlik-2","line":"Circle line","opening_date":"2020-08-29","opening_year":2020,"date_precision":"day","opening_batch_id":"circle_2020_08_29","district_name":"Yashnabad district","source_provider":"President of the Republic of Uzbekistan","source_quality":"primary","role":"display_only"},"geometry":{"type":"Point","coordinates":[69.3226789,41.2945327]}},{"type":"Feature","properties":{"station_id":"tm_circle_02","station_name_current":"Yashnobod","station_name_historical":null,"line":"Circle line","opening_date":"2020-08-29","opening_year":2020,"date_precision":"day","opening_batch_id":"circle_2020_08_29","district_name":"Yashnabad district","source_provider":"President of the Republic of Uzbekistan","source_quality":"primary","role":"display_only"},"geometry":{"type":"Point","coordinates":[69.3494377,41.2978536]}},{"type":"Feature","properties":{"station_id":"tm_circle_03","station_name_current":"Tuzel","station_name_historical":null,"line":"Circle line","opening_date":"2020-08-29","opening_year":2020,"date_precision":"day","opening_batch_id":"circle_2020_08_29","district_name":"Yashnabad district","source_provider":"President of the Republic of Uzbekistan","source_quality":"primary","role":"display_only"},"geometry":{"type":"Point","coordinates":[69.3563523,41.2917456]}},{"type":"Feature","properties":{"station_id":"tm_circle_04","station_name_current":"Olmos","station_name_historical":null,"line":"Circle line","opening_date":"2020-08-29","opening_year":2020,"date_precision":"day","opening_batch_id":"circle_2020_08_29","district_name":"Yashnabad district","source_provider":"President of the Republic of Uzbekistan","source_quality":"primary","role":"display_only"},"geometry":{"type":"Point","coordinates":[69.3603338,41.281705]}},{"type":"Feature","properties":{"station_id":"tm_circle_05","station_name_current":"Rohat","station_name_historical":null,"line":"Circle line","opening_date":"2020-08-29","opening_year":2020,"date_precision":"day","opening_batch_id":"circle_2020_08_29","district_name":"Yashnabad district","source_provider":"President of the Republic of Uzbekistan","source_quality":"primary","role":"display_only"},"geometry":{"type":"Point","coordinates":[69.3650452,41.2656083]}},{"type":"Feature","properties":{"station_id":"tm_circle_06","station_name_current":"Yangiobod","station_name_historical":null,"line":"Circle line","opening_date":"2020-08-29","opening_year":2020,"date_precision":"day","opening_batch_id":"circle_2020_08_29","district_name":"Yashnabad district","source_provider":"President of the Republic of Uzbekistan","source_quality":"primary","role":"display_only"},"geometry":{"type":"Point","coordinates":[69.3584025,41.2561594]}},{"type":"Feature","properties":{"station_id":"tm_circle_07","station_name_current":"Qo‘yliq","station_name_historical":null,"line":"Circle line","opening_date":"2020-08-29","opening_year":2020,"date_precision":"day","opening_batch_id":"circle_2020_08_29","district_name":"Bektemir district","source_provider":"President of the Republic of Uzbekistan","source_quality":"primary","role":"display_only"},"geometry":{"type":"Point","coordinates":[69.3274964,41.2374808]}},{"type":"Feature","properties":{"station_id":"tm_circle_08","station_name_current":"Matonat","station_name_historical":null,"line":"Circle line","opening_date":"2023-04-25","opening_year":2023,"date_precision":"day","opening_batch_id":"circle_2023_04_25","district_name":"Mirabad district","source_provider":"Toshkent metropoliteni / O‘zbekiston temir yo‘llari","source_quality":"primary","role":"display_only"},"geometry":{"type":"Point","coordinates":[69.3083229,41.2444713]}},{"type":"Feature","properties":{"station_id":"tm_circle_09","station_name_current":"Qiyot","station_name_historical":null,"line":"Circle line","opening_date":"2023-04-25","opening_year":2023,"date_precision":"day","opening_batch_id":"circle_2023_04_25","district_name":"Sergeli district","source_provider":"Toshkent metropoliteni / O‘zbekiston temir yo‘llari","source_quality":"primary","role":"display_only"},"geometry":{"type":"Point","coordinates":[69.3002451,41.2444232]}},{"type":"Feature","properties":{"station_id":"tm_circle_10","station_name_current":"Tolarik","station_name_historical":null,"line":"Circle line","opening_date":"2023-04-25","opening_year":2023,"date_precision":"day","opening_batch_id":"circle_2023_04_25","district_name":"Sergeli district","source_provider":"Toshkent metropoliteni / O‘zbekiston temir yo‘llari","source_quality":"primary","role":"display_only"},"geometry":{"type":"Point","coordinates":[69.2849568,41.2445139]}},{"type":"Feature","properties":{"station_id":"tm_circle_11","station_name_current":"Xonobod","station_name_historical":null,"line":"Circle line","opening_date":"2023-04-25","opening_year":2023,"date_precision":"day","opening_batch_id":"circle_2023_04_25","district_name":"Sergeli district","source_provider":"Toshkent metropoliteni / O‘zbekiston temir yo‘llari","source_quality":"primary","role":"display_only"},"geometry":{"type":"Point","coordinates":[69.2701677,41.22969]}},{"type":"Feature","properties":{"station_id":"tm_circle_12","station_name_current":"Quruvchilar","station_name_historical":null,"line":"Circle line","opening_date":"2023-04-25","opening_year":2023,"date_precision":"day","opening_batch_id":"circle_2023_04_25","district_name":"Sergeli district","source_provider":"Toshkent metropoliteni / O‘zbekiston temir yo‘llari","source_quality":"primary","role":"display_only"},"geometry":{"type":"Point","coordinates":[69.261022,41.2218027]}},{"type":"Feature","properties":{"station_id":"tm_circle_13","station_name_current":"Turon","station_name_historical":null,"line":"Circle line","opening_date":"2024-03-11","opening_year":2024,"date_precision":"day","opening_batch_id":"circle_2024_03_11","district_name":"Yangikhayot district","source_provider":"Government of Uzbekistan metro-construction directorate","source_quality":"primary","role":"display_only"},"geometry":{"type":"Point","coordinates":[69.234154,41.2106813]}},{"type":"Feature","properties":{"station_id":"tm_circle_14","station_name_current":"Qipchok","station_name_historical":null,"line":"Circle line","opening_date":"2024-03-11","opening_year":2024,"date_precision":"day","opening_batch_id":"circle_2024_03_11","district_name":"Yangikhayot district","source_provider":"Government of Uzbekistan metro-construction directorate","source_quality":"primary","role":"display_only"},"geometry":{"type":"Point","coordinates":[69.2214112,41.2054229]}},{"type":"Feature","properties":{"station_id":"tm_ozbekiston_01","station_name_current":"Do'stlik","station_name_historical":null,"line":"Oʻzbekiston line","opening_date":"1987-11","opening_year":1987,"date_precision":"month","opening_batch_id":"ozbekiston_1987_11","district_name":"Yashnabad district","source_provider":"Government of Uzbekistan metro-construction directorate","source_quality":"primary","role":"display_only"},"geometry":{"type":"Point","coordinates":[69.3222445,41.2936401]}},{"type":"Feature","properties":{"station_id":"tm_ozbekiston_02","station_name_current":"Mashinasozlar","station_name_historical":null,"line":"Oʻzbekiston line","opening_date":"1987-11","opening_year":1987,"date_precision":"month","opening_batch_id":"ozbekiston_1987_11","district_name":"Yashnabad district","source_provider":"Government of Uzbekistan metro-construction directorate","source_quality":"primary","role":"display_only"},"geometry":{"type":"Point","coordinates":[69.3051276,41.2989847]}},{"type":"Feature","properties":{"station_id":"tm_ozbekiston_03","station_name_current":"Toshkent","station_name_historical":null,"line":"Oʻzbekiston line","opening_date":"1984-11","opening_year":1984,"date_precision":"month","opening_batch_id":"ozbekiston_1984_11","district_name":"Mirabad district","source_provider":"Government of Uzbekistan metro-construction directorate","source_quality":"primary","role":"display_only"},"geometry":{"type":"Point","coordinates":[69.2877212,41.2932886]}},{"type":"Feature","properties":{"station_id":"tm_ozbekiston_04","station_name_current":"Oybek","station_name_historical":null,"line":"Oʻzbekiston line","opening_date":"1984-11","opening_year":1984,"date_precision":"month","opening_batch_id":"ozbekiston_1984_11","district_name":"Mirabad district","source_provider":"Government of Uzbekistan metro-construction directorate","source_quality":"primary","role":"display_only"},"geometry":{"type":"Point","coordinates":[69.2740501,41.2980128]}},{"type":"Feature","properties":{"station_id":"tm_ozbekiston_05","station_name_current":"Kosmonavtlar","station_name_historical":null,"line":"Oʻzbekiston line","opening_date":"1984-11","opening_year":1984,"date_precision":"month","opening_batch_id":"ozbekiston_1984_11","district_name":"Yakkasaray district","source_provider":"Government of Uzbekistan metro-construction directorate","source_quality":"primary","role":"display_only"},"geometry":{"type":"Point","coordinates":[69.2647207,41.3051618]}},{"type":"Feature","properties":{"station_id":"tm_ozbekiston_06","station_name_current":"Oʻzbekiston","station_name_historical":null,"line":"Oʻzbekiston line","opening_date":"1984-11","opening_year":1984,"date_precision":"month","opening_batch_id":"ozbekiston_1984_11","district_name":"Shaykhantakhur district","source_provider":"Government of Uzbekistan metro-construction directorate","source_quality":"primary","role":"display_only"},"geometry":{"type":"Point","coordinates":[69.2534057,41.3119437]}},{"type":"Feature","properties":{"station_id":"tm_ozbekiston_07","station_name_current":"Alisher Navoiy","station_name_historical":null,"line":"Oʻzbekiston line","opening_date":"1984-11","opening_year":1984,"date_precision":"month","opening_batch_id":"ozbekiston_1984_11","district_name":"Shaykhantakhur district","source_provider":"Government of Uzbekistan metro-construction directorate","source_quality":"primary","role":"display_only"},"geometry":{"type":"Point","coordinates":[69.2542973,41.3189218]}},{"type":"Feature","properties":{"station_id":"tm_ozbekiston_08","station_name_current":"G'afur G'ulom","station_name_historical":null,"line":"Oʻzbekiston line","opening_date":"1989-11","opening_year":1989,"date_precision":"month","opening_batch_id":"ozbekiston_1989_11","district_name":"Almazar district","source_provider":"Government of Uzbekistan metro-construction directorate","source_quality":"primary","role":"display_only"},"geometry":{"type":"Point","coordinates":[69.2458342,41.3278828]}},{"type":"Feature","properties":{"station_id":"tm_ozbekiston_09","station_name_current":"Chorsu","station_name_historical":null,"line":"Oʻzbekiston line","opening_date":"1989-11","opening_year":1989,"date_precision":"month","opening_batch_id":"ozbekiston_1989_11","district_name":"Shaykhantakhur district","source_provider":"Government of Uzbekistan metro-construction directorate","source_quality":"primary","role":"display_only"},"geometry":{"type":"Point","coordinates":[69.2368152,41.3258649]}},{"type":"Feature","properties":{"station_id":"tm_ozbekiston_10","station_name_current":"Tinchlik","station_name_historical":null,"line":"Oʻzbekiston line","opening_date":"1991-04-30","opening_year":1991,"date_precision":"day","opening_batch_id":"ozbekiston_1991_04_30","district_name":"Shaykhantakhur district","source_provider":"Government of Uzbekistan metro-construction directorate","source_quality":"primary","role":"display_only"},"geometry":{"type":"Point","coordinates":[69.2191155,41.3323014]}},{"type":"Feature","properties":{"station_id":"tm_ozbekiston_11","station_name_current":"Beruniy","station_name_historical":null,"line":"Oʻzbekiston line","opening_date":"1991-04-30","opening_year":1991,"date_precision":"day","opening_batch_id":"ozbekiston_1991_04_30","district_name":"Shaykhantakhur district","source_provider":"Government of Uzbekistan metro-construction directorate","source_quality":"primary","role":"display_only"},"geometry":{"type":"Point","coordinates":[69.2062046,41.3446152]}},{"type":"Feature","properties":{"station_id":"tm_sergeli_01","station_name_current":"Choshtepa","station_name_historical":null,"line":"Sergeli line","opening_date":"2020-12-26","opening_year":2020,"date_precision":"day","opening_batch_id":"sergeli_2020_12_26","district_name":"Yangikhayot district","source_provider":"President of the Republic of Uzbekistan","source_quality":"primary","role":"display_only"},"geometry":{"type":"Point","coordinates":[69.1960345,41.2382496]}},{"type":"Feature","properties":{"station_id":"tm_sergeli_02","station_name_current":"O‘zgarish","station_name_historical":null,"line":"Sergeli line","opening_date":"2020-12-26","opening_year":2020,"date_precision":"day","opening_batch_id":"sergeli_2020_12_26","district_name":"Yangikhayot district","source_provider":"President of the Republic of Uzbekistan","source_quality":"primary","role":"display_only"},"geometry":{"type":"Point","coordinates":[69.2039714,41.2273364]}},{"type":"Feature","properties":{"station_id":"tm_sergeli_03","station_name_current":"Sergeli","station_name_historical":null,"line":"Sergeli line","opening_date":"2020-12-26","opening_year":2020,"date_precision":"day","opening_batch_id":"sergeli_2020_12_26","district_name":"Yangikhayot district","source_provider":"President of the Republic of Uzbekistan","source_quality":"primary","role":"display_only"},"geometry":{"type":"Point","coordinates":[69.2090865,41.2202283]}},{"type":"Feature","properties":{"station_id":"tm_sergeli_04","station_name_current":"Yangihayot","station_name_historical":null,"line":"Sergeli line","opening_date":"2020-12-26","opening_year":2020,"date_precision":"day","opening_batch_id":"sergeli_2020_12_26","district_name":"Yangikhayot district","source_provider":"President of the Republic of Uzbekistan","source_quality":"primary","role":"display_only"},"geometry":{"type":"Point","coordinates":[69.214015,41.2135099]}},{"type":"Feature","properties":{"station_id":"tm_sergeli_05","station_name_current":"Chinor","station_name_historical":null,"line":"Sergeli line","opening_date":"2020-12-26","opening_year":2020,"date_precision":"day","opening_batch_id":"sergeli_2020_12_26","district_name":"Yangikhayot district","source_provider":"President of the Republic of Uzbekistan","source_quality":"primary","role":"display_only"},"geometry":{"type":"Point","coordinates":[69.2189575,41.2066965]}},{"type":"Feature","properties":{"station_id":"tm_yunusobod_01","station_name_current":"Mingoʻrik","station_name_historical":null,"line":"Yunusobod line","opening_date":"2001-10-26","opening_year":2001,"date_precision":"day","opening_batch_id":"yunusobod_2001_10_26","district_name":"Mirabad district","source_provider":"Government of Uzbekistan metro-construction directorate","source_quality":"primary","role":"display_only"},"geometry":{"type":"Point","coordinates":[69.2744102,41.299661]}},{"type":"Feature","properties":{"station_id":"tm_yunusobod_02","station_name_current":"Yunus Rajabiy","station_name_historical":null,"line":"Yunusobod line","opening_date":"2001-10-26","opening_year":2001,"date_precision":"day","opening_batch_id":"yunusobod_2001_10_26","district_name":"Mirzo Ulugbek district","source_provider":"Government of Uzbekistan metro-construction directorate","source_quality":"primary","role":"display_only"},"geometry":{"type":"Point","coordinates":[69.2835077,41.3138871]}},{"type":"Feature","properties":{"station_id":"tm_yunusobod_03","station_name_current":"Abdulla Qodiriy","station_name_historical":null,"line":"Yunusobod line","opening_date":"2001-10-26","opening_year":2001,"date_precision":"day","opening_batch_id":"yunusobod_2001_10_26","district_name":"Yunusabad district","source_provider":"Government of Uzbekistan metro-construction directorate","source_quality":"primary","role":"display_only"},"geometry":{"type":"Point","coordinates":[69.281759,41.3201924]}},{"type":"Feature","properties":{"station_id":"tm_yunusobod_04","station_name_current":"Minor","station_name_historical":null,"line":"Yunusobod line","opening_date":"2001-10-26","opening_year":2001,"date_precision":"day","opening_batch_id":"yunusobod_2001_10_26","district_name":"Yunusabad district","source_provider":"Government of Uzbekistan metro-construction directorate","source_quality":"primary","role":"display_only"},"geometry":{"type":"Point","coordinates":[69.2834163,41.3268923]}},{"type":"Feature","properties":{"station_id":"tm_yunusobod_05","station_name_current":"Bodomzor","station_name_historical":null,"line":"Yunusobod line","opening_date":"2001-10-26","opening_year":2001,"date_precision":"day","opening_batch_id":"yunusobod_2001_10_26","district_name":"Yunusabad district","source_provider":"Government of Uzbekistan metro-construction directorate","source_quality":"primary","role":"display_only"},"geometry":{"type":"Point","coordinates":[69.2845697,41.3371701]}},{"type":"Feature","properties":{"station_id":"tm_yunusobod_06","station_name_current":"Shahriston","station_name_historical":"Habib Abdullayev","line":"Yunusobod line","opening_date":"2001-10-26","opening_year":2001,"date_precision":"day","opening_batch_id":"yunusobod_2001_10_26","district_name":"Yunusabad district","source_provider":"Government of Uzbekistan metro-construction directorate","source_quality":"primary","role":"display_only"},"geometry":{"type":"Point","coordinates":[69.2881069,41.3531185]}},{"type":"Feature","properties":{"station_id":"tm_yunusobod_07","station_name_current":"Yunusobod","station_name_historical":null,"line":"Yunusobod line","opening_date":"2020-08-29","opening_year":2020,"date_precision":"day","opening_batch_id":"yunusobod_2020_08_29","district_name":"Yunusabad district","source_provider":"Toshkent metropoliteni / O‘zbekiston temir yo‘llari","source_quality":"primary","role":"display_only"},"geometry":{"type":"Point","coordinates":[69.2917081,41.3663489]}},{"type":"Feature","properties":{"station_id":"tm_yunusobod_08","station_name_current":"Turkiston","station_name_historical":null,"line":"Yunusobod line","opening_date":"2020-08-29","opening_year":2020,"date_precision":"day","opening_batch_id":"yunusobod_2020_08_29","district_name":"Yunusabad district","source_provider":"Toshkent metropoliteni / O‘zbekiston temir yo‘llari","source_quality":"primary","role":"display_only"},"geometry":{"type":"Point","coordinates":[69.2960151,41.3775217]}}]}
