{"type":"FeatureCollection","features":[{"type":"Feature","properties":{"access_id":"entrance:1142950027","access_type":"entrance","name":"Xalqlar Do'stligi","district_name":"Shaykhantakhur district","kind_label":"Metro entrance","detail":"Mapped subway entrance"},"geometry":{"type":"Point","coordinates":[69.24367,41.31248]}},{"type":"Feature","properties":{"access_id":"entrance:1142950516","access_type":"entrance","name":"Xalqlar Do'stligi","district_name":"Chilanzar district","kind_label":"Metro entrance","detail":"Mapped subway entrance"},"geometry":{"type":"Point","coordinates":[69.24332,41.31146]}},{"type":"Feature","properties":{"access_id":"entrance:1226725679","access_type":"entrance","name":"Шахристан","district_name":"Yunusabad district","kind_label":"Metro entrance","detail":"Mapped subway entrance"},"geometry":{"type":"Point","coordinates":[69.288,41.35402]}},{"type":"Feature","properties":{"access_id":"entrance:13322774128","access_type":"entrance","name":"Qiyot","district_name":"Sergeli district","kind_label":"Metro entrance","detail":"Mapped subway entrance"},"geometry":{"type":"Point","coordinates":[69.3009,41.24449]}},{"type":"Feature","properties":{"access_id":"entrance:13324929877","access_type":"entrance","name":null,"district_name":"Sergeli district","kind_label":"Metro entrance","detail":"Mapped subway entrance"},"geometry":{"type":"Point","coordinates":[69.28595,41.24459]}},{"type":"Feature","properties":{"access_id":"entrance:13324929878","access_type":"entrance","name":null,"district_name":"Sergeli district","kind_label":"Metro entrance","detail":"Mapped subway entrance"},"geometry":{"type":"Point","coordinates":[69.28595,41.24445]}},{"type":"Feature","properties":{"access_id":"entrance:13326560028","access_type":"entrance","name":"Quruvchilar","district_name":"Sergeli district","kind_label":"Metro entrance","detail":"Mapped subway entrance"},"geometry":{"type":"Point","coordinates":[69.25972,41.22131]}},{"type":"Feature","properties":{"access_id":"entrance:13326560037","access_type":"entrance","name":null,"district_name":"Sergeli district","kind_label":"Metro entrance","detail":"Mapped subway entrance"},"geometry":{"type":"Point","coordinates":[69.27069,41.23068]}},{"type":"Feature","properties":{"access_id":"entrance:13352013991","access_type":"entrance","name":null,"district_name":"Yangikhayot district","kind_label":"Metro entrance","detail":"Mapped subway entrance"},"geometry":{"type":"Point","coordinates":[69.20829,41.22139]}},{"type":"Feature","properties":{"access_id":"entrance:13418520188","access_type":"entrance","name":null,"district_name":"Yashnabad district","kind_label":"Metro entrance","detail":"Mapped subway entrance"},"geometry":{"type":"Point","coordinates":[69.3489,41.29813]}},{"type":"Feature","properties":{"access_id":"entrance:13538956795","access_type":"entrance","name":null,"district_name":"Yashnabad district","kind_label":"Metro entrance","detail":"Mapped subway entrance"},"geometry":{"type":"Point","coordinates":[69.32182,41.29426]}},{"type":"Feature","properties":{"access_id":"entrance:1390572520","access_type":"entrance","name":"Chorsu","district_name":"Shaykhantakhur district","kind_label":"Metro entrance","detail":"Mapped subway entrance"},"geometry":{"type":"Point","coordinates":[69.23564,41.32534]}},{"type":"Feature","properties":{"access_id":"entrance:1390572522","access_type":"entrance","name":null,"district_name":"Shaykhantakhur district","kind_label":"Metro entrance","detail":"Mapped subway entrance"},"geometry":{"type":"Point","coordinates":[69.21866,41.33238]}},{"type":"Feature","properties":{"access_id":"entrance:1577932476","access_type":"entrance","name":"Chorsu","district_name":"Shaykhantakhur district","kind_label":"Metro entrance","detail":"Mapped subway entrance"},"geometry":{"type":"Point","coordinates":[69.23793,41.32627]}},{"type":"Feature","properties":{"access_id":"entrance:1577932575","access_type":"entrance","name":"Xalqlar Do'stligi","district_name":"Chilanzar district","kind_label":"Metro entrance","detail":"Mapped subway entrance"},"geometry":{"type":"Point","coordinates":[69.24192,41.31142]}},{"type":"Feature","properties":{"access_id":"entrance:1579080936","access_type":"entrance","name":"Oybek","district_name":"Mirabad district","kind_label":"Metro entrance","detail":"Mapped subway entrance"},"geometry":{"type":"Point","coordinates":[69.27413,41.29729]}},{"type":"Feature","properties":{"access_id":"entrance:1579080938","access_type":"entrance","name":"Mingoʻrik","district_name":"Mirabad district","kind_label":"Metro entrance","detail":"Mapped subway entrance"},"geometry":{"type":"Point","coordinates":[69.2751,41.30035]}},{"type":"Feature","properties":{"access_id":"entrance:1579080940","access_type":"entrance","name":"Mingoʻrik","district_name":"Mirabad district","kind_label":"Metro entrance","detail":"Mapped subway entrance"},"geometry":{"type":"Point","coordinates":[69.27537,41.30006]}},{"type":"Feature","properties":{"access_id":"entrance:1582352949","access_type":"entrance","name":"Toshkent","district_name":"Mirabad district","kind_label":"Metro entrance","detail":"Mapped subway entrance"},"geometry":{"type":"Point","coordinates":[69.28843,41.29408]}},{"type":"Feature","properties":{"access_id":"entrance:1633822602","access_type":"entrance","name":"Шахристан","district_name":"Yunusabad district","kind_label":"Metro entrance","detail":"Mapped subway entrance"},"geometry":{"type":"Point","coordinates":[69.28849,41.35395]}},{"type":"Feature","properties":{"access_id":"entrance:1636108186","access_type":"entrance","name":"Novza","district_name":"Chilanzar district","kind_label":"Metro entrance","detail":"Mapped subway entrance"},"geometry":{"type":"Point","coordinates":[69.22332,41.29137]}},{"type":"Feature","properties":{"access_id":"entrance:1636108190","access_type":"entrance","name":"Novza","district_name":"Chilanzar district","kind_label":"Metro entrance","detail":"Mapped subway entrance"},"geometry":{"type":"Point","coordinates":[69.223,41.29108]}},{"type":"Feature","properties":{"access_id":"entrance:1636108195","access_type":"entrance","name":"Novza","district_name":"Chilanzar district","kind_label":"Metro entrance","detail":"Mapped subway entrance"},"geometry":{"type":"Point","coordinates":[69.22253,41.29186]}},{"type":"Feature","properties":{"access_id":"entrance:1636108199","access_type":"entrance","name":"Novza","district_name":"Chilanzar district","kind_label":"Metro entrance","detail":"Mapped subway entrance"},"geometry":{"type":"Point","coordinates":[69.22223,41.29159]}},{"type":"Feature","properties":{"access_id":"entrance:1636108219","access_type":"entrance","name":"Novza","district_name":"Chilanzar district","kind_label":"Metro entrance","detail":"Mapped subway entrance"},"geometry":{"type":"Point","coordinates":[69.22429,41.29222]}},{"type":"Feature","properties":{"access_id":"entrance:1636108221","access_type":"entrance","name":"Novza","district_name":"Chilanzar district","kind_label":"Metro entrance","detail":"Mapped subway entrance"},"geometry":{"type":"Point","coordinates":[69.22463,41.29252]}},{"type":"Feature","properties":{"access_id":"entrance:1636108222","access_type":"entrance","name":"Novza","district_name":"Chilanzar district","kind_label":"Metro entrance","detail":"Mapped subway entrance"},"geometry":{"type":"Point","coordinates":[69.22351,41.29275]}},{"type":"Feature","properties":{"access_id":"entrance:1636108224","access_type":"entrance","name":"Novza","district_name":"Chilanzar district","kind_label":"Metro entrance","detail":"Mapped subway entrance"},"geometry":{"type":"Point","coordinates":[69.22383,41.29303]}},{"type":"Feature","properties":{"access_id":"entrance:1636120003","access_type":"entrance","name":"Milliy bogʻ","district_name":"Shaykhantakhur district","kind_label":"Metro entrance","detail":"Mapped subway entrance"},"geometry":{"type":"Point","coordinates":[69.23488,41.3043]}},{"type":"Feature","properties":{"access_id":"entrance:1636120005","access_type":"entrance","name":"Milliy bogʻ","district_name":"Shaykhantakhur district","kind_label":"Metro entrance","detail":"Mapped subway entrance"},"geometry":{"type":"Point","coordinates":[69.23514,41.30463]}},{"type":"Feature","properties":{"access_id":"entrance:1636120007","access_type":"entrance","name":"Milliy bogʻ","district_name":"Chilanzar district","kind_label":"Metro entrance","detail":"Mapped subway entrance"},"geometry":{"type":"Point","coordinates":[69.23607,41.30423]}},{"type":"Feature","properties":{"access_id":"entrance:1636120010","access_type":"entrance","name":"Milliy bogʻ","district_name":"Chilanzar district","kind_label":"Metro entrance","detail":"Mapped subway entrance"},"geometry":{"type":"Point","coordinates":[69.23581,41.3039]}},{"type":"Feature","properties":{"access_id":"entrance:1636135220","access_type":"entrance","name":"Mirzo Ulugʻbek","district_name":"Chilanzar district","kind_label":"Metro entrance","detail":"Mapped subway entrance"},"geometry":{"type":"Point","coordinates":[69.21114,41.2816]}},{"type":"Feature","properties":{"access_id":"entrance:1636135224","access_type":"entrance","name":"Mirzo Ulugʻbek","district_name":"Chilanzar district","kind_label":"Metro entrance","detail":"Mapped subway entrance"},"geometry":{"type":"Point","coordinates":[69.21146,41.28189]}},{"type":"Feature","properties":{"access_id":"entrance:1636135227","access_type":"entrance","name":"Mirzo Ulugʻbek","district_name":"Chilanzar district","kind_label":"Metro entrance","detail":"Mapped subway entrance"},"geometry":{"type":"Point","coordinates":[69.2119,41.28108]}},{"type":"Feature","properties":{"access_id":"entrance:1636135232","access_type":"entrance","name":"Mirzo Ulugʻbek","district_name":"Chilanzar district","kind_label":"Metro entrance","detail":"Mapped subway entrance"},"geometry":{"type":"Point","coordinates":[69.21246,41.28282]}},{"type":"Feature","properties":{"access_id":"entrance:1636135244","access_type":"entrance","name":"Mirzo Ulugʻbek","district_name":"Chilanzar district","kind_label":"Metro entrance","detail":"Mapped subway entrance"},"geometry":{"type":"Point","coordinates":[69.21279,41.2831]}},{"type":"Feature","properties":{"access_id":"entrance:1636135247","access_type":"entrance","name":"Mirzo Ulugʻbek","district_name":"Chilanzar district","kind_label":"Metro entrance","detail":"Mapped subway entrance"},"geometry":{"type":"Point","coordinates":[69.21325,41.2823]}},{"type":"Feature","properties":{"access_id":"entrance:1765081835","access_type":"entrance","name":null,"district_name":"Yashnabad district","kind_label":"Metro entrance","detail":"Mapped subway entrance"},"geometry":{"type":"Point","coordinates":[69.32356,41.29356]}},{"type":"Feature","properties":{"access_id":"entrance:1765081836","access_type":"entrance","name":"Do'stlik","district_name":"Yashnabad district","kind_label":"Metro entrance","detail":"Mapped subway entrance"},"geometry":{"type":"Point","coordinates":[69.32153,41.29382]}},{"type":"Feature","properties":{"access_id":"entrance:1765132137","access_type":"entrance","name":"Mashinasozlar","district_name":"Yashnabad district","kind_label":"Metro entrance","detail":"Mapped subway entrance"},"geometry":{"type":"Point","coordinates":[69.30455,41.29948]}},{"type":"Feature","properties":{"access_id":"entrance:1765136913","access_type":"entrance","name":"Toshkent","district_name":"Mirabad district","kind_label":"Metro entrance","detail":"Mapped subway entrance"},"geometry":{"type":"Point","coordinates":[69.28546,41.2921]}},{"type":"Feature","properties":{"access_id":"entrance:1765136920","access_type":"entrance","name":"Toshkent","district_name":"Mirabad district","kind_label":"Metro entrance","detail":"Mapped subway entrance"},"geometry":{"type":"Point","coordinates":[69.28609,41.29158]}},{"type":"Feature","properties":{"access_id":"entrance:1765136924","access_type":"entrance","name":"Toshkent","district_name":"Mirabad district","kind_label":"Metro entrance","detail":"Mapped subway entrance"},"geometry":{"type":"Point","coordinates":[69.2864,41.29276]}},{"type":"Feature","properties":{"access_id":"entrance:1770328506","access_type":"entrance","name":null,"district_name":"Shaykhantakhur district","kind_label":"Metro entrance","detail":"Mapped subway entrance"},"geometry":{"type":"Point","coordinates":[69.21984,41.33169]}},{"type":"Feature","properties":{"access_id":"entrance:1770328516","access_type":"entrance","name":null,"district_name":"Almazar district","kind_label":"Metro entrance","detail":"Mapped subway entrance"},"geometry":{"type":"Point","coordinates":[69.22019,41.33196]}},{"type":"Feature","properties":{"access_id":"entrance:1770328542","access_type":"entrance","name":null,"district_name":"Almazar district","kind_label":"Metro entrance","detail":"Mapped subway entrance"},"geometry":{"type":"Point","coordinates":[69.21886,41.33275]}},{"type":"Feature","properties":{"access_id":"entrance:1770328548","access_type":"entrance","name":null,"district_name":"Shaykhantakhur district","kind_label":"Metro entrance","detail":"Mapped subway entrance"},"geometry":{"type":"Point","coordinates":[69.21779,41.33288]}},{"type":"Feature","properties":{"access_id":"entrance:1772565616","access_type":"entrance","name":"Mustaqilik maydoni","district_name":"Yunusabad district","kind_label":"Metro entrance","detail":"Mapped subway entrance"},"geometry":{"type":"Point","coordinates":[69.27188,41.31438]}},{"type":"Feature","properties":{"access_id":"entrance:1772565618","access_type":"entrance","name":"Mustaqilik maydoni","district_name":"Yunusabad district","kind_label":"Metro entrance","detail":"Mapped subway entrance"},"geometry":{"type":"Point","coordinates":[69.2706,41.31536]}},{"type":"Feature","properties":{"access_id":"entrance:1772565621","access_type":"entrance","name":"Mustaqilik maydoni","district_name":"Yunusabad district","kind_label":"Metro entrance","detail":"Mapped subway entrance"},"geometry":{"type":"Point","coordinates":[69.26986,41.31559]}},{"type":"Feature","properties":{"access_id":"entrance:1772575476","access_type":"entrance","name":"Абдулла Кодирий","district_name":"Yunusabad district","kind_label":"Metro entrance","detail":"Mapped subway entrance"},"geometry":{"type":"Point","coordinates":[69.28123,41.3191]}},{"type":"Feature","properties":{"access_id":"entrance:1772575483","access_type":"entrance","name":"Абдулла Кадыри","district_name":"Yunusabad district","kind_label":"Metro entrance","detail":"Mapped subway entrance"},"geometry":{"type":"Point","coordinates":[69.28205,41.31936]}},{"type":"Feature","properties":{"access_id":"entrance:1772575484","access_type":"entrance","name":"Абдулла Кадыри","district_name":"Yunusabad district","kind_label":"Metro entrance","detail":"Mapped subway entrance"},"geometry":{"type":"Point","coordinates":[69.28129,41.31941]}},{"type":"Feature","properties":{"access_id":"entrance:1772575485","access_type":"entrance","name":"Абдулла Кадыри","district_name":"Yunusabad district","kind_label":"Metro entrance","detail":"Mapped subway entrance"},"geometry":{"type":"Point","coordinates":[69.28267,41.32103]}},{"type":"Feature","properties":{"access_id":"entrance:1772575491","access_type":"entrance","name":"Абдулла Кадыри","district_name":"Yunusabad district","kind_label":"Metro entrance","detail":"Mapped subway entrance"},"geometry":{"type":"Point","coordinates":[69.28138,41.3212]}},{"type":"Feature","properties":{"access_id":"entrance:1772575497","access_type":"entrance","name":"Абдулла Кадыри","district_name":"Yunusabad district","kind_label":"Metro entrance","detail":"Mapped subway entrance"},"geometry":{"type":"Point","coordinates":[69.28175,41.3218]}},{"type":"Feature","properties":{"access_id":"entrance:1772595539","access_type":"entrance","name":null,"district_name":"Yunusabad district","kind_label":"Metro entrance","detail":"Mapped subway entrance"},"geometry":{"type":"Point","coordinates":[69.28337,41.32623]}},{"type":"Feature","properties":{"access_id":"entrance:1772595543","access_type":"entrance","name":null,"district_name":"Yunusabad district","kind_label":"Metro entrance","detail":"Mapped subway entrance"},"geometry":{"type":"Point","coordinates":[69.28351,41.32745]}},{"type":"Feature","properties":{"access_id":"entrance:1775768063","access_type":"entrance","name":"Kosmonavtlar","district_name":"Yakkasaray district","kind_label":"Metro entrance","detail":"Mapped subway entrance"},"geometry":{"type":"Point","coordinates":[69.26609,41.30502]}},{"type":"Feature","properties":{"access_id":"entrance:1775768065","access_type":"entrance","name":"Kosmonavtlar","district_name":"Yakkasaray district","kind_label":"Metro entrance","detail":"Mapped subway entrance"},"geometry":{"type":"Point","coordinates":[69.26405,41.30516]}},{"type":"Feature","properties":{"access_id":"entrance:1775804031","access_type":"entrance","name":"Bodomzor","district_name":"Yunusabad district","kind_label":"Metro entrance","detail":"Mapped subway entrance"},"geometry":{"type":"Point","coordinates":[69.28458,41.336]}},{"type":"Feature","properties":{"access_id":"entrance:1775804037","access_type":"entrance","name":"Bodomzor","district_name":"Yunusabad district","kind_label":"Metro entrance","detail":"Mapped subway entrance"},"geometry":{"type":"Point","coordinates":[69.28421,41.33662]}},{"type":"Feature","properties":{"access_id":"entrance:1775804041","access_type":"entrance","name":"Bodomzor","district_name":"Yunusabad district","kind_label":"Metro entrance","detail":"Mapped subway entrance"},"geometry":{"type":"Point","coordinates":[69.28485,41.33789]}},{"type":"Feature","properties":{"access_id":"entrance:1775848272","access_type":"entrance","name":"Hamid Olimjon","district_name":"Mirzo Ulugbek district","kind_label":"Metro entrance","detail":"Mapped subway entrance"},"geometry":{"type":"Point","coordinates":[69.29488,41.31759]}},{"type":"Feature","properties":{"access_id":"entrance:1775848274","access_type":"entrance","name":"Hamid Olimjon","district_name":"Mirzo Ulugbek district","kind_label":"Metro entrance","detail":"Mapped subway entrance"},"geometry":{"type":"Point","coordinates":[69.29432,41.3178]}},{"type":"Feature","properties":{"access_id":"entrance:1775848278","access_type":"entrance","name":"Hamid Olimjon","district_name":"Mirzo Ulugbek district","kind_label":"Metro entrance","detail":"Mapped subway entrance"},"geometry":{"type":"Point","coordinates":[69.29481,41.318]}},{"type":"Feature","properties":{"access_id":"entrance:1775848281","access_type":"entrance","name":"Hamid Olimjon","district_name":"Mirzo Ulugbek district","kind_label":"Metro entrance","detail":"Mapped subway entrance"},"geometry":{"type":"Point","coordinates":[69.2969,41.3185]}},{"type":"Feature","properties":{"access_id":"entrance:1775848285","access_type":"entrance","name":"Hamid Olimjon","district_name":"Mirzo Ulugbek district","kind_label":"Metro entrance","detail":"Mapped subway entrance"},"geometry":{"type":"Point","coordinates":[69.2967,41.3188]}},{"type":"Feature","properties":{"access_id":"entrance:1776779182","access_type":"entrance","name":"Toshkent","district_name":"Mirabad district","kind_label":"Metro entrance","detail":"Mapped subway entrance"},"geometry":{"type":"Point","coordinates":[69.28583,41.2918]}},{"type":"Feature","properties":{"access_id":"entrance:1776779183","access_type":"entrance","name":"Toshkent","district_name":"Mirabad district","kind_label":"Metro entrance","detail":"Mapped subway entrance"},"geometry":{"type":"Point","coordinates":[69.28707,41.29212]}},{"type":"Feature","properties":{"access_id":"entrance:1776779187","access_type":"entrance","name":"Toshkent","district_name":"Mirabad district","kind_label":"Metro entrance","detail":"Mapped subway entrance"},"geometry":{"type":"Point","coordinates":[69.28748,41.29239]}},{"type":"Feature","properties":{"access_id":"entrance:1776779190","access_type":"entrance","name":"Toshkent","district_name":"Mirabad district","kind_label":"Metro entrance","detail":"Mapped subway entrance"},"geometry":{"type":"Point","coordinates":[69.2889,41.29371]}},{"type":"Feature","properties":{"access_id":"entrance:1776785654","access_type":"entrance","name":"Oybek","district_name":"Mirabad district","kind_label":"Metro entrance","detail":"Mapped subway entrance"},"geometry":{"type":"Point","coordinates":[69.27496,41.29762]}},{"type":"Feature","properties":{"access_id":"entrance:1777037932","access_type":"entrance","name":null,"district_name":"Mirzo Ulugbek district","kind_label":"Metro entrance","detail":"Mapped subway entrance"},"geometry":{"type":"Point","coordinates":[69.30993,41.32151]}},{"type":"Feature","properties":{"access_id":"entrance:1777037936","access_type":"entrance","name":null,"district_name":"Mirzo Ulugbek district","kind_label":"Metro entrance","detail":"Mapped subway entrance"},"geometry":{"type":"Point","coordinates":[69.31226,41.32231]}},{"type":"Feature","properties":{"access_id":"entrance:1777037938","access_type":"entrance","name":"Buyuk Ipak Yo'li","district_name":"Mirzo Ulugbek district","kind_label":"Metro entrance","detail":"Mapped subway entrance"},"geometry":{"type":"Point","coordinates":[69.32747,41.32578]}},{"type":"Feature","properties":{"access_id":"entrance:1777037942","access_type":"entrance","name":"Buyuk Ipak Yo'li","district_name":"Mirzo Ulugbek district","kind_label":"Metro entrance","detail":"Mapped subway entrance"},"geometry":{"type":"Point","coordinates":[69.32986,41.32612]}},{"type":"Feature","properties":{"access_id":"entrance:1777037955","access_type":"entrance","name":"Buyuk Ipak Yo'li","district_name":"Mirzo Ulugbek district","kind_label":"Metro entrance","detail":"Mapped subway entrance"},"geometry":{"type":"Point","coordinates":[69.32999,41.32652]}},{"type":"Feature","properties":{"access_id":"entrance:1777037960","access_type":"entrance","name":"Buyuk Ipak Yo'li","district_name":"Mirzo Ulugbek district","kind_label":"Metro entrance","detail":"Mapped subway entrance"},"geometry":{"type":"Point","coordinates":[69.32712,41.32668]}},{"type":"Feature","properties":{"access_id":"entrance:1777051513","access_type":"entrance","name":"Amir Temur xiyoboni","district_name":"Mirzo Ulugbek district","kind_label":"Metro entrance","detail":"Mapped subway entrance"},"geometry":{"type":"Point","coordinates":[69.2818,41.31162]}},{"type":"Feature","properties":{"access_id":"entrance:1777051516","access_type":"entrance","name":"Amir Temur xiyoboni","district_name":"Yunusabad district","kind_label":"Metro entrance","detail":"Mapped subway entrance"},"geometry":{"type":"Point","coordinates":[69.2811,41.31173]}},{"type":"Feature","properties":{"access_id":"entrance:1777051522","access_type":"entrance","name":"Amir Temur xiyoboni","district_name":"Mirzo Ulugbek district","kind_label":"Metro entrance","detail":"Mapped subway entrance"},"geometry":{"type":"Point","coordinates":[69.28266,41.31223]}},{"type":"Feature","properties":{"access_id":"entrance:1777051524","access_type":"entrance","name":"Amir Temur xiyoboni","district_name":"Mirzo Ulugbek district","kind_label":"Metro entrance","detail":"Mapped subway entrance"},"geometry":{"type":"Point","coordinates":[69.28197,41.31231]}},{"type":"Feature","properties":{"access_id":"entrance:1777051529","access_type":"entrance","name":"Yunus Rajabiy","district_name":"Mirzo Ulugbek district","kind_label":"Metro entrance","detail":"Mapped subway entrance"},"geometry":{"type":"Point","coordinates":[69.28462,41.31308]}},{"type":"Feature","properties":{"access_id":"entrance:1777051535","access_type":"entrance","name":"Yunus Rajabiy","district_name":"Mirzo Ulugbek district","kind_label":"Metro entrance","detail":"Mapped subway entrance"},"geometry":{"type":"Point","coordinates":[69.28441,41.31336]}},{"type":"Feature","properties":{"access_id":"entrance:1777740155","access_type":"entrance","name":null,"district_name":"Shaykhantakhur district","kind_label":"Metro entrance","detail":"Mapped subway entrance"},"geometry":{"type":"Point","coordinates":[69.25476,41.31749]}},{"type":"Feature","properties":{"access_id":"entrance:1777740171","access_type":"entrance","name":null,"district_name":"Shaykhantakhur district","kind_label":"Metro entrance","detail":"Mapped subway entrance"},"geometry":{"type":"Point","coordinates":[69.25467,41.32001]}},{"type":"Feature","properties":{"access_id":"entrance:1777740172","access_type":"entrance","name":null,"district_name":"Shaykhantakhur district","kind_label":"Metro entrance","detail":"Mapped subway entrance"},"geometry":{"type":"Point","coordinates":[69.25408,41.32003]}},{"type":"Feature","properties":{"access_id":"entrance:1777744036","access_type":"entrance","name":"O'zbekiston","district_name":"Chilanzar district","kind_label":"Metro entrance","detail":"Mapped subway entrance"},"geometry":{"type":"Point","coordinates":[69.25367,41.31096]}},{"type":"Feature","properties":{"access_id":"entrance:1777744037","access_type":"entrance","name":"O'zbekiston","district_name":"Chilanzar district","kind_label":"Metro entrance","detail":"Mapped subway entrance"},"geometry":{"type":"Point","coordinates":[69.25306,41.31103]}},{"type":"Feature","properties":{"access_id":"entrance:1777744047","access_type":"entrance","name":"O'zbekiston","district_name":"Shaykhantakhur district","kind_label":"Metro entrance","detail":"Mapped subway entrance"},"geometry":{"type":"Point","coordinates":[69.25283,41.31165]}},{"type":"Feature","properties":{"access_id":"entrance:1777744048","access_type":"entrance","name":"O'zbekiston","district_name":"Shaykhantakhur district","kind_label":"Metro entrance","detail":"Mapped subway entrance"},"geometry":{"type":"Point","coordinates":[69.25375,41.31169]}},{"type":"Feature","properties":{"access_id":"entrance:1777744052","access_type":"entrance","name":null,"district_name":"Shaykhantakhur district","kind_label":"Metro entrance","detail":"Mapped subway entrance"},"geometry":{"type":"Point","coordinates":[69.25376,41.31266]}},{"type":"Feature","properties":{"access_id":"entrance:1777845996","access_type":"entrance","name":null,"district_name":"Chilanzar district","kind_label":"Metro entrance","detail":"Mapped subway entrance"},"geometry":{"type":"Point","coordinates":[69.19592,41.25565]}},{"type":"Feature","properties":{"access_id":"entrance:1777846001","access_type":"entrance","name":null,"district_name":"Chilanzar district","kind_label":"Metro entrance","detail":"Mapped subway entrance"},"geometry":{"type":"Point","coordinates":[69.19592,41.25605]}},{"type":"Feature","properties":{"access_id":"entrance:1777846003","access_type":"entrance","name":null,"district_name":"Chilanzar district","kind_label":"Metro entrance","detail":"Mapped subway entrance"},"geometry":{"type":"Point","coordinates":[69.19494,41.25692]}},{"type":"Feature","properties":{"access_id":"entrance:1777846008","access_type":"entrance","name":null,"district_name":"Chilanzar district","kind_label":"Metro entrance","detail":"Mapped subway entrance"},"geometry":{"type":"Point","coordinates":[69.19595,41.25723]}},{"type":"Feature","properties":{"access_id":"entrance:1777846021","access_type":"entrance","name":null,"district_name":"Chilanzar district","kind_label":"Metro entrance","detail":"Mapped subway entrance"},"geometry":{"type":"Point","coordinates":[69.19594,41.25765]}},{"type":"Feature","properties":{"access_id":"entrance:1777846030","access_type":"entrance","name":null,"district_name":"Chilanzar district","kind_label":"Metro entrance","detail":"Mapped subway entrance"},"geometry":{"type":"Point","coordinates":[69.19457,41.25823]}},{"type":"Feature","properties":{"access_id":"entrance:1777850319","access_type":"entrance","name":"Chorsu","district_name":"Shaykhantakhur district","kind_label":"Metro entrance","detail":"Mapped subway entrance"},"geometry":{"type":"Point","coordinates":[69.23597,41.32541]}},{"type":"Feature","properties":{"access_id":"entrance:1786939640","access_type":"entrance","name":"Gafur G'ulom","district_name":"Shaykhantakhur district","kind_label":"Metro entrance","detail":"Mapped subway entrance"},"geometry":{"type":"Point","coordinates":[69.24756,41.32762]}},{"type":"Feature","properties":{"access_id":"entrance:2564123992","access_type":"entrance","name":"Шахристан","district_name":"Yunusabad district","kind_label":"Metro entrance","detail":"Mapped subway entrance"},"geometry":{"type":"Point","coordinates":[69.28816,41.35201]}},{"type":"Feature","properties":{"access_id":"entrance:2564123993","access_type":"entrance","name":"Шахристан","district_name":"Yunusabad district","kind_label":"Metro entrance","detail":"Mapped subway entrance"},"geometry":{"type":"Point","coordinates":[69.28763,41.35204]}},{"type":"Feature","properties":{"access_id":"entrance:3550608273","access_type":"entrance","name":"Абдулла Кадыри","district_name":"Yunusabad district","kind_label":"Metro entrance","detail":"Mapped subway entrance"},"geometry":{"type":"Point","coordinates":[69.28259,41.32203]}},{"type":"Feature","properties":{"access_id":"entrance:3550608274","access_type":"entrance","name":"Абдулла Кадыри","district_name":"Yunusabad district","kind_label":"Metro entrance","detail":"Mapped subway entrance"},"geometry":{"type":"Point","coordinates":[69.28274,41.32201]}},{"type":"Feature","properties":{"access_id":"entrance:3725779683","access_type":"entrance","name":"Xalqlar Do'stligi","district_name":"Chilanzar district","kind_label":"Metro entrance","detail":"Mapped subway entrance"},"geometry":{"type":"Point","coordinates":[69.24316,41.31133]}},{"type":"Feature","properties":{"access_id":"entrance:4185804596","access_type":"entrance","name":"Buyuk Ipak Yo'li","district_name":"Mirzo Ulugbek district","kind_label":"Metro entrance","detail":"Mapped subway entrance"},"geometry":{"type":"Point","coordinates":[69.32783,41.32626]}},{"type":"Feature","properties":{"access_id":"entrance:4568986686","access_type":"entrance","name":"Yunusobod","district_name":"Yunusabad district","kind_label":"Metro entrance","detail":"Mapped subway entrance"},"geometry":{"type":"Point","coordinates":[69.29231,41.36747]}},{"type":"Feature","properties":{"access_id":"entrance:4694744697","access_type":"entrance","name":"Buyuk Ipak Yo'li","district_name":"Mirzo Ulugbek district","kind_label":"Metro entrance","detail":"Mapped subway entrance"},"geometry":{"type":"Point","coordinates":[69.3264,41.32665]}},{"type":"Feature","properties":{"access_id":"entrance:4694744698","access_type":"entrance","name":"Buyuk Ipak Yo'li","district_name":"Mirzo Ulugbek district","kind_label":"Metro entrance","detail":"Mapped subway entrance"},"geometry":{"type":"Point","coordinates":[69.32668,41.32693]}},{"type":"Feature","properties":{"access_id":"entrance:4759259236","access_type":"entrance","name":"Yunusobod","district_name":"Yunusabad district","kind_label":"Metro entrance","detail":"Mapped subway entrance"},"geometry":{"type":"Point","coordinates":[69.29129,41.36635]}},{"type":"Feature","properties":{"access_id":"entrance:4977114644","access_type":"entrance","name":"Mirzo Ulugʻbek","district_name":"Chilanzar district","kind_label":"Metro entrance","detail":"Mapped subway entrance"},"geometry":{"type":"Point","coordinates":[69.2136,41.28261]}},{"type":"Feature","properties":{"access_id":"entrance:5185753347","access_type":"entrance","name":"Paxtakor","district_name":"Shaykhantakhur district","kind_label":"Metro entrance","detail":"Mapped subway entrance"},"geometry":{"type":"Point","coordinates":[69.25611,41.31756]}},{"type":"Feature","properties":{"access_id":"entrance:5323228253","access_type":"entrance","name":"Беруни","district_name":"Shaykhantakhur district","kind_label":"Metro entrance","detail":"Mapped subway entrance"},"geometry":{"type":"Point","coordinates":[69.20589,41.34538]}},{"type":"Feature","properties":{"access_id":"entrance:5323228264","access_type":"entrance","name":"Beruniy","district_name":"Shaykhantakhur district","kind_label":"Metro entrance","detail":"Mapped subway entrance"},"geometry":{"type":"Point","coordinates":[69.20619,41.34414]}},{"type":"Feature","properties":{"access_id":"entrance:5431967358","access_type":"entrance","name":"Chilonzor","district_name":"Chilanzar district","kind_label":"Metro entrance","detail":"Mapped subway entrance"},"geometry":{"type":"Point","coordinates":[69.2046,41.27501]}},{"type":"Feature","properties":{"access_id":"entrance:5432735054","access_type":"entrance","name":"Mashinasozlar","district_name":"Yashnabad district","kind_label":"Metro entrance","detail":"Mapped subway entrance"},"geometry":{"type":"Point","coordinates":[69.30667,41.29904]}},{"type":"Feature","properties":{"access_id":"entrance:5432790808","access_type":"entrance","name":null,"district_name":"Shaykhantakhur district","kind_label":"Metro entrance","detail":"Mapped subway entrance"},"geometry":{"type":"Point","coordinates":[69.25321,41.3128]}},{"type":"Feature","properties":{"access_id":"entrance:5433157103","access_type":"entrance","name":"G'afur G'ulom","district_name":"Almazar district","kind_label":"Metro entrance","detail":"Mapped subway entrance"},"geometry":{"type":"Point","coordinates":[69.24582,41.32734]}},{"type":"Feature","properties":{"access_id":"entrance:5433186399","access_type":"entrance","name":"Беруни","district_name":"Almazar district","kind_label":"Metro entrance","detail":"Mapped subway entrance"},"geometry":{"type":"Point","coordinates":[69.20659,41.3461]}},{"type":"Feature","properties":{"access_id":"entrance:5433372094","access_type":"entrance","name":"Kosmonavtlar","district_name":"Yakkasaray district","kind_label":"Metro entrance","detail":"Mapped subway entrance"},"geometry":{"type":"Point","coordinates":[69.26372,41.30577]}},{"type":"Feature","properties":{"access_id":"entrance:5462640967","access_type":"entrance","name":"Mirzo Ulugʻbek","district_name":"Chilanzar district","kind_label":"Metro entrance","detail":"Mapped subway entrance"},"geometry":{"type":"Point","coordinates":[69.21228,41.28142]}},{"type":"Feature","properties":{"access_id":"entrance:6154109557","access_type":"entrance","name":"Xalqlar Do'stligi","district_name":"Chilanzar district","kind_label":"Metro entrance","detail":"Mapped subway entrance"},"geometry":{"type":"Point","coordinates":[69.24257,41.31097]}},{"type":"Feature","properties":{"access_id":"entrance:661184747","access_type":"entrance","name":"Oybek","district_name":"Mirabad district","kind_label":"Metro entrance","detail":"Mapped subway entrance"},"geometry":{"type":"Point","coordinates":[69.2738,41.29873]}},{"type":"Feature","properties":{"access_id":"entrance:661184754","access_type":"entrance","name":"Oybek","district_name":"Mirabad district","kind_label":"Metro entrance","detail":"Mapped subway entrance"},"geometry":{"type":"Point","coordinates":[69.2731,41.29833]}},{"type":"Feature","properties":{"access_id":"entrance:661184760","access_type":"entrance","name":"Oybek","district_name":"Mirabad district","kind_label":"Metro entrance","detail":"Mapped subway entrance"},"geometry":{"type":"Point","coordinates":[69.27244,41.29894]}},{"type":"Feature","properties":{"access_id":"entrance:661184791","access_type":"entrance","name":"Mingoʻrik","district_name":"Mirabad district","kind_label":"Metro entrance","detail":"Mapped subway entrance"},"geometry":{"type":"Point","coordinates":[69.27316,41.29929]}},{"type":"Feature","properties":{"access_id":"entrance:7053509979","access_type":"entrance","name":"Turkiston","district_name":"Yunusabad district","kind_label":"Metro entrance","detail":"Mapped subway entrance"},"geometry":{"type":"Point","coordinates":[69.29612,41.3764]}},{"type":"Feature","properties":{"access_id":"entrance:7053509980","access_type":"entrance","name":"Yunusobod","district_name":"Yunusabad district","kind_label":"Metro entrance","detail":"Mapped subway entrance"},"geometry":{"type":"Point","coordinates":[69.29304,41.36711]}},{"type":"Feature","properties":{"access_id":"entrance:7053509983","access_type":"entrance","name":"Yunusobod","district_name":"Yunusabad district","kind_label":"Metro entrance","detail":"Mapped subway entrance"},"geometry":{"type":"Point","coordinates":[69.29169,41.36575]}},{"type":"Feature","properties":{"access_id":"entrance:7053517096","access_type":"entrance","name":"Turkiston","district_name":"Yunusabad district","kind_label":"Metro entrance","detail":"Mapped subway entrance"},"geometry":{"type":"Point","coordinates":[69.29525,41.37654]}},{"type":"Feature","properties":{"access_id":"entrance:7851505409","access_type":"entrance","name":"Turkiston","district_name":"Yunusabad district","kind_label":"Metro entrance","detail":"Mapped subway entrance"},"geometry":{"type":"Point","coordinates":[69.29669,41.37834]}},{"type":"Feature","properties":{"access_id":"entrance:7851505411","access_type":"entrance","name":"Turkiston","district_name":"Yunusabad district","kind_label":"Metro entrance","detail":"Mapped subway entrance"},"geometry":{"type":"Point","coordinates":[69.29573,41.37816]}},{"type":"Feature","properties":{"access_id":"entrance:7997001763","access_type":"entrance","name":"Bekat 6","district_name":"Yashnabad district","kind_label":"Metro entrance","detail":"Mapped subway entrance"},"geometry":{"type":"Point","coordinates":[69.35819,41.25644]}},{"type":"Feature","properties":{"access_id":"entrance:7997001764","access_type":"entrance","name":null,"district_name":"Bektemir district","kind_label":"Metro entrance","detail":"Mapped subway entrance"},"geometry":{"type":"Point","coordinates":[69.32745,41.23771]}},{"type":"Feature","properties":{"access_id":"entrance:854338139","access_type":"entrance","name":"Chilonzor","district_name":"Chilanzar district","kind_label":"Metro entrance","detail":"Mapped subway entrance"},"geometry":{"type":"Point","coordinates":[69.20382,41.27397]}},{"type":"Feature","properties":{"access_id":"entrance:854338140","access_type":"entrance","name":"Chilonzor","district_name":"Chilanzar district","kind_label":"Metro entrance","detail":"Mapped subway entrance"},"geometry":{"type":"Point","coordinates":[69.20359,41.27367]}},{"type":"Feature","properties":{"access_id":"entrance:854338141","access_type":"entrance","name":"Chilonzor","district_name":"Chilanzar district","kind_label":"Metro entrance","detail":"Mapped subway entrance"},"geometry":{"type":"Point","coordinates":[69.20472,41.2736]}},{"type":"Feature","properties":{"access_id":"entrance:854338142","access_type":"entrance","name":"Chilonzor","district_name":"Chilanzar district","kind_label":"Metro entrance","detail":"Mapped subway entrance"},"geometry":{"type":"Point","coordinates":[69.20446,41.27325]}},{"type":"Feature","properties":{"access_id":"entrance:854338143","access_type":"entrance","name":"Chilonzor","district_name":"Chilanzar district","kind_label":"Metro entrance","detail":"Mapped subway entrance"},"geometry":{"type":"Point","coordinates":[69.20487,41.27536]}},{"type":"Feature","properties":{"access_id":"entrance:854338144","access_type":"entrance","name":"Chilonzor","district_name":"Chilanzar district","kind_label":"Metro entrance","detail":"Mapped subway entrance"},"geometry":{"type":"Point","coordinates":[69.20552,41.27463]}},{"type":"Feature","properties":{"access_id":"entrance:854338145","access_type":"entrance","name":"Chilonzor","district_name":"Chilanzar district","kind_label":"Metro entrance","detail":"Mapped subway entrance"},"geometry":{"type":"Point","coordinates":[69.20574,41.27493]}},{"type":"Feature","properties":{"access_id":"entrance:9368644898","access_type":"entrance","name":null,"district_name":"Chilanzar district","kind_label":"Metro entrance","detail":"Mapped subway entrance"},"geometry":{"type":"Point","coordinates":[69.19406,41.2581]}},{"type":"Feature","properties":{"access_id":"station:10537931294","access_type":"station_fallback","name":"Matonat","district_name":"Mirabad district","kind_label":"Station fallback","detail":"No mapped entrance within 400 m (nearest 622 m)"},"geometry":{"type":"Point","coordinates":[69.30832,41.24447]}},{"type":"Feature","properties":{"access_id":"station:10538244112","access_type":"station_fallback","name":"Choshtepa","district_name":"Yangikhayot district","kind_label":"Station fallback","detail":"No mapped entrance within 400 m (nearest 1932 m)"},"geometry":{"type":"Point","coordinates":[69.19603,41.23825]}},{"type":"Feature","properties":{"access_id":"station:10538244113","access_type":"station_fallback","name":"O‘zgarish","district_name":"Yangikhayot district","kind_label":"Station fallback","detail":"No mapped entrance within 400 m (nearest 753 m)"},"geometry":{"type":"Point","coordinates":[69.20397,41.22734]}},{"type":"Feature","properties":{"access_id":"station:10538244119","access_type":"station_fallback","name":"Yangihayot","district_name":"Yangikhayot district","kind_label":"Station fallback","detail":"No mapped entrance within 400 m (nearest 997 m)"},"geometry":{"type":"Point","coordinates":[69.21402,41.21351]}},{"type":"Feature","properties":{"access_id":"station:10538244120","access_type":"station_fallback","name":"Chinor","district_name":"Yangikhayot district","kind_label":"Station fallback","detail":"No mapped entrance within 400 m (nearest 1860 m)"},"geometry":{"type":"Point","coordinates":[69.21896,41.2067]}},{"type":"Feature","properties":{"access_id":"station:11218653778","access_type":"station_fallback","name":"Qipchok","district_name":"Yangikhayot district","kind_label":"Station fallback","detail":"No mapped entrance within 400 m (nearest 2086 m)"},"geometry":{"type":"Point","coordinates":[69.22141,41.20542]}},{"type":"Feature","properties":{"access_id":"station:11218653779","access_type":"station_fallback","name":"Turon","district_name":"Yangikhayot district","kind_label":"Station fallback","detail":"No mapped entrance within 400 m (nearest 2447 m)"},"geometry":{"type":"Point","coordinates":[69.23415,41.21068]}},{"type":"Feature","properties":{"access_id":"station:6011988808","access_type":"station_fallback","name":"Tuzel","district_name":"Yashnabad district","kind_label":"Station fallback","detail":"No mapped entrance within 400 m (nearest 945 m)"},"geometry":{"type":"Point","coordinates":[69.35635,41.29175]}},{"type":"Feature","properties":{"access_id":"station:7597627323","access_type":"station_fallback","name":"Rohat","district_name":"Yashnabad district","kind_label":"Station fallback","detail":"No mapped entrance within 400 m (nearest 1168 m)"},"geometry":{"type":"Point","coordinates":[69.36505,41.26561]}},{"type":"Feature","properties":{"access_id":"station:9972711745","access_type":"station_fallback","name":"Olmos","district_name":"Yashnabad district","kind_label":"Station fallback","detail":"No mapped entrance within 400 m (nearest 2060 m)"},"geometry":{"type":"Point","coordinates":[69.36033,41.2817]}}]}
